{"type":"FeatureCollection","features":[{"type":"Feature","properties":{"pwsid":"CA2400046","pws_name":"BLACK RASCAL WATER COMPANY","pop_served":367,"connections":131,"geom_type":"polygon","sgti_ft_per_yr":-2.165,"n_wells_used":4,"n_wells_significant":4,"vuln_rank":2,"radius_m":2000},"geometry":{"type":"Polygon","coordinates":[[[-120.44446,37.32348],[-120.44446,37.32015],[-120.44943,37.32017],[-120.44953,37.3205],[-120.44893,37.32059],[-120.44884,37.32376],[-120.44446,37.32348]]]}},{"type":"Feature","properties":{"pwsid":"CA2400053","pws_name":"EL NIDO MOBILE HOME PARK","pop_served":137,"connections":50,"geom_type":"polygon","sgti_ft_per_yr":0.068,"n_wells_used":1,"n_wells_significant":0,"vuln_rank":4,"radius_m":2000},"geometry":{"type":"Polygon","coordinates":[[[-120.49205,37.13114],[-120.49203,37.13369],[-120.49059,37.13369],[-120.4906,37.13305],[-120.48965,37.13305],[-120.48966,37.13112],[-120.49205,37.13114]]]}},{"type":"Feature","properties":{"pwsid":"CA2400084","pws_name":"EVERGREEN MOBILE HOME PARK","pop_served":36,"connections":11,"geom_type":"polygon","sgti_ft_per_yr":null,"n_wells_used":null,"n_wells_significant":null,"vuln_rank":null,"radius_m":null},"geometry":{"type":"Polygon","coordinates":[[[-120.59551,37.37981],[-120.59692,37.37981],[-120.59691,37.38049],[-120.5955,37.3805],[-120.59551,37.37981]]]}},{"type":"Feature","properties":{"pwsid":"CA2400172","pws_name":"JOHN LATORACCA CORRECTIONAL FACILITY","pop_served":800,"connections":12,"geom_type":"polygon","sgti_ft_per_yr":null,"n_wells_used":null,"n_wells_significant":null,"vuln_rank":null,"radius_m":null},"geometry":{"type":"Polygon","coordinates":[[[-120.54329,37.18706],[-120.54305,37.19088],[-120.54018,37.19039],[-120.5396,37.19047],[-120.53888,37.19094],[-120.5383,37.19169],[-120.53773,37.19191],[-120.53724,37.19242],[-120.53575,37.19144],[-120.53429,37.19125],[-120.53407,37.19088],[-120.53405,37.19024],[-120.53436,37.18792],[-120.53643,37.18785],[-120.53887,37.18809],[-120.53928,37.18727],[-120.53895,37.1868],[-120.54001,37.18698],[-120.54329,37.18706]]]}},{"type":"Feature","properties":{"pwsid":"CA2410011","pws_name":"LE GRAND COMM SERVICES DIST","pop_served":1739,"connections":456,"geom_type":"polygon","sgti_ft_per_yr":-3.034,"n_wells_used":2,"n_wells_significant":2,"vuln_rank":1,"radius_m":2000},"geometry":{"type":"Polygon","coordinates":[[[-120.26178,37.23589],[-120.25442,37.23595],[-120.25027,37.23257],[-120.25003,37.23277],[-120.24883,37.2318],[-120.24735,37.23297],[-120.24448,37.23296],[-120.24447,37.23337],[-120.24288,37.23336],[-120.24289,37.2316],[-120.24652,37.23162],[-120.24731,37.23057],[-120.24477,37.22851],[-120.24381,37.22853],[-120.24384,37.22475],[-120.24757,37.22476],[-120.24757,37.22112],[-120.24908,37.22112],[-120.24907,37.22476],[-120.25477,37.22468],[-120.25474,37.22747],[-120.26188,37.22748],[-120.26189,37.22903],[-120.25618,37.22899],[-120.25537,37.22906],[-120.25536,37.22948],[-120.25505,37.22948],[-120.25504,37.23048],[-120.2584,37.23043],[-120.25838,37.23217],[-120.25957,37.23216],[-120.25956,37.23314],[-120.26183,37.2331],[-120.26178,37.23589]]]}},{"type":"Feature","properties":{"pwsid":"CA2410700","pws_name":"CASTLE AIRPORT","pop_served":1650,"connections":134,"geom_type":"polygon","sgti_ft_per_yr":-1.949,"n_wells_used":2,"n_wells_significant":2,"vuln_rank":3,"radius_m":2000},"geometry":{"type":"Polygon","coordinates":[[[-120.58109,37.36562],[-120.57903,37.36971],[-120.57899,37.37858],[-120.58714,37.3867],[-120.58692,37.39075],[-120.58581,37.39198],[-120.5865,37.39819],[-120.58366,37.3986],[-120.58362,37.4003],[-120.58117,37.40044],[-120.58122,37.39853],[-120.57654,37.39853],[-120.57654,37.39307],[-120.56362,37.37984],[-120.54933,37.36566],[-120.5495,37.36091],[-120.55641,37.36061],[-120.55847,37.35597],[-120.55864,37.35167],[-120.58109,37.36562]]]}}]}