{"type":"FeatureCollection","features":[{"type":"Feature","properties":{"station_id":"367991N1201592W001","well_use":"Observation","slope_ft_per_yr":0.436,"p_value":0.0,"trend":"increasing","n_measurements":169,"record_years":12.3},"geometry":{"type":"Point","coordinates":[-120.15917,36.79908]}},{"type":"Feature","properties":{"station_id":"368118N1201452W001","well_use":"Unknown","slope_ft_per_yr":-0.306,"p_value":0.0194,"trend":"decreasing","n_measurements":26,"record_years":19.1},"geometry":{"type":"Point","coordinates":[-120.1452,36.8118]}},{"type":"Feature","properties":{"station_id":"368146N1201554W001","well_use":"Unknown","slope_ft_per_yr":-0.257,"p_value":0.3024,"trend":"no trend","n_measurements":21,"record_years":18.1},"geometry":{"type":"Point","coordinates":[-120.1554,36.8146]}},{"type":"Feature","properties":{"station_id":"368221N1201157W001","well_use":"Unknown","slope_ft_per_yr":-0.936,"p_value":0.1115,"trend":"no trend","n_measurements":20,"record_years":13.1},"geometry":{"type":"Point","coordinates":[-120.1157,36.8221]}},{"type":"Feature","properties":{"station_id":"368232N1201421W001","well_use":"Irrigation","slope_ft_per_yr":-0.5,"p_value":0.2186,"trend":"no trend","n_measurements":27,"record_years":19.1},"geometry":{"type":"Point","coordinates":[-120.1421,36.8232]}},{"type":"Feature","properties":{"station_id":"368235N1200565W001","well_use":"Observation","slope_ft_per_yr":-0.123,"p_value":0.072,"trend":"no trend","n_measurements":162,"record_years":10.1},"geometry":{"type":"Point","coordinates":[-120.05647,36.82351]}},{"type":"Feature","properties":{"station_id":"368293N1200474W001","well_use":"Unknown","slope_ft_per_yr":-0.815,"p_value":0.0,"trend":"decreasing","n_measurements":28,"record_years":19.1},"geometry":{"type":"Point","coordinates":[-120.0474,36.8293]}},{"type":"Feature","properties":{"station_id":"368299N1200388W001","well_use":"Irrigation","slope_ft_per_yr":-1.234,"p_value":0.0,"trend":"decreasing","n_measurements":29,"record_years":19.1},"geometry":{"type":"Point","coordinates":[-120.0388,36.8299]}},{"type":"Feature","properties":{"station_id":"368310N1200974W001","well_use":"Unknown","slope_ft_per_yr":-1.325,"p_value":0.0003,"trend":"decreasing","n_measurements":28,"record_years":19.1},"geometry":{"type":"Point","coordinates":[-120.0974,36.831]}},{"type":"Feature","properties":{"station_id":"368332N1200096W001","well_use":"Unknown","slope_ft_per_yr":-0.284,"p_value":0.2989,"trend":"no trend","n_measurements":20,"record_years":13.1},"geometry":{"type":"Point","coordinates":[-120.0096,36.8332]}},{"type":"Feature","properties":{"station_id":"368332N1200546W001","well_use":"Unknown","slope_ft_per_yr":-0.697,"p_value":0.0019,"trend":"decreasing","n_measurements":26,"record_years":19.1},"geometry":{"type":"Point","coordinates":[-120.0546,36.8332]}},{"type":"Feature","properties":{"station_id":"368341N1200113W001","well_use":"Unknown","slope_ft_per_yr":-0.647,"p_value":0.0004,"trend":"decreasing","n_measurements":26,"record_years":19.1},"geometry":{"type":"Point","coordinates":[-120.0113,36.8341]}},{"type":"Feature","properties":{"station_id":"368371N1200785W001","well_use":"Unknown","slope_ft_per_yr":-0.904,"p_value":0.0026,"trend":"decreasing","n_measurements":23,"record_years":18.1},"geometry":{"type":"Point","coordinates":[-120.0785,36.8371]}},{"type":"Feature","properties":{"station_id":"368377N1200924W001","well_use":"Unknown","slope_ft_per_yr":-1.118,"p_value":0.0241,"trend":"decreasing","n_measurements":22,"record_years":19.1},"geometry":{"type":"Point","coordinates":[-120.0924,36.8377]}},{"type":"Feature","properties":{"station_id":"368418N1200632W001","well_use":"Unknown","slope_ft_per_yr":-0.821,"p_value":0.0001,"trend":"decreasing","n_measurements":28,"record_years":19.1},"geometry":{"type":"Point","coordinates":[-120.0632,36.8418]}},{"type":"Feature","properties":{"station_id":"368427N1200377W001","well_use":"Unknown","slope_ft_per_yr":-0.094,"p_value":0.8622,"trend":"no trend","n_measurements":24,"record_years":15.0},"geometry":{"type":"Point","coordinates":[-120.0377,36.8427]}},{"type":"Feature","properties":{"station_id":"368438N1199927W001","well_use":"Unknown","slope_ft_per_yr":-0.361,"p_value":0.0342,"trend":"decreasing","n_measurements":22,"record_years":15.0},"geometry":{"type":"Point","coordinates":[-119.9927,36.8438]}},{"type":"Feature","properties":{"station_id":"368441N1201291W001","well_use":"Unknown","slope_ft_per_yr":-1.0,"p_value":0.0058,"trend":"decreasing","n_measurements":25,"record_years":19.1},"geometry":{"type":"Point","coordinates":[-120.1291,36.8441]}},{"type":"Feature","properties":{"station_id":"368496N1201649W001","well_use":"Unknown","slope_ft_per_yr":-0.712,"p_value":0.0425,"trend":"decreasing","n_measurements":26,"record_years":17.0},"geometry":{"type":"Point","coordinates":[-120.1649,36.8496]}},{"type":"Feature","properties":{"station_id":"368502N1200941W001","well_use":"Unknown","slope_ft_per_yr":-1.4,"p_value":0.0001,"trend":"decreasing","n_measurements":28,"record_years":19.1},"geometry":{"type":"Point","coordinates":[-120.0941,36.8502]}},{"type":"Feature","properties":{"station_id":"368507N1201468W001","well_use":"Unknown","slope_ft_per_yr":-0.468,"p_value":0.1728,"trend":"no trend","n_measurements":20,"record_years":17.0},"geometry":{"type":"Point","coordinates":[-120.1468,36.8507]}},{"type":"Feature","properties":{"station_id":"368516N1200888W001","well_use":"Unknown","slope_ft_per_yr":-0.803,"p_value":0.0275,"trend":"decreasing","n_measurements":26,"record_years":19.1},"geometry":{"type":"Point","coordinates":[-120.0888,36.8516]}},{"type":"Feature","properties":{"station_id":"368516N1201829W001","well_use":"Unknown","slope_ft_per_yr":-2.458,"p_value":0.0031,"trend":"decreasing","n_measurements":26,"record_years":24.1},"geometry":{"type":"Point","coordinates":[-120.1829,36.8516]}},{"type":"Feature","properties":{"station_id":"368532N1199029W001","well_use":"Unknown","slope_ft_per_yr":-0.174,"p_value":0.1332,"trend":"no trend","n_measurements":28,"record_years":19.1},"geometry":{"type":"Point","coordinates":[-119.9029,36.8532]}},{"type":"Feature","properties":{"station_id":"368577N1200018W001","well_use":"Unknown","slope_ft_per_yr":0.655,"p_value":0.0345,"trend":"increasing","n_measurements":21,"record_years":14.1},"geometry":{"type":"Point","coordinates":[-120.0018,36.8577]}},{"type":"Feature","properties":{"station_id":"368582N1199613W001","well_use":"Unknown","slope_ft_per_yr":0.331,"p_value":0.259,"trend":"no trend","n_measurements":22,"record_years":14.7},"geometry":{"type":"Point","coordinates":[-119.9613,36.8582]}},{"type":"Feature","properties":{"station_id":"368596N1201832W001","well_use":"Irrigation","slope_ft_per_yr":-2.176,"p_value":0.0,"trend":"decreasing","n_measurements":39,"record_years":24.7},"geometry":{"type":"Point","coordinates":[-120.1832,36.8596]}},{"type":"Feature","properties":{"station_id":"368638N1199129W001","well_use":"Unknown","slope_ft_per_yr":-0.769,"p_value":0.0021,"trend":"decreasing","n_measurements":28,"record_years":19.1},"geometry":{"type":"Point","coordinates":[-119.9129,36.8638]}},{"type":"Feature","properties":{"station_id":"368649N1200841W001","well_use":"Unknown","slope_ft_per_yr":-0.989,"p_value":0.0157,"trend":"decreasing","n_measurements":21,"record_years":19.1},"geometry":{"type":"Point","coordinates":[-120.0841,36.8649]}},{"type":"Feature","properties":{"station_id":"368652N1198671W001","well_use":"Unknown","slope_ft_per_yr":0.373,"p_value":0.9225,"trend":"no trend","n_measurements":20,"record_years":22.4},"geometry":{"type":"Point","coordinates":[-119.8671,36.8652]}},{"type":"Feature","properties":{"station_id":"368652N1203188W001","well_use":"Unknown","slope_ft_per_yr":-1.533,"p_value":0.1834,"trend":"no trend","n_measurements":20,"record_years":16.1},"geometry":{"type":"Point","coordinates":[-120.3188,36.8652]}},{"type":"Feature","properties":{"station_id":"368655N1200468W001","well_use":"Unknown","slope_ft_per_yr":-0.391,"p_value":0.1941,"trend":"no trend","n_measurements":20,"record_years":16.1},"geometry":{"type":"Point","coordinates":[-120.0468,36.8655]}},{"type":"Feature","properties":{"station_id":"368655N1200777W001","well_use":"Unknown","slope_ft_per_yr":-1.604,"p_value":0.0001,"trend":"decreasing","n_measurements":28,"record_years":19.1},"geometry":{"type":"Point","coordinates":[-120.0777,36.8655]}},{"type":"Feature","properties":{"station_id":"368657N1198971W001","well_use":"Irrigation","slope_ft_per_yr":-0.253,"p_value":0.0615,"trend":"no trend","n_measurements":31,"record_years":19.1},"geometry":{"type":"Point","coordinates":[-119.8971,36.8657]}},{"type":"Feature","properties":{"station_id":"368663N1200299W001","well_use":"Unknown","slope_ft_per_yr":-0.937,"p_value":0.0001,"trend":"decreasing","n_measurements":27,"record_years":18.1},"geometry":{"type":"Point","coordinates":[-120.0299,36.8663]}},{"type":"Feature","properties":{"station_id":"368680N1201377W001","well_use":"Unknown","slope_ft_per_yr":-1.052,"p_value":0.0231,"trend":"decreasing","n_measurements":20,"record_years":13.1},"geometry":{"type":"Point","coordinates":[-120.1377,36.868]}},{"type":"Feature","properties":{"station_id":"368700N1198207W001","well_use":"Irrigation","slope_ft_per_yr":-0.217,"p_value":0.1738,"trend":"no trend","n_measurements":21,"record_years":11.3},"geometry":{"type":"Point","coordinates":[-119.82068,36.86995]}},{"type":"Feature","properties":{"station_id":"368700N1198299W001","well_use":"Irrigation","slope_ft_per_yr":0.148,"p_value":0.7856,"trend":"no trend","n_measurements":21,"record_years":11.3},"geometry":{"type":"Point","coordinates":[-119.82994,36.90437]}},{"type":"Feature","properties":{"station_id":"368732N1200099W001","well_use":"Unknown","slope_ft_per_yr":-0.859,"p_value":0.0012,"trend":"decreasing","n_measurements":28,"record_years":19.1},"geometry":{"type":"Point","coordinates":[-120.0099,36.8732]}},{"type":"Feature","properties":{"station_id":"368732N1201835W001","well_use":"Unknown","slope_ft_per_yr":-1.398,"p_value":0.0151,"trend":"decreasing","n_measurements":23,"record_years":23.7},"geometry":{"type":"Point","coordinates":[-120.1835,36.8732]}},{"type":"Feature","properties":{"station_id":"368752N1200377W001","well_use":"Unknown","slope_ft_per_yr":-0.988,"p_value":0.0002,"trend":"decreasing","n_measurements":28,"record_years":19.1},"geometry":{"type":"Point","coordinates":[-120.0377,36.8752]}},{"type":"Feature","properties":{"station_id":"368780N1197899W001","well_use":"Observation","slope_ft_per_yr":-0.055,"p_value":0.0182,"trend":"decreasing","n_measurements":173,"record_years":10.1},"geometry":{"type":"Point","coordinates":[-119.78995,36.87798]}},{"type":"Feature","properties":{"station_id":"368782N1198057W001","well_use":"Irrigation","slope_ft_per_yr":-0.558,"p_value":0.0001,"trend":"decreasing","n_measurements":36,"record_years":24.7},"geometry":{"type":"Point","coordinates":[-119.8057,36.8782]}},{"type":"Feature","properties":{"station_id":"368785N1200832W001","well_use":"Unknown","slope_ft_per_yr":-1.609,"p_value":0.0063,"trend":"decreasing","n_measurements":24,"record_years":19.1},"geometry":{"type":"Point","coordinates":[-120.0832,36.8785]}},{"type":"Feature","properties":{"station_id":"368788N1198977W001","well_use":"Unknown","slope_ft_per_yr":-1.957,"p_value":0.0,"trend":"decreasing","n_measurements":24,"record_years":16.1},"geometry":{"type":"Point","coordinates":[-119.8977,36.8788]}},{"type":"Feature","properties":{"station_id":"368788N1199121W001","well_use":"Unknown","slope_ft_per_yr":-1.433,"p_value":0.0001,"trend":"decreasing","n_measurements":25,"record_years":16.1},"geometry":{"type":"Point","coordinates":[-119.9121,36.8788]}},{"type":"Feature","properties":{"station_id":"368793N1199252W001","well_use":"Unknown","slope_ft_per_yr":-2.067,"p_value":0.0,"trend":"decreasing","n_measurements":28,"record_years":19.1},"geometry":{"type":"Point","coordinates":[-119.9252,36.8793]}},{"type":"Feature","properties":{"station_id":"368799N1198646W001","well_use":"Unknown","slope_ft_per_yr":-0.932,"p_value":0.0497,"trend":"decreasing","n_measurements":21,"record_years":24.1},"geometry":{"type":"Point","coordinates":[-119.8646,36.8799]}},{"type":"Feature","properties":{"station_id":"368799N1202216W001","well_use":"Unknown","slope_ft_per_yr":-0.324,"p_value":0.2825,"trend":"no trend","n_measurements":25,"record_years":16.1},"geometry":{"type":"Point","coordinates":[-120.2216,36.8799]}},{"type":"Feature","properties":{"station_id":"368805N1198346W001","well_use":"Unknown","slope_ft_per_yr":-1.574,"p_value":0.0002,"trend":"decreasing","n_measurements":20,"record_years":24.1},"geometry":{"type":"Point","coordinates":[-119.8346,36.8805]}},{"type":"Feature","properties":{"station_id":"368805N1199474W001","well_use":"Unknown","slope_ft_per_yr":-0.761,"p_value":0.0001,"trend":"decreasing","n_measurements":28,"record_years":19.1},"geometry":{"type":"Point","coordinates":[-119.9474,36.8805]}},{"type":"Feature","properties":{"station_id":"368805N1199474W002","well_use":"Unknown","slope_ft_per_yr":-0.839,"p_value":0.0005,"trend":"decreasing","n_measurements":28,"record_years":19.1},"geometry":{"type":"Point","coordinates":[-119.9474,36.8805]}},{"type":"Feature","properties":{"station_id":"368810N1199385W001","well_use":"Unknown","slope_ft_per_yr":-0.499,"p_value":0.0006,"trend":"decreasing","n_measurements":28,"record_years":19.1},"geometry":{"type":"Point","coordinates":[-119.9385,36.881]}},{"type":"Feature","properties":{"station_id":"368838N1202732W001","well_use":"Unknown","slope_ft_per_yr":-2.317,"p_value":0.0011,"trend":"decreasing","n_measurements":23,"record_years":22.1},"geometry":{"type":"Point","coordinates":[-120.2732,36.8838]}},{"type":"Feature","properties":{"station_id":"368849N1200927W001","well_use":"Irrigation","slope_ft_per_yr":-1.409,"p_value":0.0,"trend":"decreasing","n_measurements":31,"record_years":19.1},"geometry":{"type":"Point","coordinates":[-120.0927,36.8849]}},{"type":"Feature","properties":{"station_id":"368868N1200646W001","well_use":"Unknown","slope_ft_per_yr":-0.842,"p_value":0.0007,"trend":"decreasing","n_measurements":25,"record_years":16.1},"geometry":{"type":"Point","coordinates":[-120.0646,36.8868]}},{"type":"Feature","properties":{"station_id":"368871N1200293W001","well_use":"Unknown","slope_ft_per_yr":-0.716,"p_value":0.0171,"trend":"decreasing","n_measurements":21,"record_years":13.1},"geometry":{"type":"Point","coordinates":[-120.0293,36.8871]}},{"type":"Feature","properties":{"station_id":"368874N1200604W001","well_use":"Unknown","slope_ft_per_yr":-1.331,"p_value":0.0001,"trend":"decreasing","n_measurements":25,"record_years":19.1},"geometry":{"type":"Point","coordinates":[-120.0604,36.8874]}},{"type":"Feature","properties":{"station_id":"368896N1200846W001","well_use":"Unknown","slope_ft_per_yr":-1.111,"p_value":0.0008,"trend":"decreasing","n_measurements":28,"record_years":19.1},"geometry":{"type":"Point","coordinates":[-120.0846,36.8896]}},{"type":"Feature","properties":{"station_id":"368913N1200018W001","well_use":"Unknown","slope_ft_per_yr":-1.496,"p_value":0.0,"trend":"decreasing","n_measurements":28,"record_years":19.1},"geometry":{"type":"Point","coordinates":[-120.0018,36.8913]}},{"type":"Feature","properties":{"station_id":"368935N1198035W001","well_use":"Unknown","slope_ft_per_yr":-1.133,"p_value":0.0047,"trend":"decreasing","n_measurements":23,"record_years":24.1},"geometry":{"type":"Point","coordinates":[-119.8035,36.8935]}},{"type":"Feature","properties":{"station_id":"368943N1203285W001","well_use":"Unknown","slope_ft_per_yr":-1.243,"p_value":0.1125,"trend":"no trend","n_measurements":26,"record_years":31.1},"geometry":{"type":"Point","coordinates":[-120.3285,36.8943]}},{"type":"Feature","properties":{"station_id":"368946N1201107W001","well_use":"Unknown","slope_ft_per_yr":-2.645,"p_value":0.0,"trend":"decreasing","n_measurements":45,"record_years":31.1},"geometry":{"type":"Point","coordinates":[-120.1107,36.8946]}},{"type":"Feature","properties":{"station_id":"368952N1199879W001","well_use":"Unknown","slope_ft_per_yr":-2.42,"p_value":0.0,"trend":"decreasing","n_measurements":26,"record_years":18.1},"geometry":{"type":"Point","coordinates":[-119.9879,36.8952]}},{"type":"Feature","properties":{"station_id":"368960N1199629W001","well_use":"Unknown","slope_ft_per_yr":-3.464,"p_value":0.0,"trend":"decreasing","n_measurements":27,"record_years":19.1},"geometry":{"type":"Point","coordinates":[-119.9629,36.896]}},{"type":"Feature","properties":{"station_id":"368980N1200107W001","well_use":"Irrigation","slope_ft_per_yr":-1.391,"p_value":0.0,"trend":"decreasing","n_measurements":31,"record_years":19.1},"geometry":{"type":"Point","coordinates":[-120.0107,36.898]}},{"type":"Feature","properties":{"station_id":"368980N1202918W001","well_use":"Irrigation","slope_ft_per_yr":-1.936,"p_value":0.0001,"trend":"decreasing","n_measurements":30,"record_years":26.1},"geometry":{"type":"Point","coordinates":[-120.2918,36.898]}},{"type":"Feature","properties":{"station_id":"368985N1198623W001","well_use":"Irrigation","slope_ft_per_yr":-1.322,"p_value":0.3692,"trend":"no trend","n_measurements":23,"record_years":11.3},"geometry":{"type":"Point","coordinates":[-119.86225,36.89853]}},{"type":"Feature","properties":{"station_id":"368996N1201742W001","well_use":"Irrigation","slope_ft_per_yr":-2.493,"p_value":0.0201,"trend":"decreasing","n_measurements":21,"record_years":10.4},"geometry":{"type":"Point","coordinates":[-120.17422,36.89964]}},{"type":"Feature","properties":{"station_id":"369027N1200391W001","well_use":"Unknown","slope_ft_per_yr":-0.793,"p_value":0.186,"trend":"no trend","n_measurements":26,"record_years":19.1},"geometry":{"type":"Point","coordinates":[-120.0391,36.9027]}},{"type":"Feature","properties":{"station_id":"369041N1201657W001","well_use":"Unknown","slope_ft_per_yr":-0.455,"p_value":0.2281,"trend":"no trend","n_measurements":28,"record_years":19.1},"geometry":{"type":"Point","coordinates":[-120.1657,36.9041]}},{"type":"Feature","properties":{"station_id":"369049N1200932W001","well_use":"Unknown","slope_ft_per_yr":-1.386,"p_value":0.0,"trend":"decreasing","n_measurements":28,"record_years":19.1},"geometry":{"type":"Point","coordinates":[-120.0932,36.9049]}},{"type":"Feature","properties":{"station_id":"369063N1200888W001","well_use":"Unknown","slope_ft_per_yr":-0.972,"p_value":0.0914,"trend":"no trend","n_measurements":20,"record_years":19.1},"geometry":{"type":"Point","coordinates":[-120.0888,36.9063]}},{"type":"Feature","properties":{"station_id":"369074N1199993W001","well_use":"Unknown","slope_ft_per_yr":-1.692,"p_value":0.0,"trend":"decreasing","n_measurements":27,"record_years":19.1},"geometry":{"type":"Point","coordinates":[-119.9993,36.9074]}},{"type":"Feature","properties":{"station_id":"369082N1198641W001","well_use":"Unknown","slope_ft_per_yr":-2.549,"p_value":0.0161,"trend":"decreasing","n_measurements":25,"record_years":31.1},"geometry":{"type":"Point","coordinates":[-119.8641,36.9082]}},{"type":"Feature","properties":{"station_id":"369093N1202010W001","well_use":"Unknown","slope_ft_per_yr":-0.947,"p_value":0.0001,"trend":"decreasing","n_measurements":27,"record_years":19.1},"geometry":{"type":"Point","coordinates":[-120.201,36.9093]}},{"type":"Feature","properties":{"station_id":"369093N1204466W001","well_use":"Unknown","slope_ft_per_yr":-0.937,"p_value":0.0001,"trend":"decreasing","n_measurements":26,"record_years":22.1},"geometry":{"type":"Point","coordinates":[-120.4466,36.9093]}},{"type":"Feature","properties":{"station_id":"369096N1201468W001","well_use":"Unknown","slope_ft_per_yr":-1.486,"p_value":0.0007,"trend":"decreasing","n_measurements":26,"record_years":19.1},"geometry":{"type":"Point","coordinates":[-120.1468,36.9096]}},{"type":"Feature","properties":{"station_id":"369107N1198121W002","well_use":"Irrigation","slope_ft_per_yr":1.72,"p_value":0.0031,"trend":"increasing","n_measurements":23,"record_years":11.3},"geometry":{"type":"Point","coordinates":[-119.81214,36.91074]}},{"type":"Feature","properties":{"station_id":"369118N1202763W001","well_use":"Unknown","slope_ft_per_yr":0.943,"p_value":0.3468,"trend":"no trend","n_measurements":20,"record_years":23.7},"geometry":{"type":"Point","coordinates":[-120.2763,36.9118]}},{"type":"Feature","properties":{"station_id":"369149N1200746W001","well_use":"Unknown","slope_ft_per_yr":-1.419,"p_value":0.0,"trend":"decreasing","n_measurements":26,"record_years":19.1},"geometry":{"type":"Point","coordinates":[-120.0746,36.9149]}},{"type":"Feature","properties":{"station_id":"369166N1201018W001","well_use":"Unknown","slope_ft_per_yr":-0.698,"p_value":0.0484,"trend":"decreasing","n_measurements":22,"record_years":19.1},"geometry":{"type":"Point","coordinates":[-120.1018,36.9166]}},{"type":"Feature","properties":{"station_id":"369194N1198290W001","well_use":"Irrigation","slope_ft_per_yr":-3.325,"p_value":0.0018,"trend":"decreasing","n_measurements":23,"record_years":11.0},"geometry":{"type":"Point","coordinates":[-119.829,36.91939]}},{"type":"Feature","properties":{"station_id":"369232N1200221W001","well_use":"Unknown","slope_ft_per_yr":-1.575,"p_value":0.0,"trend":"decreasing","n_measurements":27,"record_years":18.1},"geometry":{"type":"Point","coordinates":[-120.0221,36.9232]}},{"type":"Feature","properties":{"station_id":"369232N1201477W001","well_use":"Unknown","slope_ft_per_yr":-1.908,"p_value":0.0001,"trend":"decreasing","n_measurements":25,"record_years":19.1},"geometry":{"type":"Point","coordinates":[-120.1477,36.9232]}},{"type":"Feature","properties":{"station_id":"369246N1201291W001","well_use":"Unknown","slope_ft_per_yr":-3.383,"p_value":0.0,"trend":"decreasing","n_measurements":44,"record_years":31.1},"geometry":{"type":"Point","coordinates":[-120.1291,36.9246]}},{"type":"Feature","properties":{"station_id":"369260N1199141W001","well_use":"Irrigation","slope_ft_per_yr":-0.904,"p_value":0.0,"trend":"decreasing","n_measurements":32,"record_years":20.7},"geometry":{"type":"Point","coordinates":[-119.9141,36.926]}},{"type":"Feature","properties":{"station_id":"369260N1199218W001","well_use":"Unknown","slope_ft_per_yr":-0.313,"p_value":0.1752,"trend":"no trend","n_measurements":25,"record_years":19.1},"geometry":{"type":"Point","coordinates":[-119.9218,36.926]}},{"type":"Feature","properties":{"station_id":"369266N1202377W001","well_use":"Unknown","slope_ft_per_yr":-0.45,"p_value":0.0445,"trend":"decreasing","n_measurements":24,"record_years":15.0},"geometry":{"type":"Point","coordinates":[-120.2377,36.9266]}},{"type":"Feature","properties":{"station_id":"369271N1201718W001","well_use":"Unknown","slope_ft_per_yr":-0.601,"p_value":0.0799,"trend":"no trend","n_measurements":27,"record_years":19.1},"geometry":{"type":"Point","coordinates":[-120.1718,36.9271]}},{"type":"Feature","properties":{"station_id":"369277N1201654W001","well_use":"Unknown","slope_ft_per_yr":-1.369,"p_value":0.0141,"trend":"decreasing","n_measurements":24,"record_years":19.1},"geometry":{"type":"Point","coordinates":[-120.1654,36.9277]}},{"type":"Feature","properties":{"station_id":"369303N1200440W001","well_use":"Public Supply","slope_ft_per_yr":-1.985,"p_value":0.0891,"trend":"no trend","n_measurements":26,"record_years":15.4},"geometry":{"type":"Point","coordinates":[-120.04397,36.9303]}},{"type":"Feature","properties":{"station_id":"369307N1201835W001","well_use":"Unknown","slope_ft_per_yr":-0.994,"p_value":0.0128,"trend":"decreasing","n_measurements":28,"record_years":19.1},"geometry":{"type":"Point","coordinates":[-120.1835,36.9307]}},{"type":"Feature","properties":{"station_id":"369341N1201107W001","well_use":"Unknown","slope_ft_per_yr":-1.643,"p_value":0.0,"trend":"decreasing","n_measurements":26,"record_years":19.0},"geometry":{"type":"Point","coordinates":[-120.1107,36.9341]}},{"type":"Feature","properties":{"station_id":"369343N1202196W001","well_use":"Unknown","slope_ft_per_yr":-1.078,"p_value":0.0051,"trend":"decreasing","n_measurements":26,"record_years":19.1},"geometry":{"type":"Point","coordinates":[-120.2196,36.9343]}},{"type":"Feature","properties":{"station_id":"369374N1199896W001","well_use":"Unknown","slope_ft_per_yr":-1.152,"p_value":0.0,"trend":"decreasing","n_measurements":22,"record_years":14.1},"geometry":{"type":"Point","coordinates":[-119.9896,36.9374]}},{"type":"Feature","properties":{"station_id":"369380N1200377W001","well_use":"Unknown","slope_ft_per_yr":-1.983,"p_value":0.0006,"trend":"decreasing","n_measurements":22,"record_years":14.0},"geometry":{"type":"Point","coordinates":[-120.0377,36.938]}},{"type":"Feature","properties":{"station_id":"369382N1202918W001","well_use":"Irrigation","slope_ft_per_yr":-4.08,"p_value":0.0001,"trend":"decreasing","n_measurements":27,"record_years":24.7},"geometry":{"type":"Point","coordinates":[-120.2918,36.9382]}},{"type":"Feature","properties":{"station_id":"369452N1200423W001","well_use":"Unknown","slope_ft_per_yr":-3.209,"p_value":0.0064,"trend":"decreasing","n_measurements":28,"record_years":16.6},"geometry":{"type":"Point","coordinates":[-120.04233,36.94524]}},{"type":"Feature","properties":{"station_id":"369455N1202038W001","well_use":"Unknown","slope_ft_per_yr":-2.796,"p_value":0.0001,"trend":"decreasing","n_measurements":26,"record_years":18.1},"geometry":{"type":"Point","coordinates":[-120.2038,36.9455]}},{"type":"Feature","properties":{"station_id":"369474N1202396W001","well_use":"Unknown","slope_ft_per_yr":-2.908,"p_value":0.0003,"trend":"decreasing","n_measurements":25,"record_years":19.1},"geometry":{"type":"Point","coordinates":[-120.2396,36.9474]}},{"type":"Feature","properties":{"station_id":"369513N1201107W001","well_use":"Unknown","slope_ft_per_yr":-2.932,"p_value":0.0,"trend":"decreasing","n_measurements":28,"record_years":19.1},"geometry":{"type":"Point","coordinates":[-120.1107,36.9513]}},{"type":"Feature","properties":{"station_id":"369516N1202746W001","well_use":"Unknown","slope_ft_per_yr":-3.803,"p_value":0.0,"trend":"decreasing","n_measurements":26,"record_years":18.1},"geometry":{"type":"Point","coordinates":[-120.2746,36.9516]}},{"type":"Feature","properties":{"station_id":"369521N1201843W001","well_use":"Unknown","slope_ft_per_yr":-1.183,"p_value":0.0001,"trend":"decreasing","n_measurements":28,"record_years":19.1},"geometry":{"type":"Point","coordinates":[-120.1843,36.9521]}},{"type":"Feature","properties":{"station_id":"369552N1199441W001","well_use":"Unknown","slope_ft_per_yr":-5.743,"p_value":0.0,"trend":"decreasing","n_measurements":24,"record_years":31.1},"geometry":{"type":"Point","coordinates":[-119.9441,36.9552]}},{"type":"Feature","properties":{"station_id":"369560N1202566W001","well_use":"Unknown","slope_ft_per_yr":-4.901,"p_value":0.0,"trend":"decreasing","n_measurements":26,"record_years":19.1},"geometry":{"type":"Point","coordinates":[-120.2566,36.956]}},{"type":"Feature","properties":{"station_id":"369566N1201563W001","well_use":"Unknown","slope_ft_per_yr":-3.234,"p_value":0.0,"trend":"decreasing","n_measurements":27,"record_years":19.1},"geometry":{"type":"Point","coordinates":[-120.1563,36.9566]}},{"type":"Feature","properties":{"station_id":"369582N1202110W001","well_use":"Unknown","slope_ft_per_yr":-5.286,"p_value":0.0,"trend":"decreasing","n_measurements":47,"record_years":31.1},"geometry":{"type":"Point","coordinates":[-120.211,36.9582]}},{"type":"Feature","properties":{"station_id":"369599N1201793W001","well_use":"Unknown","slope_ft_per_yr":-3.426,"p_value":0.0,"trend":"decreasing","n_measurements":27,"record_years":19.1},"geometry":{"type":"Point","coordinates":[-120.1793,36.9599]}},{"type":"Feature","properties":{"station_id":"369668N1202204W001","well_use":"Irrigation","slope_ft_per_yr":-5.576,"p_value":0.0,"trend":"decreasing","n_measurements":42,"record_years":27.7},"geometry":{"type":"Point","coordinates":[-120.2204,36.9668]}},{"type":"Feature","properties":{"station_id":"369670N1200898W001","well_use":"Public Supply","slope_ft_per_yr":-0.382,"p_value":0.6526,"trend":"no trend","n_measurements":36,"record_years":29.6},"geometry":{"type":"Point","coordinates":[-120.08983,36.96701]}},{"type":"Feature","properties":{"station_id":"369707N1201843W001","well_use":"Unknown","slope_ft_per_yr":-3.732,"p_value":0.0,"trend":"decreasing","n_measurements":28,"record_years":19.1},"geometry":{"type":"Point","coordinates":[-120.1843,36.9707]}},{"type":"Feature","properties":{"station_id":"369708N1200513W001","well_use":"Public Supply","slope_ft_per_yr":-1.81,"p_value":0.0259,"trend":"decreasing","n_measurements":40,"record_years":30.0},"geometry":{"type":"Point","coordinates":[-120.05134,36.97079]}},{"type":"Feature","properties":{"station_id":"369730N1202149W001","well_use":"Unknown","slope_ft_per_yr":-2.102,"p_value":0.0012,"trend":"decreasing","n_measurements":24,"record_years":19.1},"geometry":{"type":"Point","coordinates":[-120.2149,36.973]}},{"type":"Feature","properties":{"station_id":"369746N1201124W001","well_use":"Unknown","slope_ft_per_yr":-3.048,"p_value":0.0,"trend":"decreasing","n_measurements":25,"record_years":19.1},"geometry":{"type":"Point","coordinates":[-120.1124,36.9746]}},{"type":"Feature","properties":{"station_id":"369785N1201427W001","well_use":"Irrigation","slope_ft_per_yr":-3.689,"p_value":0.0,"trend":"decreasing","n_measurements":30,"record_years":19.0},"geometry":{"type":"Point","coordinates":[-120.1427,36.9785]}},{"type":"Feature","properties":{"station_id":"369807N1201518W001","well_use":"Unknown","slope_ft_per_yr":-3.491,"p_value":0.0,"trend":"decreasing","n_measurements":28,"record_years":19.1},"geometry":{"type":"Point","coordinates":[-120.1518,36.9807]}},{"type":"Feature","properties":{"station_id":"369816N1202527W001","well_use":"Unknown","slope_ft_per_yr":-4.625,"p_value":0.0,"trend":"decreasing","n_measurements":26,"record_years":18.1},"geometry":{"type":"Point","coordinates":[-120.2527,36.9816]}},{"type":"Feature","properties":{"station_id":"369832N1202202W001","well_use":"Unknown","slope_ft_per_yr":-1.194,"p_value":0.0,"trend":"decreasing","n_measurements":27,"record_years":19.1},"geometry":{"type":"Point","coordinates":[-120.2202,36.9832]}},{"type":"Feature","properties":{"station_id":"369841N1200263W001","well_use":"Unknown","slope_ft_per_yr":0.671,"p_value":0.0793,"trend":"no trend","n_measurements":20,"record_years":13.1},"geometry":{"type":"Point","coordinates":[-120.0263,36.9841]}},{"type":"Feature","properties":{"station_id":"369843N1200260W001","well_use":"Unknown","slope_ft_per_yr":0.34,"p_value":0.2697,"trend":"no trend","n_measurements":20,"record_years":13.1},"geometry":{"type":"Point","coordinates":[-120.026,36.9843]}},{"type":"Feature","properties":{"station_id":"369852N1198799W001","well_use":"Unknown","slope_ft_per_yr":-2.112,"p_value":0.0336,"trend":"decreasing","n_measurements":25,"record_years":30.8},"geometry":{"type":"Point","coordinates":[-119.8799,36.9852]}},{"type":"Feature","properties":{"station_id":"369877N1203113W001","well_use":"Unknown","slope_ft_per_yr":-1.162,"p_value":0.0271,"trend":"decreasing","n_measurements":27,"record_years":18.1},"geometry":{"type":"Point","coordinates":[-120.3113,36.9877]}},{"type":"Feature","properties":{"station_id":"369888N1202482W001","well_use":"Unknown","slope_ft_per_yr":-4.087,"p_value":0.0,"trend":"decreasing","n_measurements":27,"record_years":19.0},"geometry":{"type":"Point","coordinates":[-120.2482,36.9888]}},{"type":"Feature","properties":{"station_id":"369891N1201752W001","well_use":"Unknown","slope_ft_per_yr":-2.98,"p_value":0.0,"trend":"decreasing","n_measurements":25,"record_years":17.0},"geometry":{"type":"Point","coordinates":[-120.1752,36.9891]}},{"type":"Feature","properties":{"station_id":"369927N1201979W001","well_use":"Unknown","slope_ft_per_yr":-2.97,"p_value":0.0,"trend":"decreasing","n_measurements":27,"record_years":18.1},"geometry":{"type":"Point","coordinates":[-120.1979,36.9927]}},{"type":"Feature","properties":{"station_id":"370030N1201507W001","well_use":"Unknown","slope_ft_per_yr":-4.508,"p_value":0.0,"trend":"decreasing","n_measurements":27,"record_years":19.1},"geometry":{"type":"Point","coordinates":[-120.1507,37.003]}},{"type":"Feature","properties":{"station_id":"370035N1202746W001","well_use":"Unknown","slope_ft_per_yr":-4.58,"p_value":0.0,"trend":"decreasing","n_measurements":24,"record_years":19.0},"geometry":{"type":"Point","coordinates":[-120.2746,37.0035]}},{"type":"Feature","properties":{"station_id":"370043N1202396W001","well_use":"Unknown","slope_ft_per_yr":-4.991,"p_value":0.0007,"trend":"decreasing","n_measurements":24,"record_years":19.0},"geometry":{"type":"Point","coordinates":[-120.2396,37.0043]}},{"type":"Feature","properties":{"station_id":"370082N1202141W001","well_use":"Unknown","slope_ft_per_yr":-5.412,"p_value":0.0,"trend":"decreasing","n_measurements":27,"record_years":18.1},"geometry":{"type":"Point","coordinates":[-120.2141,37.0082]}},{"type":"Feature","properties":{"station_id":"370105N1201602W001","well_use":"Unknown","slope_ft_per_yr":-3.761,"p_value":0.0,"trend":"decreasing","n_measurements":27,"record_years":19.1},"geometry":{"type":"Point","coordinates":[-120.1602,37.0105]}},{"type":"Feature","properties":{"station_id":"370107N1202027W001","well_use":"Unknown","slope_ft_per_yr":-6.168,"p_value":0.0,"trend":"decreasing","n_measurements":28,"record_years":19.0},"geometry":{"type":"Point","coordinates":[-120.2027,37.0107]}},{"type":"Feature","properties":{"station_id":"370124N1201657W001","well_use":"Unknown","slope_ft_per_yr":-3.362,"p_value":0.0,"trend":"decreasing","n_measurements":20,"record_years":12.7},"geometry":{"type":"Point","coordinates":[-120.1657,37.0124]}},{"type":"Feature","properties":{"station_id":"370191N1202043W001","well_use":"Unknown","slope_ft_per_yr":-3.423,"p_value":0.0,"trend":"decreasing","n_measurements":20,"record_years":19.0},"geometry":{"type":"Point","coordinates":[-120.2043,37.0191]}},{"type":"Feature","properties":{"station_id":"370252N1199857W001","well_use":"Unknown","slope_ft_per_yr":-2.196,"p_value":0.0001,"trend":"decreasing","n_measurements":21,"record_years":19.0},"geometry":{"type":"Point","coordinates":[-119.9857,37.0252]}},{"type":"Feature","properties":{"station_id":"370252N1200929W001","well_use":"Unknown","slope_ft_per_yr":-5.517,"p_value":0.0,"trend":"decreasing","n_measurements":27,"record_years":19.0},"geometry":{"type":"Point","coordinates":[-120.0929,37.0252]}},{"type":"Feature","properties":{"station_id":"370255N1200007W001","well_use":"Unknown","slope_ft_per_yr":-5.223,"p_value":0.0,"trend":"decreasing","n_measurements":24,"record_years":16.0},"geometry":{"type":"Point","coordinates":[-120.0007,37.0255]}},{"type":"Feature","properties":{"station_id":"370366N1201760W001","well_use":"Irrigation","slope_ft_per_yr":-3.474,"p_value":0.0,"trend":"decreasing","n_measurements":46,"record_years":31.1},"geometry":{"type":"Point","coordinates":[-120.176,37.0366]}},{"type":"Feature","properties":{"station_id":"370377N1201535W001","well_use":"Unknown","slope_ft_per_yr":-3.567,"p_value":0.0,"trend":"decreasing","n_measurements":27,"record_years":19.0},"geometry":{"type":"Point","coordinates":[-120.1535,37.0377]}},{"type":"Feature","properties":{"station_id":"370436N1200610W001","well_use":"Irrigation","slope_ft_per_yr":-3.392,"p_value":0.0,"trend":"decreasing","n_measurements":21,"record_years":10.4},"geometry":{"type":"Point","coordinates":[-120.06101,37.04361]}},{"type":"Feature","properties":{"station_id":"370436N1200697W001","well_use":"Irrigation","slope_ft_per_yr":-3.96,"p_value":0.001,"trend":"decreasing","n_measurements":22,"record_years":10.4},"geometry":{"type":"Point","coordinates":[-120.06973,37.04361]}},{"type":"Feature","properties":{"station_id":"370468N1201663W001","well_use":"Unknown","slope_ft_per_yr":-2.654,"p_value":0.0976,"trend":"no trend","n_measurements":20,"record_years":19.1},"geometry":{"type":"Point","coordinates":[-120.1663,37.0468]}},{"type":"Feature","properties":{"station_id":"370472N1200248W001","well_use":"Irrigation","slope_ft_per_yr":-3.038,"p_value":0.0853,"trend":"no trend","n_measurements":22,"record_years":10.4},"geometry":{"type":"Point","coordinates":[-120.02477,37.04722]}},{"type":"Feature","properties":{"station_id":"370543N1201085W001","well_use":"Irrigation","slope_ft_per_yr":-7.229,"p_value":0.0,"trend":"decreasing","n_measurements":30,"record_years":19.0},"geometry":{"type":"Point","coordinates":[-120.1085,37.0543]}},{"type":"Feature","properties":{"station_id":"370646N1199138W001","well_use":"Irrigation","slope_ft_per_yr":0.609,"p_value":0.0071,"trend":"increasing","n_measurements":32,"record_years":20.7},"geometry":{"type":"Point","coordinates":[-119.9138,37.0646]}},{"type":"Feature","properties":{"station_id":"370652N1199085W001","well_use":"Unknown","slope_ft_per_yr":0.199,"p_value":0.0524,"trend":"no trend","n_measurements":27,"record_years":19.0},"geometry":{"type":"Point","coordinates":[-119.9085,37.0652]}},{"type":"Feature","properties":{"station_id":"370755N1199902W001","well_use":"Irrigation","slope_ft_per_yr":-5.393,"p_value":0.0001,"trend":"decreasing","n_measurements":31,"record_years":19.0},"geometry":{"type":"Point","coordinates":[-119.9902,37.0755]}},{"type":"Feature","properties":{"station_id":"370760N1201749W001","well_use":"Unknown","slope_ft_per_yr":-3.683,"p_value":0.0,"trend":"decreasing","n_measurements":28,"record_years":19.1},"geometry":{"type":"Point","coordinates":[-120.1749,37.076]}},{"type":"Feature","properties":{"station_id":"370796N1200152W001","well_use":"Unknown","slope_ft_per_yr":-3.389,"p_value":0.0,"trend":"decreasing","n_measurements":28,"record_years":19.0},"geometry":{"type":"Point","coordinates":[-120.0152,37.0796]}},{"type":"Feature","properties":{"station_id":"370810N1200674W001","well_use":"Unknown","slope_ft_per_yr":-5.896,"p_value":0.0,"trend":"decreasing","n_measurements":24,"record_years":17.0},"geometry":{"type":"Point","coordinates":[-120.0674,37.081]}},{"type":"Feature","properties":{"station_id":"370913N1201029W001","well_use":"Unknown","slope_ft_per_yr":-3.423,"p_value":0.0,"trend":"decreasing","n_measurements":27,"record_years":19.0},"geometry":{"type":"Point","coordinates":[-120.1029,37.0913]}},{"type":"Feature","properties":{"station_id":"371265N1201498W001","well_use":"Irrigation","slope_ft_per_yr":0.0,"p_value":1.0,"trend":"no trend","n_measurements":22,"record_years":10.4},"geometry":{"type":"Point","coordinates":[-120.14978,37.12651]}}]}