{"type":"FeatureCollection","features":[{"type":"Feature","properties":{"station_id":"370000N1200000W001","well_use":"Observation","slope_ft_per_yr":-1.542,"p_value":0.0027,"trend":"decreasing","n_measurements":21,"record_years":12.2},"geometry":{"type":"Point","coordinates":[-120.62316,37.38973]}},{"type":"Feature","properties":{"station_id":"370000N1200000W002","well_use":"Observation","slope_ft_per_yr":1.018,"p_value":0.2421,"trend":"no trend","n_measurements":20,"record_years":13.2},"geometry":{"type":"Point","coordinates":[-120.62281,37.40341]}},{"type":"Feature","properties":{"station_id":"370655N1205291W001","well_use":"Unknown","slope_ft_per_yr":-2.062,"p_value":0.0004,"trend":"decreasing","n_measurements":21,"record_years":23.7},"geometry":{"type":"Point","coordinates":[-120.5291,37.0655]}},{"type":"Feature","properties":{"station_id":"370843N1205496W001","well_use":"Unknown","slope_ft_per_yr":-1.284,"p_value":0.0231,"trend":"decreasing","n_measurements":20,"record_years":24.2},"geometry":{"type":"Point","coordinates":[-120.5496,37.0843]}},{"type":"Feature","properties":{"station_id":"370921N1205199W001","well_use":"Unknown","slope_ft_per_yr":-1.636,"p_value":0.0006,"trend":"decreasing","n_measurements":24,"record_years":22.1},"geometry":{"type":"Point","coordinates":[-120.5199,37.0921]}},{"type":"Feature","properties":{"station_id":"371116N1204374W001","well_use":"Irrigation","slope_ft_per_yr":-2.022,"p_value":0.163,"trend":"no trend","n_measurements":20,"record_years":16.7},"geometry":{"type":"Point","coordinates":[-120.4374,37.1116]}},{"type":"Feature","properties":{"station_id":"371124N1204649W001","well_use":"Unknown","slope_ft_per_yr":0.5,"p_value":0.3805,"trend":"no trend","n_measurements":20,"record_years":14.7},"geometry":{"type":"Point","coordinates":[-120.4649,37.1124]}},{"type":"Feature","properties":{"station_id":"371130N1204927W001","well_use":"Unknown","slope_ft_per_yr":-1.928,"p_value":0.0063,"trend":"decreasing","n_measurements":24,"record_years":24.1},"geometry":{"type":"Point","coordinates":[-120.4927,37.113]}},{"type":"Feature","properties":{"station_id":"371130N1205654W001","well_use":"Irrigation","slope_ft_per_yr":0.225,"p_value":0.1299,"trend":"no trend","n_measurements":50,"record_years":30.6},"geometry":{"type":"Point","coordinates":[-120.5648,37.1123]}},{"type":"Feature","properties":{"station_id":"371141N1205638W001","well_use":"Irrigation","slope_ft_per_yr":-1.55,"p_value":0.0001,"trend":"decreasing","n_measurements":53,"record_years":31.1},"geometry":{"type":"Point","coordinates":[-120.56511,37.11591]}},{"type":"Feature","properties":{"station_id":"371355N1205282W001","well_use":"Unknown","slope_ft_per_yr":-0.022,"p_value":0.9834,"trend":"no trend","n_measurements":27,"record_years":24.1},"geometry":{"type":"Point","coordinates":[-120.5282,37.1355]}},{"type":"Feature","properties":{"station_id":"371418N1204924W001","well_use":"Unknown","slope_ft_per_yr":0.068,"p_value":0.8202,"trend":"no trend","n_measurements":20,"record_years":14.7},"geometry":{"type":"Point","coordinates":[-120.4924,37.1418]}},{"type":"Feature","properties":{"station_id":"371421N1204296W001","well_use":"Unknown","slope_ft_per_yr":0.1,"p_value":0.5802,"trend":"no trend","n_measurements":30,"record_years":17.0},"geometry":{"type":"Point","coordinates":[-120.4296,37.1421]}},{"type":"Feature","properties":{"station_id":"371574N1204921W001","well_use":"Unknown","slope_ft_per_yr":0.517,"p_value":0.4173,"trend":"no trend","n_measurements":20,"record_years":23.7},"geometry":{"type":"Point","coordinates":[-120.4921,37.1574]}},{"type":"Feature","properties":{"station_id":"371582N1206193W001","well_use":"Unknown","slope_ft_per_yr":0.277,"p_value":0.0013,"trend":"increasing","n_measurements":39,"record_years":23.7},"geometry":{"type":"Point","coordinates":[-120.6193,37.1582]}},{"type":"Feature","properties":{"station_id":"371618N1204924W001","well_use":"Unknown","slope_ft_per_yr":-0.26,"p_value":0.0905,"trend":"no trend","n_measurements":23,"record_years":13.6},"geometry":{"type":"Point","coordinates":[-120.4924,37.1618]}},{"type":"Feature","properties":{"station_id":"371666N1204124W001","well_use":"Unknown","slope_ft_per_yr":-1.538,"p_value":0.5349,"trend":"no trend","n_measurements":24,"record_years":19.1},"geometry":{"type":"Point","coordinates":[-120.4124,37.1666]}},{"type":"Feature","properties":{"station_id":"371674N1202838W001","well_use":"Unknown","slope_ft_per_yr":-3.378,"p_value":0.0002,"trend":"decreasing","n_measurements":23,"record_years":19.1},"geometry":{"type":"Point","coordinates":[-120.2838,37.1674]}},{"type":"Feature","properties":{"station_id":"371705N1202293W001","well_use":"Unknown","slope_ft_per_yr":-3.51,"p_value":0.1237,"trend":"no trend","n_measurements":24,"record_years":16.1},"geometry":{"type":"Point","coordinates":[-120.2293,37.1705]}},{"type":"Feature","properties":{"station_id":"371707N1203835W001","well_use":"Unknown","slope_ft_per_yr":-4.407,"p_value":0.0006,"trend":"decreasing","n_measurements":23,"record_years":19.0},"geometry":{"type":"Point","coordinates":[-120.3835,37.1707]}},{"type":"Feature","properties":{"station_id":"371707N1204135W001","well_use":"Unknown","slope_ft_per_yr":-1.697,"p_value":0.3231,"trend":"no trend","n_measurements":22,"record_years":19.1},"geometry":{"type":"Point","coordinates":[-120.4135,37.1707]}},{"type":"Feature","properties":{"station_id":"371768N1206652W001","well_use":"Irrigation","slope_ft_per_yr":-0.235,"p_value":0.022,"trend":"decreasing","n_measurements":51,"record_years":31.1},"geometry":{"type":"Point","coordinates":[-120.66519,37.17679]}},{"type":"Feature","properties":{"station_id":"371807N1206635W001","well_use":"Irrigation","slope_ft_per_yr":0.161,"p_value":0.4856,"trend":"no trend","n_measurements":32,"record_years":27.1},"geometry":{"type":"Point","coordinates":[-120.66401,37.18085]}},{"type":"Feature","properties":{"station_id":"371821N1202927W001","well_use":"Residential","slope_ft_per_yr":-4.151,"p_value":0.001,"trend":"decreasing","n_measurements":27,"record_years":16.7},"geometry":{"type":"Point","coordinates":[-120.2927,37.1821]}},{"type":"Feature","properties":{"station_id":"371852N1203899W001","well_use":"Observation","slope_ft_per_yr":-3.227,"p_value":0.0,"trend":"decreasing","n_measurements":43,"record_years":27.1},"geometry":{"type":"Point","coordinates":[-120.3899,37.1852]}},{"type":"Feature","properties":{"station_id":"371852N1203902W001","well_use":"Unknown","slope_ft_per_yr":-0.722,"p_value":0.0,"trend":"decreasing","n_measurements":43,"record_years":27.1},"geometry":{"type":"Point","coordinates":[-120.3902,37.1852]}},{"type":"Feature","properties":{"station_id":"371852N1203907W001","well_use":"Unknown","slope_ft_per_yr":0.388,"p_value":0.0,"trend":"increasing","n_measurements":44,"record_years":27.1},"geometry":{"type":"Point","coordinates":[-120.3907,37.1852]}},{"type":"Feature","properties":{"station_id":"371855N1205829W001","well_use":"Unknown","slope_ft_per_yr":-1.035,"p_value":0.003,"trend":"decreasing","n_measurements":28,"record_years":17.0},"geometry":{"type":"Point","coordinates":[-120.5829,37.1855]}},{"type":"Feature","properties":{"station_id":"371860N1207002W001","well_use":"Irrigation","slope_ft_per_yr":-1.161,"p_value":0.0001,"trend":"decreasing","n_measurements":53,"record_years":31.1},"geometry":{"type":"Point","coordinates":[-120.70164,37.18357]}},{"type":"Feature","properties":{"station_id":"371902N1201985W001","well_use":"Irrigation","slope_ft_per_yr":-6.279,"p_value":0.0475,"trend":"decreasing","n_measurements":23,"record_years":21.2},"geometry":{"type":"Point","coordinates":[-120.1985,37.1902]}},{"type":"Feature","properties":{"station_id":"371905N1203166W001","well_use":"Irrigation","slope_ft_per_yr":-3.172,"p_value":0.0,"trend":"decreasing","n_measurements":38,"record_years":28.1},"geometry":{"type":"Point","coordinates":[-120.3163,37.19102]}},{"type":"Feature","properties":{"station_id":"371924N1207060W001","well_use":"Irrigation","slope_ft_per_yr":-2.183,"p_value":0.0,"trend":"decreasing","n_measurements":44,"record_years":26.7},"geometry":{"type":"Point","coordinates":[-120.706,37.1924]}},{"type":"Feature","properties":{"station_id":"371935N1202799W001","well_use":"Irrigation","slope_ft_per_yr":-4.642,"p_value":0.0,"trend":"decreasing","n_measurements":39,"record_years":29.1},"geometry":{"type":"Point","coordinates":[-120.27989,37.19349]}},{"type":"Feature","properties":{"station_id":"371946N1204891W001","well_use":"Unknown","slope_ft_per_yr":0.072,"p_value":0.6547,"trend":"no trend","n_measurements":30,"record_years":19.0},"geometry":{"type":"Point","coordinates":[-120.4891,37.1946]}},{"type":"Feature","properties":{"station_id":"371971N1205813W001","well_use":"Irrigation","slope_ft_per_yr":-0.428,"p_value":0.0203,"trend":"decreasing","n_measurements":46,"record_years":28.6},"geometry":{"type":"Point","coordinates":[-120.58129,37.19709]}},{"type":"Feature","properties":{"station_id":"371993N1202638W001","well_use":"Irrigation","slope_ft_per_yr":-5.832,"p_value":0.0,"trend":"decreasing","n_measurements":54,"record_years":31.1},"geometry":{"type":"Point","coordinates":[-120.26379,37.19929]}},{"type":"Feature","properties":{"station_id":"372018N1203252W001","well_use":"Unknown","slope_ft_per_yr":3.401,"p_value":0.0,"trend":"increasing","n_measurements":39,"record_years":22.6},"geometry":{"type":"Point","coordinates":[-120.3252,37.2018]}},{"type":"Feature","properties":{"station_id":"372063N1205796W001","well_use":"Unknown","slope_ft_per_yr":0.186,"p_value":0.7387,"trend":"no trend","n_measurements":27,"record_years":18.7},"geometry":{"type":"Point","coordinates":[-120.5796,37.2063]}},{"type":"Feature","properties":{"station_id":"372080N1203979W001","well_use":"Unknown","slope_ft_per_yr":-3.328,"p_value":0.0,"trend":"decreasing","n_measurements":25,"record_years":17.9},"geometry":{"type":"Point","coordinates":[-120.3979,37.208]}},{"type":"Feature","properties":{"station_id":"372102N1204752W001","well_use":"Irrigation","slope_ft_per_yr":-1.992,"p_value":0.0335,"trend":"decreasing","n_measurements":27,"record_years":23.7},"geometry":{"type":"Point","coordinates":[-120.4752,37.2102]}},{"type":"Feature","properties":{"station_id":"372113N1204974W001","well_use":"Unknown","slope_ft_per_yr":0.153,"p_value":0.0894,"trend":"no trend","n_measurements":26,"record_years":16.7},"geometry":{"type":"Point","coordinates":[-120.4974,37.2113]}},{"type":"Feature","properties":{"station_id":"372146N1205427W001","well_use":"Irrigation","slope_ft_per_yr":-0.009,"p_value":0.8839,"trend":"no trend","n_measurements":41,"record_years":30.4},"geometry":{"type":"Point","coordinates":[-120.54269,37.2146]}},{"type":"Feature","properties":{"station_id":"372213N1204527W001","well_use":"Irrigation","slope_ft_per_yr":-3.079,"p_value":0.0,"trend":"decreasing","n_measurements":46,"record_years":31.1},"geometry":{"type":"Point","coordinates":[-120.45269,37.22129]}},{"type":"Feature","properties":{"station_id":"372218N1203524W001","well_use":"Unknown","slope_ft_per_yr":-3.898,"p_value":0.0,"trend":"decreasing","n_measurements":34,"record_years":19.7},"geometry":{"type":"Point","coordinates":[-120.3524,37.2218]}},{"type":"Feature","properties":{"station_id":"372235N1205793W001","well_use":"Irrigation","slope_ft_per_yr":-0.568,"p_value":0.0017,"trend":"decreasing","n_measurements":42,"record_years":28.0},"geometry":{"type":"Point","coordinates":[-120.57916,37.22388]}},{"type":"Feature","properties":{"station_id":"372282N1202663W001","well_use":"Unknown","slope_ft_per_yr":-2.785,"p_value":0.0,"trend":"decreasing","n_measurements":29,"record_years":16.7},"geometry":{"type":"Point","coordinates":[-120.2663,37.2282]}},{"type":"Feature","properties":{"station_id":"372282N1202796W001","well_use":"Unknown","slope_ft_per_yr":-4.033,"p_value":0.0,"trend":"decreasing","n_measurements":40,"record_years":24.1},"geometry":{"type":"Point","coordinates":[-120.2796,37.2282]}},{"type":"Feature","properties":{"station_id":"372293N1207027W001","well_use":"Residential","slope_ft_per_yr":-1.337,"p_value":0.0179,"trend":"decreasing","n_measurements":37,"record_years":26.1},"geometry":{"type":"Point","coordinates":[-120.70269,37.2293]}},{"type":"Feature","properties":{"station_id":"372299N1203341W001","well_use":"Unknown","slope_ft_per_yr":-2.362,"p_value":0.0,"trend":"decreasing","n_measurements":30,"record_years":19.7},"geometry":{"type":"Point","coordinates":[-120.3341,37.2299]}},{"type":"Feature","properties":{"station_id":"372313N1203524W001","well_use":"Unknown","slope_ft_per_yr":-2.611,"p_value":0.0008,"trend":"decreasing","n_measurements":25,"record_years":16.0},"geometry":{"type":"Point","coordinates":[-120.3524,37.2313]}},{"type":"Feature","properties":{"station_id":"372327N1203163W001","well_use":"Irrigation","slope_ft_per_yr":-3.953,"p_value":0.0,"trend":"decreasing","n_measurements":35,"record_years":26.1},"geometry":{"type":"Point","coordinates":[-120.31629,37.23269]}},{"type":"Feature","properties":{"station_id":"372335N1204199W001","well_use":"Irrigation","slope_ft_per_yr":-3.405,"p_value":0.0,"trend":"decreasing","n_measurements":45,"record_years":31.0},"geometry":{"type":"Point","coordinates":[-120.42003,37.23238]}},{"type":"Feature","properties":{"station_id":"372360N1203913W001","well_use":"Irrigation","slope_ft_per_yr":-1.334,"p_value":0.0002,"trend":"decreasing","n_measurements":24,"record_years":16.3},"geometry":{"type":"Point","coordinates":[-120.3913,37.236]}},{"type":"Feature","properties":{"station_id":"372435N1203349W001","well_use":"Unknown","slope_ft_per_yr":-2.587,"p_value":0.0,"trend":"decreasing","n_measurements":32,"record_years":19.7},"geometry":{"type":"Point","coordinates":[-120.3349,37.2435]}},{"type":"Feature","properties":{"station_id":"372438N1205793W001","well_use":"Irrigation","slope_ft_per_yr":-0.214,"p_value":0.0601,"trend":"no trend","n_measurements":36,"record_years":31.1},"geometry":{"type":"Point","coordinates":[-120.57929,37.24379]}},{"type":"Feature","properties":{"station_id":"372438N1206335W001","well_use":"Irrigation","slope_ft_per_yr":-0.973,"p_value":0.016,"trend":"decreasing","n_measurements":25,"record_years":19.7},"geometry":{"type":"Point","coordinates":[-120.6335,37.2438]}},{"type":"Feature","properties":{"station_id":"372438N1206429W002","well_use":"Irrigation","slope_ft_per_yr":-0.828,"p_value":0.0001,"trend":"decreasing","n_measurements":39,"record_years":31.1},"geometry":{"type":"Point","coordinates":[-120.64324,37.24402]}},{"type":"Feature","properties":{"station_id":"372496N1203632W001","well_use":"Irrigation","slope_ft_per_yr":-5.239,"p_value":0.0,"trend":"decreasing","n_measurements":31,"record_years":20.0},"geometry":{"type":"Point","coordinates":[-120.3632,37.2496]}},{"type":"Feature","properties":{"station_id":"372507N1204032W001","well_use":"Irrigation","slope_ft_per_yr":-4.319,"p_value":0.0,"trend":"decreasing","n_measurements":50,"record_years":24.7},"geometry":{"type":"Point","coordinates":[-120.40319,37.2507]}},{"type":"Feature","properties":{"station_id":"372518N1206157W001","well_use":"Unknown","slope_ft_per_yr":-0.103,"p_value":0.8126,"trend":"no trend","n_measurements":28,"record_years":18.1},"geometry":{"type":"Point","coordinates":[-120.6157,37.2518]}},{"type":"Feature","properties":{"station_id":"372518N1206524W001","well_use":"Unknown","slope_ft_per_yr":-0.118,"p_value":0.6462,"trend":"no trend","n_measurements":27,"record_years":19.0},"geometry":{"type":"Point","coordinates":[-120.6524,37.2518]}},{"type":"Feature","properties":{"station_id":"372546N1207202W001","well_use":"Irrigation","slope_ft_per_yr":0.086,"p_value":0.5572,"trend":"no trend","n_measurements":45,"record_years":31.1},"geometry":{"type":"Point","coordinates":[-120.7202,37.2546]}},{"type":"Feature","properties":{"station_id":"372582N1205452W001","well_use":"Irrigation","slope_ft_per_yr":-0.619,"p_value":0.0,"trend":"decreasing","n_measurements":53,"record_years":31.1},"geometry":{"type":"Point","coordinates":[-120.54256,37.25828]}},{"type":"Feature","properties":{"station_id":"372617N1204747W001","well_use":"Irrigation","slope_ft_per_yr":-2.005,"p_value":0.0149,"trend":"decreasing","n_measurements":20,"record_years":14.5},"geometry":{"type":"Point","coordinates":[-120.47461,37.26173]}},{"type":"Feature","properties":{"station_id":"372630N1204260W001","well_use":"Irrigation","slope_ft_per_yr":-3.454,"p_value":0.0,"trend":"decreasing","n_measurements":39,"record_years":27.1},"geometry":{"type":"Point","coordinates":[-120.42539,37.26155]}},{"type":"Feature","properties":{"station_id":"372655N1205604W001","well_use":"Unknown","slope_ft_per_yr":-0.652,"p_value":0.0,"trend":"decreasing","n_measurements":32,"record_years":19.7},"geometry":{"type":"Point","coordinates":[-120.5604,37.2655]}},{"type":"Feature","properties":{"station_id":"372688N1206974W001","well_use":"Unknown","slope_ft_per_yr":-1.106,"p_value":0.0002,"trend":"decreasing","n_measurements":24,"record_years":17.4},"geometry":{"type":"Point","coordinates":[-120.6974,37.2688]}},{"type":"Feature","properties":{"station_id":"372702N1206154W001","well_use":"Unknown","slope_ft_per_yr":-0.362,"p_value":0.096,"trend":"no trend","n_measurements":22,"record_years":19.7},"geometry":{"type":"Point","coordinates":[-120.6154,37.2702]}},{"type":"Feature","properties":{"station_id":"372730N1206518W001","well_use":"Irrigation","slope_ft_per_yr":-0.556,"p_value":0.019,"trend":"decreasing","n_measurements":29,"record_years":30.6},"geometry":{"type":"Point","coordinates":[-120.6518,37.273]}},{"type":"Feature","properties":{"station_id":"372734N1203071W001","well_use":"Irrigation","slope_ft_per_yr":-1.698,"p_value":0.0144,"trend":"decreasing","n_measurements":21,"record_years":10.4},"geometry":{"type":"Point","coordinates":[-120.30705,37.27332]}},{"type":"Feature","properties":{"station_id":"372734N1203071W002","well_use":"Irrigation","slope_ft_per_yr":-0.86,"p_value":0.1905,"trend":"no trend","n_measurements":25,"record_years":14.5},"geometry":{"type":"Point","coordinates":[-120.37487,37.29644]}},{"type":"Feature","properties":{"station_id":"372771N1206954W001","well_use":"Irrigation","slope_ft_per_yr":-1.848,"p_value":0.0,"trend":"decreasing","n_measurements":39,"record_years":31.1},"geometry":{"type":"Point","coordinates":[-120.6954,37.2771]}},{"type":"Feature","properties":{"station_id":"372806N1205241W001","well_use":"Irrigation","slope_ft_per_yr":0.195,"p_value":0.723,"trend":"no trend","n_measurements":27,"record_years":14.5},"geometry":{"type":"Point","coordinates":[-120.52411,37.2806]}},{"type":"Feature","properties":{"station_id":"372818N1207788W001","well_use":"Unknown","slope_ft_per_yr":-0.671,"p_value":0.0001,"trend":"decreasing","n_measurements":37,"record_years":22.4},"geometry":{"type":"Point","coordinates":[-120.7788,37.2818]}},{"type":"Feature","properties":{"station_id":"372838N1205602W001","well_use":"Irrigation","slope_ft_per_yr":-1.19,"p_value":0.0,"trend":"decreasing","n_measurements":42,"record_years":31.0},"geometry":{"type":"Point","coordinates":[-120.56008,37.2839]}},{"type":"Feature","properties":{"station_id":"372880N1203432W001","well_use":"Irrigation","slope_ft_per_yr":-1.826,"p_value":0.0,"trend":"decreasing","n_measurements":41,"record_years":30.0},"geometry":{"type":"Point","coordinates":[-120.3432,37.288]}},{"type":"Feature","properties":{"station_id":"372904N1204207W001","well_use":"Observation","slope_ft_per_yr":-2.035,"p_value":0.0001,"trend":"decreasing","n_measurements":25,"record_years":14.0},"geometry":{"type":"Point","coordinates":[-120.45288,37.29038]}},{"type":"Feature","properties":{"station_id":"372904N1204529W001","well_use":"Residential","slope_ft_per_yr":-1.924,"p_value":0.0001,"trend":"decreasing","n_measurements":25,"record_years":13.8},"geometry":{"type":"Point","coordinates":[-120.45288,37.29038]}},{"type":"Feature","properties":{"station_id":"372904N1204529W002","well_use":"Observation","slope_ft_per_yr":-1.944,"p_value":0.0001,"trend":"decreasing","n_measurements":25,"record_years":14.0},"geometry":{"type":"Point","coordinates":[-120.45288,37.29038]}},{"type":"Feature","properties":{"station_id":"372904N1204529W003","well_use":"Observation","slope_ft_per_yr":-1.841,"p_value":0.0002,"trend":"decreasing","n_measurements":25,"record_years":14.0},"geometry":{"type":"Point","coordinates":[-120.45288,37.29038]}},{"type":"Feature","properties":{"station_id":"373007N1207677W001","well_use":"Irrigation","slope_ft_per_yr":-0.965,"p_value":0.0,"trend":"decreasing","n_measurements":27,"record_years":28.4},"geometry":{"type":"Point","coordinates":[-120.76749,37.30099]}},{"type":"Feature","properties":{"station_id":"373024N1207854W001","well_use":"Irrigation","slope_ft_per_yr":-1.018,"p_value":0.0,"trend":"decreasing","n_measurements":42,"record_years":27.7},"geometry":{"type":"Point","coordinates":[-120.785,37.30233]}},{"type":"Feature","properties":{"station_id":"373049N1207735W001","well_use":"Irrigation","slope_ft_per_yr":-1.311,"p_value":0.0007,"trend":"decreasing","n_measurements":39,"record_years":28.0},"geometry":{"type":"Point","coordinates":[-120.77349,37.3049]}},{"type":"Feature","properties":{"station_id":"373074N1208377W001","well_use":"Unknown","slope_ft_per_yr":-0.123,"p_value":0.0677,"trend":"no trend","n_measurements":23,"record_years":16.0},"geometry":{"type":"Point","coordinates":[-120.8377,37.3074]}},{"type":"Feature","properties":{"station_id":"373074N1208377W002","well_use":"Unknown","slope_ft_per_yr":0.009,"p_value":0.9278,"trend":"no trend","n_measurements":21,"record_years":13.0},"geometry":{"type":"Point","coordinates":[-120.8377,37.3074]}},{"type":"Feature","properties":{"station_id":"373166N1207091W001","well_use":"Irrigation","slope_ft_per_yr":-1.313,"p_value":0.0,"trend":"decreasing","n_measurements":43,"record_years":31.0},"geometry":{"type":"Point","coordinates":[-120.70898,37.3167]}},{"type":"Feature","properties":{"station_id":"373166N1207554W001","well_use":"Irrigation","slope_ft_per_yr":-1.291,"p_value":0.0,"trend":"decreasing","n_measurements":54,"record_years":31.1},"geometry":{"type":"Point","coordinates":[-120.75539,37.31659]}},{"type":"Feature","properties":{"station_id":"373199N1208660W001","well_use":"Residential","slope_ft_per_yr":-0.1,"p_value":0.0041,"trend":"decreasing","n_measurements":55,"record_years":31.1},"geometry":{"type":"Point","coordinates":[-120.8661,37.32003]}},{"type":"Feature","properties":{"station_id":"373220N1203672W001","well_use":"Irrigation","slope_ft_per_yr":-2.691,"p_value":0.0,"trend":"decreasing","n_measurements":28,"record_years":14.5},"geometry":{"type":"Point","coordinates":[-120.36716,37.32199]}},{"type":"Feature","properties":{"station_id":"373243N1207424W001","well_use":"Irrigation","slope_ft_per_yr":-1.08,"p_value":0.0,"trend":"decreasing","n_measurements":44,"record_years":31.0},"geometry":{"type":"Point","coordinates":[-120.74238,37.32412]}},{"type":"Feature","properties":{"station_id":"373260N1204432W001","well_use":"Observation","slope_ft_per_yr":-1.588,"p_value":0.0,"trend":"decreasing","n_measurements":26,"record_years":14.1},"geometry":{"type":"Point","coordinates":[-120.44316,37.32603]}},{"type":"Feature","properties":{"station_id":"373260N1204432W002","well_use":"Observation","slope_ft_per_yr":-2.469,"p_value":0.0,"trend":"decreasing","n_measurements":26,"record_years":14.1},"geometry":{"type":"Point","coordinates":[-120.44316,37.32603]}},{"type":"Feature","properties":{"station_id":"373260N1204432W003","well_use":"Observation","slope_ft_per_yr":-2.194,"p_value":0.0,"trend":"decreasing","n_measurements":26,"record_years":14.1},"geometry":{"type":"Point","coordinates":[-120.44316,37.32603]}},{"type":"Feature","properties":{"station_id":"373260N1204432W004","well_use":"Observation","slope_ft_per_yr":-2.408,"p_value":0.0001,"trend":"decreasing","n_measurements":26,"record_years":14.1},"geometry":{"type":"Point","coordinates":[-120.44316,37.32603]}},{"type":"Feature","properties":{"station_id":"373260N1204880W001","well_use":"Observation","slope_ft_per_yr":-2.714,"p_value":0.0,"trend":"decreasing","n_measurements":25,"record_years":14.0},"geometry":{"type":"Point","coordinates":[-120.48801,37.32603]}},{"type":"Feature","properties":{"station_id":"373260N1204880W002","well_use":"Observation","slope_ft_per_yr":-2.215,"p_value":0.0,"trend":"decreasing","n_measurements":25,"record_years":14.0},"geometry":{"type":"Point","coordinates":[-120.48801,37.32603]}},{"type":"Feature","properties":{"station_id":"373260N1204880W003","well_use":"Observation","slope_ft_per_yr":-1.748,"p_value":0.0003,"trend":"decreasing","n_measurements":25,"record_years":14.0},"geometry":{"type":"Point","coordinates":[-120.48801,37.32603]}},{"type":"Feature","properties":{"station_id":"373260N1204880W004","well_use":"Residential","slope_ft_per_yr":-1.83,"p_value":0.0003,"trend":"decreasing","n_measurements":25,"record_years":14.0},"geometry":{"type":"Point","coordinates":[-120.48801,37.32603]}},{"type":"Feature","properties":{"station_id":"373277N1209054W001","well_use":"Observation","slope_ft_per_yr":0.24,"p_value":0.3414,"trend":"no trend","n_measurements":23,"record_years":14.4},"geometry":{"type":"Point","coordinates":[-120.90538,37.32772]}},{"type":"Feature","properties":{"station_id":"373278N1209054W001","well_use":"Observation","slope_ft_per_yr":0.13,"p_value":0.5788,"trend":"no trend","n_measurements":23,"record_years":14.4},"geometry":{"type":"Point","coordinates":[-120.90538,37.32781]}},{"type":"Feature","properties":{"station_id":"373278N1209054W002","well_use":"Observation","slope_ft_per_yr":0.233,"p_value":0.2667,"trend":"no trend","n_measurements":23,"record_years":14.4},"geometry":{"type":"Point","coordinates":[-120.90538,37.32776]}},{"type":"Feature","properties":{"station_id":"373310N1207810W001","well_use":"Unknown","slope_ft_per_yr":-0.597,"p_value":0.0004,"trend":"decreasing","n_measurements":20,"record_years":12.0},"geometry":{"type":"Point","coordinates":[-120.781,37.331]}},{"type":"Feature","properties":{"station_id":"373327N1203960W001","well_use":"Irrigation","slope_ft_per_yr":-2.708,"p_value":0.0,"trend":"decreasing","n_measurements":45,"record_years":31.0},"geometry":{"type":"Point","coordinates":[-120.39574,37.33278]}},{"type":"Feature","properties":{"station_id":"373355N1209160W001","well_use":"Unknown","slope_ft_per_yr":0.012,"p_value":0.7514,"trend":"no trend","n_measurements":28,"record_years":17.0},"geometry":{"type":"Point","coordinates":[-120.916,37.3355]}},{"type":"Feature","properties":{"station_id":"373457N1205429W001","well_use":"Irrigation","slope_ft_per_yr":-2.005,"p_value":0.0,"trend":"decreasing","n_measurements":44,"record_years":31.0},"geometry":{"type":"Point","coordinates":[-120.54089,37.34607]}},{"type":"Feature","properties":{"station_id":"373468N1208877W001","well_use":"Unknown","slope_ft_per_yr":-0.136,"p_value":0.4115,"trend":"no trend","n_measurements":30,"record_years":20.1},"geometry":{"type":"Point","coordinates":[-120.8877,37.3468]}},{"type":"Feature","properties":{"station_id":"373496N1205890W001","well_use":"Observation","slope_ft_per_yr":-1.889,"p_value":0.0111,"trend":"decreasing","n_measurements":23,"record_years":11.0},"geometry":{"type":"Point","coordinates":[-120.58897,37.34955]}},{"type":"Feature","properties":{"station_id":"373510N1209113W001","well_use":"Observation","slope_ft_per_yr":0.213,"p_value":0.3089,"trend":"no trend","n_measurements":24,"record_years":14.3},"geometry":{"type":"Point","coordinates":[-120.91133,37.35102]}},{"type":"Feature","properties":{"station_id":"373510N1209113W002","well_use":"Observation","slope_ft_per_yr":0.249,"p_value":0.4717,"trend":"no trend","n_measurements":24,"record_years":14.4},"geometry":{"type":"Point","coordinates":[-120.91128,37.35103]}},{"type":"Feature","properties":{"station_id":"373510N1209114W001","well_use":"Observation","slope_ft_per_yr":0.048,"p_value":0.8949,"trend":"no trend","n_measurements":23,"record_years":14.4},"geometry":{"type":"Point","coordinates":[-120.91138,37.35101]}},{"type":"Feature","properties":{"station_id":"373532N1206432W001","well_use":"Irrigation","slope_ft_per_yr":-1.839,"p_value":0.0,"trend":"decreasing","n_measurements":43,"record_years":31.0},"geometry":{"type":"Point","coordinates":[-120.64383,37.3531]}},{"type":"Feature","properties":{"station_id":"373532N1208796W001","well_use":"Unknown","slope_ft_per_yr":0.012,"p_value":0.8797,"trend":"no trend","n_measurements":21,"record_years":13.7},"geometry":{"type":"Point","coordinates":[-120.8796,37.3532]}},{"type":"Feature","properties":{"station_id":"373721N1208143W001","well_use":"Irrigation","slope_ft_per_yr":-0.509,"p_value":0.0,"trend":"decreasing","n_measurements":29,"record_years":17.0},"geometry":{"type":"Point","coordinates":[-120.8143,37.3721]}},{"type":"Feature","properties":{"station_id":"373732N1206679W001","well_use":"Irrigation","slope_ft_per_yr":-1.512,"p_value":0.0,"trend":"decreasing","n_measurements":40,"record_years":31.0},"geometry":{"type":"Point","coordinates":[-120.66816,37.37326]}},{"type":"Feature","properties":{"station_id":"373813N1207782W001","well_use":"Irrigation","slope_ft_per_yr":-0.321,"p_value":0.0028,"trend":"decreasing","n_measurements":23,"record_years":18.7},"geometry":{"type":"Point","coordinates":[-120.7782,37.3813]}},{"type":"Feature","properties":{"station_id":"373821N1207551W001","well_use":"Irrigation","slope_ft_per_yr":0.149,"p_value":0.6154,"trend":"no trend","n_measurements":23,"record_years":11.4},"geometry":{"type":"Point","coordinates":[-120.7551,37.38207]}},{"type":"Feature","properties":{"station_id":"373821N1207552W001","well_use":"Unknown","slope_ft_per_yr":-0.424,"p_value":0.0405,"trend":"decreasing","n_measurements":20,"record_years":18.8},"geometry":{"type":"Point","coordinates":[-120.7552,37.3821]}},{"type":"Feature","properties":{"station_id":"374074N1206859W001","well_use":"Irrigation","slope_ft_per_yr":-0.852,"p_value":0.0217,"trend":"decreasing","n_measurements":27,"record_years":14.4},"geometry":{"type":"Point","coordinates":[-120.68591,37.40736]}},{"type":"Feature","properties":{"station_id":"374335N1207479W001","well_use":"Unknown","slope_ft_per_yr":-0.532,"p_value":0.0,"trend":"decreasing","n_measurements":32,"record_years":19.6},"geometry":{"type":"Point","coordinates":[-120.7,37.4]}},{"type":"Feature","properties":{"station_id":"374421N1205407W001","well_use":"Irrigation","slope_ft_per_yr":-2.476,"p_value":0.0,"trend":"decreasing","n_measurements":36,"record_years":31.0},"geometry":{"type":"Point","coordinates":[-120.54066,37.44218]}}]}