{"type":"FeatureCollection","features":[{"type":"Feature","properties":{"station_id":"360886N1200929W001","well_use":"Irrigation","slope_ft_per_yr":-1.154,"p_value":0.0822,"trend":"no trend","n_measurements":24,"record_years":23.9},"geometry":{"type":"Point","coordinates":[-120.0929,36.08857]}},{"type":"Feature","properties":{"station_id":"360895N1200214W001","well_use":"Irrigation","slope_ft_per_yr":0.112,"p_value":1.0,"trend":"no trend","n_measurements":21,"record_years":14.3},"geometry":{"type":"Point","coordinates":[-120.02142,36.08952]}},{"type":"Feature","properties":{"station_id":"360981N1200574W001","well_use":"Irrigation","slope_ft_per_yr":-2.772,"p_value":0.0297,"trend":"decreasing","n_measurements":20,"record_years":24.0},"geometry":{"type":"Point","coordinates":[-120.05719,36.09799]}},{"type":"Feature","properties":{"station_id":"361006N1202177W001","well_use":"Irrigation","slope_ft_per_yr":-4.356,"p_value":0.0162,"trend":"decreasing","n_measurements":23,"record_years":28.3},"geometry":{"type":"Point","coordinates":[-120.21777,36.10803]}},{"type":"Feature","properties":{"station_id":"361089N1200166W001","well_use":"Irrigation","slope_ft_per_yr":-4.531,"p_value":0.0031,"trend":"decreasing","n_measurements":22,"record_years":23.9},"geometry":{"type":"Point","coordinates":[-120.01661,36.1087]}},{"type":"Feature","properties":{"station_id":"361092N1201102W001","well_use":"Irrigation","slope_ft_per_yr":-2.95,"p_value":0.0856,"trend":"no trend","n_measurements":28,"record_years":29.4},"geometry":{"type":"Point","coordinates":[-120.11014,36.10895]}},{"type":"Feature","properties":{"station_id":"361147N1201999W001","well_use":"Irrigation","slope_ft_per_yr":0.126,"p_value":0.1069,"trend":"no trend","n_measurements":38,"record_years":30.2},"geometry":{"type":"Point","coordinates":[-120.19985,36.11395]}},{"type":"Feature","properties":{"station_id":"361383N1200749W001","well_use":"Irrigation","slope_ft_per_yr":-4.795,"p_value":0.0022,"trend":"decreasing","n_measurements":23,"record_years":22.9},"geometry":{"type":"Point","coordinates":[-120.07477,36.13827]}},{"type":"Feature","properties":{"station_id":"361400N1199310W001","well_use":"Unknown","slope_ft_per_yr":-0.425,"p_value":0.0,"trend":"decreasing","n_measurements":58,"record_years":16.5},"geometry":{"type":"Point","coordinates":[-119.931,36.14]}},{"type":"Feature","properties":{"station_id":"361481N1202638W001","well_use":"Irrigation","slope_ft_per_yr":-6.459,"p_value":0.0,"trend":"decreasing","n_measurements":25,"record_years":25.9},"geometry":{"type":"Point","coordinates":[-120.2638,36.1481]}},{"type":"Feature","properties":{"station_id":"361503N1199949W002","well_use":"Irrigation","slope_ft_per_yr":-1.543,"p_value":0.7703,"trend":"no trend","n_measurements":20,"record_years":27.4},"geometry":{"type":"Point","coordinates":[-119.99251,36.15212]}},{"type":"Feature","properties":{"station_id":"361519N1202716W001","well_use":"Irrigation","slope_ft_per_yr":-2.647,"p_value":0.0,"trend":"decreasing","n_measurements":25,"record_years":21.9},"geometry":{"type":"Point","coordinates":[-120.27165,36.15191]}},{"type":"Feature","properties":{"station_id":"361522N1200710W001","well_use":"Irrigation","slope_ft_per_yr":-2.16,"p_value":0.0208,"trend":"decreasing","n_measurements":22,"record_years":24.0},"geometry":{"type":"Point","coordinates":[-120.07107,36.15234]}},{"type":"Feature","properties":{"station_id":"361522N1202666W001","well_use":"Irrigation","slope_ft_per_yr":-3.231,"p_value":0.0,"trend":"decreasing","n_measurements":36,"record_years":23.9},"geometry":{"type":"Point","coordinates":[-120.26719,36.15207]}},{"type":"Feature","properties":{"station_id":"361544N1202829W001","well_use":"Irrigation","slope_ft_per_yr":-5.648,"p_value":0.0786,"trend":"no trend","n_measurements":28,"record_years":19.2},"geometry":{"type":"Point","coordinates":[-120.27303,36.15448]}},{"type":"Feature","properties":{"station_id":"361575N1202743W001","well_use":"Irrigation","slope_ft_per_yr":-1.219,"p_value":0.0088,"trend":"decreasing","n_measurements":25,"record_years":23.4},"geometry":{"type":"Point","coordinates":[-120.2762,36.15729]}},{"type":"Feature","properties":{"station_id":"361589N1201210W001","well_use":"Irrigation","slope_ft_per_yr":-1.984,"p_value":0.041,"trend":"decreasing","n_measurements":20,"record_years":24.0},"geometry":{"type":"Point","coordinates":[-120.12132,36.15919]}},{"type":"Feature","properties":{"station_id":"361592N1200482W001","well_use":"Irrigation","slope_ft_per_yr":-4.326,"p_value":0.015,"trend":"decreasing","n_measurements":20,"record_years":24.0},"geometry":{"type":"Point","coordinates":[-120.04832,36.15924]}},{"type":"Feature","properties":{"station_id":"361597N1200752W001","well_use":"Irrigation","slope_ft_per_yr":-4.273,"p_value":0.0515,"trend":"no trend","n_measurements":20,"record_years":24.0},"geometry":{"type":"Point","coordinates":[-120.07573,36.15965]}},{"type":"Feature","properties":{"station_id":"361667N1200921W001","well_use":"Irrigation","slope_ft_per_yr":-1.0,"p_value":0.0398,"trend":"decreasing","n_measurements":21,"record_years":22.9},"geometry":{"type":"Point","coordinates":[-120.09135,36.16668]}},{"type":"Feature","properties":{"station_id":"361683N1202288W001","well_use":"Irrigation","slope_ft_per_yr":0.425,"p_value":0.9102,"trend":"no trend","n_measurements":22,"record_years":18.2},"geometry":{"type":"Point","coordinates":[-120.22907,36.1683]}},{"type":"Feature","properties":{"station_id":"361728N1200399W001","well_use":"Irrigation","slope_ft_per_yr":-0.231,"p_value":0.9741,"trend":"no trend","n_measurements":20,"record_years":24.0},"geometry":{"type":"Point","coordinates":[-120.0392,36.1741]}},{"type":"Feature","properties":{"station_id":"361817N1200857W001","well_use":"Irrigation","slope_ft_per_yr":0.85,"p_value":0.1941,"trend":"no trend","n_measurements":20,"record_years":24.0},"geometry":{"type":"Point","coordinates":[-120.08557,36.18167]}},{"type":"Feature","properties":{"station_id":"361886N1201777W001","well_use":"Irrigation","slope_ft_per_yr":-2.142,"p_value":0.0442,"trend":"decreasing","n_measurements":20,"record_years":24.0},"geometry":{"type":"Point","coordinates":[-120.17803,36.18847]}},{"type":"Feature","properties":{"station_id":"361889N1199404W001","well_use":"Irrigation","slope_ft_per_yr":-0.908,"p_value":0.5089,"trend":"no trend","n_measurements":23,"record_years":27.4},"geometry":{"type":"Point","coordinates":[-119.94072,36.18904]}},{"type":"Feature","properties":{"station_id":"361894N1199052W001","well_use":"Irrigation","slope_ft_per_yr":0.204,"p_value":0.7761,"trend":"no trend","n_measurements":50,"record_years":27.3},"geometry":{"type":"Point","coordinates":[-119.90493,36.18968]}},{"type":"Feature","properties":{"station_id":"361958N1201657W001","well_use":"Irrigation","slope_ft_per_yr":-0.667,"p_value":0.2836,"trend":"no trend","n_measurements":22,"record_years":24.0},"geometry":{"type":"Point","coordinates":[-120.16614,36.19589]}},{"type":"Feature","properties":{"station_id":"361964N1201388W001","well_use":"Irrigation","slope_ft_per_yr":-1.324,"p_value":0.1647,"trend":"no trend","n_measurements":24,"record_years":30.4},"geometry":{"type":"Point","coordinates":[-120.1388,36.19597]}},{"type":"Feature","properties":{"station_id":"361972N1199049W001","well_use":"Irrigation","slope_ft_per_yr":-3.164,"p_value":0.0071,"trend":"decreasing","n_measurements":44,"record_years":27.3},"geometry":{"type":"Point","coordinates":[-119.90484,36.19723]}},{"type":"Feature","properties":{"station_id":"362014N1198871W001","well_use":"Irrigation","slope_ft_per_yr":-5.138,"p_value":0.0,"trend":"decreasing","n_measurements":52,"record_years":24.7},"geometry":{"type":"Point","coordinates":[-119.88692,36.19683]}},{"type":"Feature","properties":{"station_id":"362037N1199499W001","well_use":"Irrigation","slope_ft_per_yr":7.676,"p_value":0.1019,"trend":"no trend","n_measurements":22,"record_years":15.3},"geometry":{"type":"Point","coordinates":[-119.94992,36.20367]}},{"type":"Feature","properties":{"station_id":"362042N1198871W001","well_use":"Irrigation","slope_ft_per_yr":-7.72,"p_value":0.0,"trend":"decreasing","n_measurements":56,"record_years":31.0},"geometry":{"type":"Point","coordinates":[-119.88693,36.20446]}},{"type":"Feature","properties":{"station_id":"362047N1199049W001","well_use":"Irrigation","slope_ft_per_yr":-5.213,"p_value":0.0,"trend":"decreasing","n_measurements":46,"record_years":27.3},"geometry":{"type":"Point","coordinates":[-119.9048,36.20474]}},{"type":"Feature","properties":{"station_id":"362117N1200127W001","well_use":"Irrigation","slope_ft_per_yr":2.41,"p_value":0.4555,"trend":"no trend","n_measurements":20,"record_years":24.9},"geometry":{"type":"Point","coordinates":[-120.0125,36.21153]}},{"type":"Feature","properties":{"station_id":"362186N1198696W001","well_use":"Irrigation","slope_ft_per_yr":-3.554,"p_value":0.0107,"trend":"decreasing","n_measurements":38,"record_years":20.8},"geometry":{"type":"Point","coordinates":[-119.86978,36.21864]}},{"type":"Feature","properties":{"station_id":"362187N1200216W001","well_use":"Irrigation","slope_ft_per_yr":5.912,"p_value":0.2363,"trend":"no trend","n_measurements":22,"record_years":19.3},"geometry":{"type":"Point","coordinates":[-120.02158,36.2187]}},{"type":"Feature","properties":{"station_id":"362189N1198871W001","well_use":"Unknown","slope_ft_per_yr":-5.671,"p_value":0.0,"trend":"decreasing","n_measurements":34,"record_years":21.1},"geometry":{"type":"Point","coordinates":[-119.8871,36.2189]}},{"type":"Feature","properties":{"station_id":"362256N1202227W001","well_use":"Irrigation","slope_ft_per_yr":2.712,"p_value":0.1177,"trend":"no trend","n_measurements":24,"record_years":24.0},"geometry":{"type":"Point","coordinates":[-120.22037,36.2262]}},{"type":"Feature","properties":{"station_id":"362258N1201677W001","well_use":"Irrigation","slope_ft_per_yr":-0.939,"p_value":0.3551,"trend":"no trend","n_measurements":23,"record_years":24.0},"geometry":{"type":"Point","coordinates":[-120.16846,36.22601]}},{"type":"Feature","properties":{"station_id":"362259N1202190W001","well_use":"Irrigation","slope_ft_per_yr":-1.656,"p_value":0.163,"trend":"no trend","n_measurements":20,"record_years":23.0},"geometry":{"type":"Point","coordinates":[-120.21903,36.22592]}},{"type":"Feature","properties":{"station_id":"362264N1202099W001","well_use":"Irrigation","slope_ft_per_yr":0.015,"p_value":0.816,"trend":"no trend","n_measurements":33,"record_years":29.0},"geometry":{"type":"Point","coordinates":[-120.20998,36.22638]}},{"type":"Feature","properties":{"station_id":"362267N1202018W001","well_use":"Irrigation","slope_ft_per_yr":-1.504,"p_value":0.0353,"trend":"decreasing","n_measurements":25,"record_years":24.0},"geometry":{"type":"Point","coordinates":[-120.20198,36.22644]}},{"type":"Feature","properties":{"station_id":"362294N1200127W001","well_use":"Irrigation","slope_ft_per_yr":12.271,"p_value":0.0006,"trend":"increasing","n_measurements":22,"record_years":27.3},"geometry":{"type":"Point","coordinates":[-120.01246,36.22992]}},{"type":"Feature","properties":{"station_id":"362408N1199413W001","well_use":"Irrigation","slope_ft_per_yr":-7.705,"p_value":0.0015,"trend":"decreasing","n_measurements":21,"record_years":22.9},"geometry":{"type":"Point","coordinates":[-119.94113,36.2408]}},{"type":"Feature","properties":{"station_id":"362408N1199588W002","well_use":"Irrigation","slope_ft_per_yr":-6.314,"p_value":0.0252,"trend":"decreasing","n_measurements":20,"record_years":22.9},"geometry":{"type":"Point","coordinates":[-119.95863,36.24087]}},{"type":"Feature","properties":{"station_id":"362408N1201679W001","well_use":"Irrigation","slope_ft_per_yr":-2.482,"p_value":0.0071,"trend":"decreasing","n_measurements":20,"record_years":23.9},"geometry":{"type":"Point","coordinates":[-120.16854,36.24089]}},{"type":"Feature","properties":{"station_id":"362408N1201824W001","well_use":"Irrigation","slope_ft_per_yr":-3.025,"p_value":0.008,"trend":"decreasing","n_measurements":22,"record_years":24.0},"geometry":{"type":"Point","coordinates":[-120.18282,36.24094]}},{"type":"Feature","properties":{"station_id":"362411N1201324W001","well_use":"Irrigation","slope_ft_per_yr":-2.61,"p_value":0.0005,"trend":"decreasing","n_measurements":38,"record_years":29.4},"geometry":{"type":"Point","coordinates":[-120.13212,36.24105]}},{"type":"Feature","properties":{"station_id":"362522N1198877W001","well_use":"Irrigation","slope_ft_per_yr":-3.411,"p_value":0.0027,"trend":"decreasing","n_measurements":36,"record_years":26.0},"geometry":{"type":"Point","coordinates":[-119.8877,36.2522]}},{"type":"Feature","properties":{"station_id":"362550N1199238W001","well_use":"Irrigation","slope_ft_per_yr":-1.797,"p_value":0.3853,"trend":"no trend","n_measurements":24,"record_years":27.4},"geometry":{"type":"Point","coordinates":[-119.92323,36.25485]}},{"type":"Feature","properties":{"station_id":"362550N1202263W001","well_use":"Irrigation","slope_ft_per_yr":0.222,"p_value":0.726,"trend":"no trend","n_measurements":25,"record_years":24.0},"geometry":{"type":"Point","coordinates":[-120.2262,36.25505]}},{"type":"Feature","properties":{"station_id":"362556N1200863W001","well_use":"Irrigation","slope_ft_per_yr":0.271,"p_value":0.7212,"trend":"no trend","n_measurements":20,"record_years":24.0},"geometry":{"type":"Point","coordinates":[-120.08743,36.25578]}},{"type":"Feature","properties":{"station_id":"362558N1200124W001","well_use":"Irrigation","slope_ft_per_yr":-2.616,"p_value":0.0811,"trend":"no trend","n_measurements":23,"record_years":23.9},"geometry":{"type":"Point","coordinates":[-120.0125,36.25577]}},{"type":"Feature","properties":{"station_id":"362561N1201032W001","well_use":"Irrigation","slope_ft_per_yr":-1.534,"p_value":0.3813,"trend":"no trend","n_measurements":27,"record_years":24.0},"geometry":{"type":"Point","coordinates":[-120.10308,36.25603]}},{"type":"Feature","properties":{"station_id":"362589N1200302W001","well_use":"Irrigation","slope_ft_per_yr":-7.617,"p_value":0.0003,"trend":"decreasing","n_measurements":22,"record_years":22.9},"geometry":{"type":"Point","coordinates":[-120.03044,36.25892]}},{"type":"Feature","properties":{"station_id":"362592N1201213W001","well_use":"Irrigation","slope_ft_per_yr":-1.88,"p_value":0.2839,"trend":"no trend","n_measurements":22,"record_years":24.0},"geometry":{"type":"Point","coordinates":[-120.1213,36.25935]}},{"type":"Feature","properties":{"station_id":"362611N1199496W001","well_use":"Irrigation","slope_ft_per_yr":-6.037,"p_value":0.0035,"trend":"decreasing","n_measurements":27,"record_years":20.9},"geometry":{"type":"Point","coordinates":[-119.95011,36.26092]}},{"type":"Feature","properties":{"station_id":"362681N1200482W001","well_use":"Irrigation","slope_ft_per_yr":-5.681,"p_value":0.0043,"trend":"decreasing","n_measurements":20,"record_years":23.9},"geometry":{"type":"Point","coordinates":[-120.04823,36.26804]}},{"type":"Feature","properties":{"station_id":"362694N1201479W001","well_use":"Irrigation","slope_ft_per_yr":-5.828,"p_value":0.0125,"trend":"decreasing","n_measurements":20,"record_years":26.3},"geometry":{"type":"Point","coordinates":[-120.14825,36.26948]}},{"type":"Feature","properties":{"station_id":"362694N1202285W001","well_use":"Irrigation","slope_ft_per_yr":-2.055,"p_value":0.6035,"trend":"no trend","n_measurements":20,"record_years":23.5},"geometry":{"type":"Point","coordinates":[-120.2285,36.26923]}},{"type":"Feature","properties":{"station_id":"362736N1199766W001","well_use":"Irrigation","slope_ft_per_yr":-6.734,"p_value":0.0001,"trend":"decreasing","n_measurements":23,"record_years":23.9},"geometry":{"type":"Point","coordinates":[-119.97675,36.27388]}},{"type":"Feature","properties":{"station_id":"362806N1201574W001","well_use":"Irrigation","slope_ft_per_yr":-4.517,"p_value":0.0101,"trend":"decreasing","n_measurements":21,"record_years":22.9},"geometry":{"type":"Point","coordinates":[-120.15729,36.28083]}},{"type":"Feature","properties":{"station_id":"362808N1200674W001","well_use":"Irrigation","slope_ft_per_yr":-7.041,"p_value":0.0086,"trend":"decreasing","n_measurements":21,"record_years":23.9},"geometry":{"type":"Point","coordinates":[-120.06739,36.28074]}},{"type":"Feature","properties":{"station_id":"362844N1199399W001","well_use":"Irrigation","slope_ft_per_yr":-3.919,"p_value":0.0395,"trend":"decreasing","n_measurements":24,"record_years":26.3},"geometry":{"type":"Point","coordinates":[-119.9409,36.28475]}},{"type":"Feature","properties":{"station_id":"362850N1199854W001","well_use":"Irrigation","slope_ft_per_yr":-5.564,"p_value":0.0013,"trend":"decreasing","n_measurements":20,"record_years":22.9},"geometry":{"type":"Point","coordinates":[-119.99463,36.28489]}},{"type":"Feature","properties":{"station_id":"362911N1202291W001","well_use":"Irrigation","slope_ft_per_yr":-4.758,"p_value":0.0497,"trend":"decreasing","n_measurements":21,"record_years":24.0},"geometry":{"type":"Point","coordinates":[-120.22892,36.2909]}},{"type":"Feature","properties":{"station_id":"362925N1199046W001","well_use":"Irrigation","slope_ft_per_yr":-3.462,"p_value":0.0055,"trend":"decreasing","n_measurements":38,"record_years":29.4},"geometry":{"type":"Point","coordinates":[-119.90478,36.29216]}},{"type":"Feature","properties":{"station_id":"362989N1201849W001","well_use":"Irrigation","slope_ft_per_yr":-1.673,"p_value":0.0344,"trend":"decreasing","n_measurements":22,"record_years":24.0},"geometry":{"type":"Point","coordinates":[-120.18473,36.29859]}},{"type":"Feature","properties":{"station_id":"362994N1200124W001","well_use":"Irrigation","slope_ft_per_yr":-3.345,"p_value":0.0429,"trend":"decreasing","n_measurements":21,"record_years":23.9},"geometry":{"type":"Point","coordinates":[-120.01261,36.29932]}},{"type":"Feature","properties":{"station_id":"363072N1200213W001","well_use":"Irrigation","slope_ft_per_yr":-4.068,"p_value":0.1354,"trend":"no trend","n_measurements":20,"record_years":23.9},"geometry":{"type":"Point","coordinates":[-120.02128,36.30722]}},{"type":"Feature","properties":{"station_id":"363125N1201757W001","well_use":"Irrigation","slope_ft_per_yr":-2.548,"p_value":0.1092,"trend":"no trend","n_measurements":21,"record_years":23.0},"geometry":{"type":"Point","coordinates":[-120.17607,36.31246]}},{"type":"Feature","properties":{"station_id":"363128N1202288W001","well_use":"Irrigation","slope_ft_per_yr":-0.755,"p_value":0.6277,"trend":"no trend","n_measurements":26,"record_years":22.3},"geometry":{"type":"Point","coordinates":[-120.22875,36.31265]}},{"type":"Feature","properties":{"station_id":"363167N1200671W001","well_use":"Irrigation","slope_ft_per_yr":-6.18,"p_value":0.0009,"trend":"decreasing","n_measurements":27,"record_years":24.0},"geometry":{"type":"Point","coordinates":[-120.0672,36.31652]}},{"type":"Feature","properties":{"station_id":"363211N1199863W001","well_use":"Irrigation","slope_ft_per_yr":-1.422,"p_value":0.1467,"trend":"no trend","n_measurements":21,"record_years":24.0},"geometry":{"type":"Point","coordinates":[-119.98575,36.32105]}},{"type":"Feature","properties":{"station_id":"363272N1202296W001","well_use":"Irrigation","slope_ft_per_yr":-1.982,"p_value":0.0907,"trend":"no trend","n_measurements":21,"record_years":24.0},"geometry":{"type":"Point","coordinates":[-120.22937,36.32783]}},{"type":"Feature","properties":{"station_id":"363278N1201579W001","well_use":"Irrigation","slope_ft_per_yr":-8.325,"p_value":0.0004,"trend":"decreasing","n_measurements":20,"record_years":24.0},"geometry":{"type":"Point","coordinates":[-120.15812,36.32782]}},{"type":"Feature","properties":{"station_id":"363283N1199932W001","well_use":"Irrigation","slope_ft_per_yr":-3.684,"p_value":0.0125,"trend":"decreasing","n_measurements":20,"record_years":22.9},"geometry":{"type":"Point","coordinates":[-119.99368,36.32835]}},{"type":"Feature","properties":{"station_id":"363283N1200304W001","well_use":"Irrigation","slope_ft_per_yr":2.774,"p_value":0.009,"trend":"increasing","n_measurements":32,"record_years":27.4},"geometry":{"type":"Point","coordinates":[-120.0305,36.32833]}},{"type":"Feature","properties":{"station_id":"363400N1199210W001","well_use":"Unknown","slope_ft_per_yr":-0.387,"p_value":0.0,"trend":"decreasing","n_measurements":53,"record_years":16.5},"geometry":{"type":"Point","coordinates":[-119.921,36.34]}},{"type":"Feature","properties":{"station_id":"363422N1202196W001","well_use":"Irrigation","slope_ft_per_yr":-0.534,"p_value":0.5994,"trend":"no trend","n_measurements":29,"record_years":30.3},"geometry":{"type":"Point","coordinates":[-120.22092,36.34233]}},{"type":"Feature","properties":{"station_id":"363494N1201793W001","well_use":"Irrigation","slope_ft_per_yr":-4.369,"p_value":0.0552,"trend":"no trend","n_measurements":22,"record_years":24.0},"geometry":{"type":"Point","coordinates":[-120.17952,36.34958]}},{"type":"Feature","properties":{"station_id":"363497N1201488W001","well_use":"Irrigation","slope_ft_per_yr":-6.978,"p_value":0.0012,"trend":"decreasing","n_measurements":20,"record_years":24.0},"geometry":{"type":"Point","coordinates":[-120.14873,36.34978]}},{"type":"Feature","properties":{"station_id":"363503N1199368W001","well_use":"Irrigation","slope_ft_per_yr":-2.007,"p_value":0.11,"trend":"no trend","n_measurements":31,"record_years":30.0},"geometry":{"type":"Point","coordinates":[-119.93663,36.35011]}},{"type":"Feature","properties":{"station_id":"363564N1202293W001","well_use":"Irrigation","slope_ft_per_yr":-5.102,"p_value":0.037,"trend":"decreasing","n_measurements":24,"record_years":24.4},"geometry":{"type":"Point","coordinates":[-120.22958,36.35657]}},{"type":"Feature","properties":{"station_id":"363575N1199766W001","well_use":"Irrigation","slope_ft_per_yr":-3.229,"p_value":0.0,"trend":"decreasing","n_measurements":38,"record_years":24.1},"geometry":{"type":"Point","coordinates":[-119.97676,36.35737]}},{"type":"Feature","properties":{"station_id":"363575N1200846W001","well_use":"Irrigation","slope_ft_per_yr":-9.614,"p_value":0.0002,"trend":"decreasing","n_measurements":22,"record_years":24.0},"geometry":{"type":"Point","coordinates":[-120.0839,36.35747]}},{"type":"Feature","properties":{"station_id":"363650N1200304W001","well_use":"Irrigation","slope_ft_per_yr":-3.835,"p_value":0.0002,"trend":"decreasing","n_measurements":25,"record_years":23.6},"geometry":{"type":"Point","coordinates":[-120.03087,36.36465]}},{"type":"Feature","properties":{"station_id":"363717N1200393W001","well_use":"Irrigation","slope_ft_per_yr":-3.749,"p_value":0.0,"trend":"decreasing","n_measurements":25,"record_years":23.0},"geometry":{"type":"Point","coordinates":[-120.03948,36.37186]}},{"type":"Feature","properties":{"station_id":"363717N1200954W001","well_use":"Irrigation","slope_ft_per_yr":-1.252,"p_value":0.065,"trend":"no trend","n_measurements":25,"record_years":30.4},"geometry":{"type":"Point","coordinates":[-120.09403,36.37182]}},{"type":"Feature","properties":{"station_id":"363717N1201310W001","well_use":"Irrigation","slope_ft_per_yr":-4.972,"p_value":0.0025,"trend":"decreasing","n_measurements":31,"record_years":30.0},"geometry":{"type":"Point","coordinates":[-120.13,36.37167]}},{"type":"Feature","properties":{"station_id":"363753N1201568W001","well_use":"Irrigation","slope_ft_per_yr":-4.968,"p_value":0.0211,"trend":"decreasing","n_measurements":20,"record_years":24.0},"geometry":{"type":"Point","coordinates":[-120.15682,36.37522]}},{"type":"Feature","properties":{"station_id":"363786N1200671W001","well_use":"Irrigation","slope_ft_per_yr":-3.815,"p_value":0.0016,"trend":"decreasing","n_measurements":22,"record_years":22.9},"geometry":{"type":"Point","coordinates":[-120.06713,36.37903]}},{"type":"Feature","properties":{"station_id":"363786N1201788W001","well_use":"Irrigation","slope_ft_per_yr":-5.869,"p_value":0.0212,"trend":"decreasing","n_measurements":20,"record_years":24.0},"geometry":{"type":"Point","coordinates":[-120.1789,36.37877]}},{"type":"Feature","properties":{"station_id":"363789N1199854W001","well_use":"Irrigation","slope_ft_per_yr":-5.232,"p_value":0.0,"trend":"decreasing","n_measurements":20,"record_years":23.9},"geometry":{"type":"Point","coordinates":[-119.98616,36.37886]}},{"type":"Feature","properties":{"station_id":"363853N1203560W001","well_use":"Irrigation","slope_ft_per_yr":1.675,"p_value":0.4359,"trend":"no trend","n_measurements":20,"record_years":24.0},"geometry":{"type":"Point","coordinates":[-120.35567,36.38528]}},{"type":"Feature","properties":{"station_id":"363856N1202471W001","well_use":"Irrigation","slope_ft_per_yr":-1.003,"p_value":0.7346,"trend":"no trend","n_measurements":30,"record_years":30.3},"geometry":{"type":"Point","coordinates":[-120.24702,36.38563]}},{"type":"Feature","properties":{"station_id":"363867N1200221W002","well_use":"Irrigation","slope_ft_per_yr":-4.163,"p_value":0.0008,"trend":"decreasing","n_measurements":21,"record_years":24.0},"geometry":{"type":"Point","coordinates":[-120.02145,36.3864]}},{"type":"Feature","properties":{"station_id":"363936N1200399W001","well_use":"Irrigation","slope_ft_per_yr":0.701,"p_value":0.0431,"trend":"increasing","n_measurements":39,"record_years":30.4},"geometry":{"type":"Point","coordinates":[-120.04,36.39367]}},{"type":"Feature","properties":{"station_id":"363936N1200488W001","well_use":"Irrigation","slope_ft_per_yr":-3.683,"p_value":0.0255,"trend":"decreasing","n_measurements":24,"record_years":23.0},"geometry":{"type":"Point","coordinates":[-120.04889,36.39367]}},{"type":"Feature","properties":{"station_id":"364000N1202477W001","well_use":"Irrigation","slope_ft_per_yr":-2.642,"p_value":0.0572,"trend":"no trend","n_measurements":23,"record_years":24.0},"geometry":{"type":"Point","coordinates":[-120.24719,36.40022]}},{"type":"Feature","properties":{"station_id":"364008N1201141W001","well_use":"Irrigation","slope_ft_per_yr":-4.187,"p_value":0.0058,"trend":"decreasing","n_measurements":20,"record_years":24.0},"geometry":{"type":"Point","coordinates":[-120.11437,36.40067]}},{"type":"Feature","properties":{"station_id":"364008N1201760W001","well_use":"Irrigation","slope_ft_per_yr":-2.93,"p_value":0.0728,"trend":"no trend","n_measurements":34,"record_years":30.3},"geometry":{"type":"Point","coordinates":[-120.17558,36.40062]}},{"type":"Feature","properties":{"station_id":"364083N1200136W001","well_use":"Irrigation","slope_ft_per_yr":1.194,"p_value":0.7858,"trend":"no trend","n_measurements":21,"record_years":12.0},"geometry":{"type":"Point","coordinates":[-120.01361,36.4083]}},{"type":"Feature","properties":{"station_id":"364144N1202743W001","well_use":"Irrigation","slope_ft_per_yr":-8.95,"p_value":0.0065,"trend":"decreasing","n_measurements":21,"record_years":24.0},"geometry":{"type":"Point","coordinates":[-120.27448,36.41453]}},{"type":"Feature","properties":{"station_id":"364144N1203027W001","well_use":"Irrigation","slope_ft_per_yr":-1.94,"p_value":0.1235,"trend":"no trend","n_measurements":21,"record_years":24.0},"geometry":{"type":"Point","coordinates":[-120.30252,36.41448]}},{"type":"Feature","properties":{"station_id":"364150N1202113W001","well_use":"Irrigation","slope_ft_per_yr":-5.427,"p_value":0.0126,"trend":"decreasing","n_measurements":29,"record_years":24.0},"geometry":{"type":"Point","coordinates":[-120.21122,36.41483]}},{"type":"Feature","properties":{"station_id":"364156N1200579W001","well_use":"Irrigation","slope_ft_per_yr":-3.203,"p_value":0.0001,"trend":"decreasing","n_measurements":22,"record_years":23.1},"geometry":{"type":"Point","coordinates":[-120.05779,36.41549]}},{"type":"Feature","properties":{"station_id":"364158N1200485W001","well_use":"Irrigation","slope_ft_per_yr":-3.123,"p_value":0.0037,"trend":"decreasing","n_measurements":22,"record_years":14.1},"geometry":{"type":"Point","coordinates":[-120.04859,36.41584]}},{"type":"Feature","properties":{"station_id":"364217N1202757W001","well_use":"Irrigation","slope_ft_per_yr":-4.833,"p_value":0.0032,"trend":"decreasing","n_measurements":24,"record_years":24.0},"geometry":{"type":"Point","coordinates":[-120.27535,36.42188]}},{"type":"Feature","properties":{"station_id":"364228N1201574W001","well_use":"Irrigation","slope_ft_per_yr":-3.978,"p_value":0.0322,"trend":"decreasing","n_measurements":20,"record_years":24.0},"geometry":{"type":"Point","coordinates":[-120.15697,36.42277]}},{"type":"Feature","properties":{"station_id":"364267N1201932W001","well_use":"Irrigation","slope_ft_per_yr":-3.52,"p_value":0.0024,"trend":"decreasing","n_measurements":25,"record_years":24.0},"geometry":{"type":"Point","coordinates":[-120.1935,36.4257]}},{"type":"Feature","properties":{"station_id":"364278N1203738W001","well_use":"Irrigation","slope_ft_per_yr":-3.065,"p_value":0.0281,"trend":"decreasing","n_measurements":25,"record_years":26.3},"geometry":{"type":"Point","coordinates":[-120.37414,36.42782]}},{"type":"Feature","properties":{"station_id":"364317N1203391W001","well_use":"Irrigation","slope_ft_per_yr":-3.577,"p_value":0.0112,"trend":"decreasing","n_measurements":22,"record_years":24.0},"geometry":{"type":"Point","coordinates":[-120.33874,36.43149]}},{"type":"Feature","properties":{"station_id":"364397N1201388W001","well_use":"Irrigation","slope_ft_per_yr":-1.905,"p_value":0.1779,"trend":"no trend","n_measurements":23,"record_years":24.0},"geometry":{"type":"Point","coordinates":[-120.13859,36.4395]}},{"type":"Feature","properties":{"station_id":"364428N1203199W001","well_use":"Irrigation","slope_ft_per_yr":-0.04,"p_value":1.0,"trend":"no trend","n_measurements":21,"record_years":27.3},"geometry":{"type":"Point","coordinates":[-120.32009,36.44281]}},{"type":"Feature","properties":{"station_id":"364439N1201277W001","well_use":"Irrigation","slope_ft_per_yr":-0.838,"p_value":0.1162,"trend":"no trend","n_measurements":21,"record_years":21.9},"geometry":{"type":"Point","coordinates":[-120.12753,36.44427]}},{"type":"Feature","properties":{"station_id":"364439N1201277W002","well_use":"Irrigation","slope_ft_per_yr":-1.206,"p_value":0.0576,"trend":"no trend","n_measurements":26,"record_years":22.9},"geometry":{"type":"Point","coordinates":[-120.13242,36.42987]}},{"type":"Feature","properties":{"station_id":"364442N1202113W001","well_use":"Irrigation","slope_ft_per_yr":-3.491,"p_value":0.0032,"trend":"decreasing","n_measurements":20,"record_years":24.0},"geometry":{"type":"Point","coordinates":[-120.21152,36.44398]}},{"type":"Feature","properties":{"station_id":"364450N1202296W001","well_use":"Irrigation","slope_ft_per_yr":-7.089,"p_value":0.0056,"trend":"decreasing","n_measurements":27,"record_years":24.0},"geometry":{"type":"Point","coordinates":[-120.22962,36.44453]}},{"type":"Feature","properties":{"station_id":"364575N1202371W001","well_use":"Irrigation","slope_ft_per_yr":-6.566,"p_value":0.0012,"trend":"decreasing","n_measurements":22,"record_years":24.0},"geometry":{"type":"Point","coordinates":[-120.2379,36.45758]}},{"type":"Feature","properties":{"station_id":"364575N1203935W001","well_use":"Irrigation","slope_ft_per_yr":-5.937,"p_value":0.1462,"trend":"no trend","n_measurements":23,"record_years":26.3},"geometry":{"type":"Point","coordinates":[-120.39383,36.4575]}},{"type":"Feature","properties":{"station_id":"364578N1201935W001","well_use":"Irrigation","slope_ft_per_yr":-2.387,"p_value":0.0013,"trend":"decreasing","n_measurements":25,"record_years":24.0},"geometry":{"type":"Point","coordinates":[-120.19375,36.45817]}},{"type":"Feature","properties":{"station_id":"364583N1201304W001","well_use":"Irrigation","slope_ft_per_yr":-0.94,"p_value":0.0088,"trend":"decreasing","n_measurements":31,"record_years":29.0},"geometry":{"type":"Point","coordinates":[-120.1303,36.45839]}},{"type":"Feature","properties":{"station_id":"364583N1202113W001","well_use":"Irrigation","slope_ft_per_yr":-2.548,"p_value":0.0047,"trend":"decreasing","n_measurements":23,"record_years":24.0},"geometry":{"type":"Point","coordinates":[-120.21162,36.45822]}},{"type":"Feature","properties":{"station_id":"364586N1202027W001","well_use":"Irrigation","slope_ft_per_yr":-3.875,"p_value":0.0001,"trend":"decreasing","n_measurements":22,"record_years":24.0},"geometry":{"type":"Point","coordinates":[-120.20298,36.45833]}},{"type":"Feature","properties":{"station_id":"364588N1201297W001","well_use":"Irrigation","slope_ft_per_yr":-0.696,"p_value":0.6519,"trend":"no trend","n_measurements":22,"record_years":16.4},"geometry":{"type":"Point","coordinates":[-120.12969,36.45882]}},{"type":"Feature","properties":{"station_id":"364589N1201477W001","well_use":"Irrigation","slope_ft_per_yr":-1.223,"p_value":0.0112,"trend":"decreasing","n_measurements":26,"record_years":22.9},"geometry":{"type":"Point","coordinates":[-120.1477,36.45882]}},{"type":"Feature","properties":{"station_id":"364589N1201571W001","well_use":"Irrigation","slope_ft_per_yr":-1.408,"p_value":0.1431,"trend":"no trend","n_measurements":24,"record_years":22.9},"geometry":{"type":"Point","coordinates":[-120.15675,36.46243]}},{"type":"Feature","properties":{"station_id":"364614N1203563W001","well_use":"Irrigation","slope_ft_per_yr":-4.313,"p_value":0.4535,"trend":"no trend","n_measurements":30,"record_years":26.3},"geometry":{"type":"Point","coordinates":[-120.35602,36.46127]}},{"type":"Feature","properties":{"station_id":"364617N1202291W001","well_use":"Irrigation","slope_ft_per_yr":-1.016,"p_value":0.0442,"trend":"decreasing","n_measurements":23,"record_years":24.0},"geometry":{"type":"Point","coordinates":[-120.22805,36.46167]}},{"type":"Feature","properties":{"station_id":"364650N1202657W001","well_use":"Irrigation","slope_ft_per_yr":-1.935,"p_value":0.0611,"trend":"no trend","n_measurements":21,"record_years":24.0},"geometry":{"type":"Point","coordinates":[-120.26562,36.4649]}},{"type":"Feature","properties":{"station_id":"364814N1201249W001","well_use":"Irrigation","slope_ft_per_yr":-1.062,"p_value":0.0,"trend":"decreasing","n_measurements":29,"record_years":23.9},"geometry":{"type":"Point","coordinates":[-120.12328,36.47328]}},{"type":"Feature","properties":{"station_id":"364875N1202246W001","well_use":"Irrigation","slope_ft_per_yr":-1.638,"p_value":0.012,"trend":"decreasing","n_measurements":22,"record_years":23.9},"geometry":{"type":"Point","coordinates":[-120.2246,36.48764]}},{"type":"Feature","properties":{"station_id":"364877N1201848W001","well_use":"Irrigation","slope_ft_per_yr":0.141,"p_value":0.9759,"trend":"no trend","n_measurements":21,"record_years":10.9},"geometry":{"type":"Point","coordinates":[-120.18475,36.4877]}},{"type":"Feature","properties":{"station_id":"364881N1201485W001","well_use":"Irrigation","slope_ft_per_yr":-0.77,"p_value":0.0307,"trend":"decreasing","n_measurements":24,"record_years":23.9},"geometry":{"type":"Point","coordinates":[-120.14685,36.48793]}},{"type":"Feature","properties":{"station_id":"364883N1202977W001","well_use":"Irrigation","slope_ft_per_yr":-6.694,"p_value":0.032,"trend":"decreasing","n_measurements":21,"record_years":22.9},"geometry":{"type":"Point","coordinates":[-120.2982,36.48701]}},{"type":"Feature","properties":{"station_id":"364944N1202338W001","well_use":"Irrigation","slope_ft_per_yr":-0.637,"p_value":0.1247,"trend":"no trend","n_measurements":30,"record_years":30.0},"geometry":{"type":"Point","coordinates":[-120.23433,36.49476]}},{"type":"Feature","properties":{"station_id":"364944N1203738W001","well_use":"Irrigation","slope_ft_per_yr":-3.658,"p_value":0.1492,"trend":"no trend","n_measurements":28,"record_years":29.3},"geometry":{"type":"Point","coordinates":[-120.40687,36.49438]}},{"type":"Feature","properties":{"station_id":"365000N1202432W001","well_use":"Irrigation","slope_ft_per_yr":-0.67,"p_value":0.1642,"trend":"no trend","n_measurements":21,"record_years":24.0},"geometry":{"type":"Point","coordinates":[-120.24338,36.5008]}},{"type":"Feature","properties":{"station_id":"365014N1203074W001","well_use":"Irrigation","slope_ft_per_yr":-7.656,"p_value":0.0037,"trend":"decreasing","n_measurements":22,"record_years":24.0},"geometry":{"type":"Point","coordinates":[-120.30728,36.50182]}},{"type":"Feature","properties":{"station_id":"365022N1202066W001","well_use":"Irrigation","slope_ft_per_yr":-0.127,"p_value":0.6016,"trend":"no trend","n_measurements":27,"record_years":23.9},"geometry":{"type":"Point","coordinates":[-120.20665,36.50219]}},{"type":"Feature","properties":{"station_id":"365039N1201882W001","well_use":"Irrigation","slope_ft_per_yr":-0.857,"p_value":0.0077,"trend":"decreasing","n_measurements":25,"record_years":23.9},"geometry":{"type":"Point","coordinates":[-120.1882,36.50344]}},{"type":"Feature","properties":{"station_id":"365082N1201338W001","well_use":"Irrigation","slope_ft_per_yr":-5.003,"p_value":0.0006,"trend":"decreasing","n_measurements":22,"record_years":24.9},"geometry":{"type":"Point","coordinates":[-120.13392,36.50862]}},{"type":"Feature","properties":{"station_id":"365089N1202616W001","well_use":"Irrigation","slope_ft_per_yr":-3.209,"p_value":0.1941,"trend":"no trend","n_measurements":21,"record_years":30.4},"geometry":{"type":"Point","coordinates":[-120.26163,36.50898]}},{"type":"Feature","properties":{"station_id":"365161N1202704W001","well_use":"Irrigation","slope_ft_per_yr":-2.8,"p_value":0.0031,"trend":"decreasing","n_measurements":23,"record_years":24.0},"geometry":{"type":"Point","coordinates":[-120.27004,36.51597]}},{"type":"Feature","properties":{"station_id":"365208N1203708W001","well_use":"Irrigation","slope_ft_per_yr":8.798,"p_value":0.0,"trend":"increasing","n_measurements":31,"record_years":14.9},"geometry":{"type":"Point","coordinates":[-120.37075,36.52247]}},{"type":"Feature","properties":{"station_id":"365231N1203679W001","well_use":"Irrigation","slope_ft_per_yr":12.53,"p_value":0.0003,"trend":"increasing","n_measurements":28,"record_years":10.9},"geometry":{"type":"Point","coordinates":[-120.36789,36.52312]}},{"type":"Feature","properties":{"station_id":"365311N1203810W001","well_use":"Irrigation","slope_ft_per_yr":-1.821,"p_value":0.3356,"trend":"no trend","n_measurements":47,"record_years":29.9},"geometry":{"type":"Point","coordinates":[-120.38064,36.53121]}},{"type":"Feature","properties":{"station_id":"365314N1202432W001","well_use":"Irrigation","slope_ft_per_yr":-2.272,"p_value":0.0016,"trend":"decreasing","n_measurements":20,"record_years":24.0},"geometry":{"type":"Point","coordinates":[-120.24313,36.53143]}},{"type":"Feature","properties":{"station_id":"365347N1202341W001","well_use":"Irrigation","slope_ft_per_yr":-0.563,"p_value":0.1025,"trend":"no trend","n_measurements":21,"record_years":24.0},"geometry":{"type":"Point","coordinates":[-120.23456,36.53452]}},{"type":"Feature","properties":{"station_id":"365372N1203885W001","well_use":"Irrigation","slope_ft_per_yr":-0.577,"p_value":0.1929,"trend":"no trend","n_measurements":52,"record_years":29.9},"geometry":{"type":"Point","coordinates":[-120.38862,36.53726]}},{"type":"Feature","properties":{"station_id":"365380N1203521W001","well_use":"Irrigation","slope_ft_per_yr":-0.07,"p_value":1.0,"trend":"no trend","n_measurements":25,"record_years":18.3},"geometry":{"type":"Point","coordinates":[-120.35214,36.53801]}},{"type":"Feature","properties":{"station_id":"365381N1202429W001","well_use":"Irrigation","slope_ft_per_yr":-1.242,"p_value":0.0272,"trend":"decreasing","n_measurements":21,"record_years":24.0},"geometry":{"type":"Point","coordinates":[-120.24331,36.53768]}},{"type":"Feature","properties":{"station_id":"365381N1204163W001","well_use":"Irrigation","slope_ft_per_yr":-4.2,"p_value":0.0017,"trend":"decreasing","n_measurements":29,"record_years":30.3},"geometry":{"type":"Point","coordinates":[-120.41662,36.53837]}},{"type":"Feature","properties":{"station_id":"365411N1203702W001","well_use":"Irrigation","slope_ft_per_yr":-5.185,"p_value":0.0072,"trend":"decreasing","n_measurements":25,"record_years":19.9},"geometry":{"type":"Point","coordinates":[-120.39735,36.54126]}},{"type":"Feature","properties":{"station_id":"365422N1202538W001","well_use":"Irrigation","slope_ft_per_yr":-2.386,"p_value":0.0003,"trend":"decreasing","n_measurements":22,"record_years":24.0},"geometry":{"type":"Point","coordinates":[-120.25304,36.54127]}},{"type":"Feature","properties":{"station_id":"365442N1204066W001","well_use":"Irrigation","slope_ft_per_yr":-5.927,"p_value":0.0039,"trend":"decreasing","n_measurements":20,"record_years":24.0},"geometry":{"type":"Point","coordinates":[-120.40685,36.54345]}},{"type":"Feature","properties":{"station_id":"365450N1203963W001","well_use":"Irrigation","slope_ft_per_yr":-1.168,"p_value":0.2356,"trend":"no trend","n_measurements":28,"record_years":23.9},"geometry":{"type":"Point","coordinates":[-120.39735,36.54488]}},{"type":"Feature","properties":{"station_id":"365451N1204614W001","well_use":"Irrigation","slope_ft_per_yr":-5.701,"p_value":0.1069,"trend":"no trend","n_measurements":24,"record_years":18.8},"geometry":{"type":"Point","coordinates":[-120.46142,36.5451]}},{"type":"Feature","properties":{"station_id":"365453N1202127W001","well_use":"Irrigation","slope_ft_per_yr":-2.1,"p_value":0.1489,"trend":"no trend","n_measurements":32,"record_years":27.4},"geometry":{"type":"Point","coordinates":[-120.21163,36.54539]}},{"type":"Feature","properties":{"station_id":"365456N1202804W001","well_use":"Irrigation","slope_ft_per_yr":-4.1,"p_value":0.0008,"trend":"decreasing","n_measurements":22,"record_years":24.0},"geometry":{"type":"Point","coordinates":[-120.2802,36.54505]}},{"type":"Feature","properties":{"station_id":"365456N1205738W001","well_use":"Irrigation","slope_ft_per_yr":-5.949,"p_value":0.0007,"trend":"decreasing","n_measurements":27,"record_years":23.9},"geometry":{"type":"Point","coordinates":[-120.40649,36.5456]}},{"type":"Feature","properties":{"station_id":"365522N1203518W001","well_use":"Irrigation","slope_ft_per_yr":-6.125,"p_value":0.0024,"trend":"decreasing","n_measurements":23,"record_years":24.0},"geometry":{"type":"Point","coordinates":[-120.3521,36.55245]}},{"type":"Feature","properties":{"station_id":"365528N1202704W001","well_use":"Irrigation","slope_ft_per_yr":-2.188,"p_value":0.0023,"trend":"decreasing","n_measurements":20,"record_years":24.0},"geometry":{"type":"Point","coordinates":[-120.27054,36.55244]}},{"type":"Feature","properties":{"station_id":"365594N1203066W001","well_use":"Irrigation","slope_ft_per_yr":-3.777,"p_value":0.0,"trend":"decreasing","n_measurements":21,"record_years":24.0},"geometry":{"type":"Point","coordinates":[-120.30708,36.55961]}},{"type":"Feature","properties":{"station_id":"365597N1202724W001","well_use":"Irrigation","slope_ft_per_yr":-2.66,"p_value":0.0007,"trend":"decreasing","n_measurements":20,"record_years":24.0},"geometry":{"type":"Point","coordinates":[-120.27221,36.55967]}},{"type":"Feature","properties":{"station_id":"365600N1203804W001","well_use":"Irrigation","slope_ft_per_yr":-3.633,"p_value":0.001,"trend":"decreasing","n_measurements":26,"record_years":20.9},"geometry":{"type":"Point","coordinates":[-120.37999,36.5598]}},{"type":"Feature","properties":{"station_id":"365622N1203796W001","well_use":"Irrigation","slope_ft_per_yr":-2.771,"p_value":0.015,"trend":"decreasing","n_measurements":23,"record_years":23.9},"geometry":{"type":"Point","coordinates":[-120.37962,36.56185]}},{"type":"Feature","properties":{"station_id":"365628N1203129W001","well_use":"Irrigation","slope_ft_per_yr":-3.858,"p_value":0.0038,"trend":"decreasing","n_measurements":20,"record_years":24.0},"geometry":{"type":"Point","coordinates":[-120.31584,36.56286]}},{"type":"Feature","properties":{"station_id":"365669N1204154W001","well_use":"Irrigation","slope_ft_per_yr":-8.157,"p_value":0.0,"trend":"decreasing","n_measurements":28,"record_years":23.9},"geometry":{"type":"Point","coordinates":[-120.41554,36.56698]}},{"type":"Feature","properties":{"station_id":"365675N1204252W001","well_use":"Irrigation","slope_ft_per_yr":5.399,"p_value":0.0007,"trend":"increasing","n_measurements":23,"record_years":30.4},"geometry":{"type":"Point","coordinates":[-120.42545,36.56752]}},{"type":"Feature","properties":{"station_id":"365739N1203252W001","well_use":"Irrigation","slope_ft_per_yr":-2.309,"p_value":0.0001,"trend":"decreasing","n_measurements":25,"record_years":24.0},"geometry":{"type":"Point","coordinates":[-120.32499,36.57403]}},{"type":"Feature","properties":{"station_id":"365742N1203077W001","well_use":"Irrigation","slope_ft_per_yr":-1.574,"p_value":0.0281,"trend":"decreasing","n_measurements":23,"record_years":24.0},"geometry":{"type":"Point","coordinates":[-120.30798,36.5742]}},{"type":"Feature","properties":{"station_id":"365750N1204966W001","well_use":"Irrigation","slope_ft_per_yr":0.418,"p_value":0.8349,"trend":"no trend","n_measurements":27,"record_years":29.4},"geometry":{"type":"Point","coordinates":[-120.49656,36.57501]}},{"type":"Feature","properties":{"station_id":"365856N1203521W001","well_use":"Irrigation","slope_ft_per_yr":-2.194,"p_value":0.0025,"trend":"decreasing","n_measurements":20,"record_years":24.0},"geometry":{"type":"Point","coordinates":[-120.35196,36.58503]}},{"type":"Feature","properties":{"station_id":"365881N1204963W001","well_use":"Irrigation","slope_ft_per_yr":1.21,"p_value":0.6944,"trend":"no trend","n_measurements":21,"record_years":23.9},"geometry":{"type":"Point","coordinates":[-120.4965,36.58763]}},{"type":"Feature","properties":{"station_id":"365883N1202888W001","well_use":"Irrigation","slope_ft_per_yr":-2.427,"p_value":0.055,"trend":"no trend","n_measurements":22,"record_years":23.9},"geometry":{"type":"Point","coordinates":[-120.28855,36.58847]}},{"type":"Feature","properties":{"station_id":"365883N1202893W001","well_use":"Irrigation","slope_ft_per_yr":-1.751,"p_value":0.0045,"trend":"decreasing","n_measurements":31,"record_years":23.9},"geometry":{"type":"Point","coordinates":[-120.29778,36.58895]}},{"type":"Feature","properties":{"station_id":"365889N1203238W001","well_use":"Irrigation","slope_ft_per_yr":-3.743,"p_value":0.0,"trend":"decreasing","n_measurements":26,"record_years":24.0},"geometry":{"type":"Point","coordinates":[-120.32425,36.5887]}},{"type":"Feature","properties":{"station_id":"365890N1204797W001","well_use":"Irrigation","slope_ft_per_yr":7.484,"p_value":0.0074,"trend":"increasing","n_measurements":30,"record_years":16.9},"geometry":{"type":"Point","coordinates":[-120.47968,36.58898]}},{"type":"Feature","properties":{"station_id":"365890N1204924W001","well_use":"Irrigation","slope_ft_per_yr":7.864,"p_value":0.001,"trend":"increasing","n_measurements":29,"record_years":13.9},"geometry":{"type":"Point","coordinates":[-120.49235,36.58903]}},{"type":"Feature","properties":{"station_id":"365892N1203857W001","well_use":"Irrigation","slope_ft_per_yr":-1.743,"p_value":0.0006,"trend":"decreasing","n_measurements":23,"record_years":24.0},"geometry":{"type":"Point","coordinates":[-120.38578,36.58907]}},{"type":"Feature","properties":{"station_id":"365892N1204243W001","well_use":"Irrigation","slope_ft_per_yr":-5.829,"p_value":0.0122,"trend":"decreasing","n_measurements":24,"record_years":30.4},"geometry":{"type":"Point","coordinates":[-120.42465,36.58912]}},{"type":"Feature","properties":{"station_id":"365897N1205143W001","well_use":"Irrigation","slope_ft_per_yr":-0.913,"p_value":0.8456,"trend":"no trend","n_measurements":20,"record_years":23.9},"geometry":{"type":"Point","coordinates":[-120.51447,36.58969]}},{"type":"Feature","properties":{"station_id":"365958N1203570W001","well_use":"Irrigation","slope_ft_per_yr":6.733,"p_value":0.0141,"trend":"increasing","n_measurements":22,"record_years":12.3},"geometry":{"type":"Point","coordinates":[-120.35702,36.59583]}},{"type":"Feature","properties":{"station_id":"366000N1203882W001","well_use":"Irrigation","slope_ft_per_yr":-0.387,"p_value":0.3028,"trend":"no trend","n_measurements":23,"record_years":24.0},"geometry":{"type":"Point","coordinates":[-120.38822,36.60819]}},{"type":"Feature","properties":{"station_id":"366022N1203168W001","well_use":"Irrigation","slope_ft_per_yr":-0.732,"p_value":0.1412,"trend":"no trend","n_measurements":25,"record_years":22.9},"geometry":{"type":"Point","coordinates":[-120.31616,36.60268]}},{"type":"Feature","properties":{"station_id":"366032N1202976W001","well_use":"Irrigation","slope_ft_per_yr":-2.762,"p_value":0.001,"trend":"decreasing","n_measurements":24,"record_years":15.6},"geometry":{"type":"Point","coordinates":[-120.29756,36.60311]}},{"type":"Feature","properties":{"station_id":"366033N1203338W001","well_use":"Irrigation","slope_ft_per_yr":-2.725,"p_value":0.0916,"trend":"no trend","n_measurements":24,"record_years":23.9},"geometry":{"type":"Point","coordinates":[-120.35197,36.60332]}},{"type":"Feature","properties":{"station_id":"366039N1204068W001","well_use":"Irrigation","slope_ft_per_yr":0.377,"p_value":0.0206,"trend":"increasing","n_measurements":22,"record_years":23.9},"geometry":{"type":"Point","coordinates":[-120.4063,36.60367]}},{"type":"Feature","properties":{"station_id":"366044N1205435W001","well_use":"Irrigation","slope_ft_per_yr":-3.326,"p_value":0.0156,"trend":"decreasing","n_measurements":27,"record_years":26.3},"geometry":{"type":"Point","coordinates":[-120.54342,36.60448]}},{"type":"Feature","properties":{"station_id":"366047N1205143W001","well_use":"Irrigation","slope_ft_per_yr":0.071,"p_value":0.9824,"trend":"no trend","n_measurements":26,"record_years":23.9},"geometry":{"type":"Point","coordinates":[-120.51445,36.60481]}},{"type":"Feature","properties":{"station_id":"366072N1203154W001","well_use":"Irrigation","slope_ft_per_yr":-0.889,"p_value":0.3897,"trend":"no trend","n_measurements":26,"record_years":23.9},"geometry":{"type":"Point","coordinates":[-120.3154,36.60678]}},{"type":"Feature","properties":{"station_id":"366180N1205330W001","well_use":"Observation","slope_ft_per_yr":0.149,"p_value":0.0017,"trend":"increasing","n_measurements":26,"record_years":14.0},"geometry":{"type":"Point","coordinates":[-120.53256,36.61847]}},{"type":"Feature","properties":{"station_id":"366190N1205330W001","well_use":"Observation","slope_ft_per_yr":-1.681,"p_value":0.0,"trend":"decreasing","n_measurements":40,"record_years":21.0},"geometry":{"type":"Point","coordinates":[-120.53256,36.6185]}},{"type":"Feature","properties":{"station_id":"366222N1203424W001","well_use":"Irrigation","slope_ft_per_yr":-0.57,"p_value":0.0234,"trend":"decreasing","n_measurements":30,"record_years":30.5},"geometry":{"type":"Point","coordinates":[-120.3427,36.62312]}},{"type":"Feature","properties":{"station_id":"366244N1203427W001","well_use":"Irrigation","slope_ft_per_yr":0.278,"p_value":0.0724,"trend":"no trend","n_measurements":21,"record_years":21.9},"geometry":{"type":"Point","coordinates":[-120.3427,36.62312]}},{"type":"Feature","properties":{"station_id":"366261N1205310W001","well_use":"Irrigation","slope_ft_per_yr":-1.383,"p_value":0.487,"trend":"no trend","n_measurements":21,"record_years":23.9},"geometry":{"type":"Point","coordinates":[-120.53138,36.6255]}},{"type":"Feature","properties":{"station_id":"366272N1205532W001","well_use":"Irrigation","slope_ft_per_yr":-0.407,"p_value":0.3648,"trend":"no trend","n_measurements":21,"record_years":23.0},"geometry":{"type":"Point","coordinates":[-120.38703,36.62701]}},{"type":"Feature","properties":{"station_id":"366328N1203604W001","well_use":"Irrigation","slope_ft_per_yr":-0.069,"p_value":0.8212,"trend":"no trend","n_measurements":22,"record_years":24.0},"geometry":{"type":"Point","coordinates":[-120.36058,36.63273]}},{"type":"Feature","properties":{"station_id":"366328N1203793W001","well_use":"Irrigation","slope_ft_per_yr":-0.156,"p_value":0.6571,"trend":"no trend","n_measurements":25,"record_years":24.0},"geometry":{"type":"Point","coordinates":[-120.37888,36.63268]}},{"type":"Feature","properties":{"station_id":"366328N1206204W001","well_use":"Irrigation","slope_ft_per_yr":-5.649,"p_value":0.0001,"trend":"decreasing","n_measurements":21,"record_years":29.3},"geometry":{"type":"Point","coordinates":[-120.61508,36.62694]}},{"type":"Feature","properties":{"station_id":"366400N1203788W001","well_use":"Irrigation","slope_ft_per_yr":-0.62,"p_value":0.1443,"trend":"no trend","n_measurements":20,"record_years":24.0},"geometry":{"type":"Point","coordinates":[-120.37877,36.63983]}},{"type":"Feature","properties":{"station_id":"366420N1206250W001","well_use":"Observation","slope_ft_per_yr":-0.589,"p_value":0.0603,"trend":"no trend","n_measurements":23,"record_years":12.1},"geometry":{"type":"Point","coordinates":[-120.62549,36.64166]}},{"type":"Feature","properties":{"station_id":"366420N1206260W001","well_use":"Observation","slope_ft_per_yr":-0.56,"p_value":0.1385,"trend":"no trend","n_measurements":23,"record_years":12.1},"geometry":{"type":"Point","coordinates":[-120.62555,36.64183]}},{"type":"Feature","properties":{"station_id":"366422N1204604W001","well_use":"Irrigation","slope_ft_per_yr":-0.631,"p_value":0.3689,"trend":"no trend","n_measurements":23,"record_years":23.4},"geometry":{"type":"Point","coordinates":[-120.46004,36.64207]}},{"type":"Feature","properties":{"station_id":"366467N1204243W001","well_use":"Irrigation","slope_ft_per_yr":-1.608,"p_value":0.1267,"trend":"no trend","n_measurements":34,"record_years":27.3},"geometry":{"type":"Point","coordinates":[-120.42445,36.64697]}},{"type":"Feature","properties":{"station_id":"366470N1205230W003","well_use":"Observation","slope_ft_per_yr":-6.846,"p_value":0.0,"trend":"decreasing","n_measurements":24,"record_years":13.1},"geometry":{"type":"Point","coordinates":[-120.52295,36.64709]}},{"type":"Feature","properties":{"station_id":"366481N1204871W001","well_use":"Irrigation","slope_ft_per_yr":-2.551,"p_value":0.2205,"trend":"no trend","n_measurements":28,"record_years":24.0},"geometry":{"type":"Point","coordinates":[-120.48722,36.64831]}},{"type":"Feature","properties":{"station_id":"366494N1205321W001","well_use":"Irrigation","slope_ft_per_yr":-2.863,"p_value":0.1625,"trend":"no trend","n_measurements":20,"record_years":23.9},"geometry":{"type":"Point","coordinates":[-120.53203,36.64936]}},{"type":"Feature","properties":{"station_id":"366544N1204516W001","well_use":"Irrigation","slope_ft_per_yr":0.318,"p_value":0.748,"trend":"no trend","n_measurements":30,"record_years":23.9},"geometry":{"type":"Point","coordinates":[-120.45151,36.65456]}},{"type":"Feature","properties":{"station_id":"366544N1204960W001","well_use":"Irrigation","slope_ft_per_yr":-5.143,"p_value":0.041,"trend":"decreasing","n_measurements":20,"record_years":25.3},"geometry":{"type":"Point","coordinates":[-120.49607,36.65433]}},{"type":"Feature","properties":{"station_id":"366560N1205790W001","well_use":"Observation","slope_ft_per_yr":-4.509,"p_value":0.0001,"trend":"decreasing","n_measurements":27,"record_years":14.0},"geometry":{"type":"Point","coordinates":[-120.57873,36.65629]}},{"type":"Feature","properties":{"station_id":"366560N1205790W002","well_use":"Observation","slope_ft_per_yr":-0.949,"p_value":0.0,"trend":"decreasing","n_measurements":38,"record_years":21.0},"geometry":{"type":"Point","coordinates":[-120.57873,36.65638]}},{"type":"Feature","properties":{"station_id":"366603N1205138W001","well_use":"Irrigation","slope_ft_per_yr":-1.5,"p_value":0.2901,"trend":"no trend","n_measurements":21,"record_years":23.0},"geometry":{"type":"Point","coordinates":[-120.51397,36.66028]}},{"type":"Feature","properties":{"station_id":"366617N1204060W001","well_use":"Irrigation","slope_ft_per_yr":-4.019,"p_value":0.0025,"trend":"decreasing","n_measurements":29,"record_years":24.0},"geometry":{"type":"Point","coordinates":[-120.40587,36.66198]}},{"type":"Feature","properties":{"station_id":"366617N1206349W001","well_use":"Irrigation","slope_ft_per_yr":-0.983,"p_value":0.0023,"trend":"decreasing","n_measurements":26,"record_years":24.0},"geometry":{"type":"Point","coordinates":[-120.38502,36.66186]}},{"type":"Feature","properties":{"station_id":"366625N1206118W001","well_use":"Irrigation","slope_ft_per_yr":-0.199,"p_value":0.694,"trend":"no trend","n_measurements":21,"record_years":24.0},"geometry":{"type":"Point","coordinates":[-120.61268,36.66261]}},{"type":"Feature","properties":{"station_id":"366644N1205318W001","well_use":"Irrigation","slope_ft_per_yr":-2.685,"p_value":0.0081,"trend":"decreasing","n_measurements":27,"record_years":23.0},"geometry":{"type":"Point","coordinates":[-120.53193,36.66438]}},{"type":"Feature","properties":{"station_id":"366647N1203691W001","well_use":"Irrigation","slope_ft_per_yr":-1.219,"p_value":0.6947,"trend":"no trend","n_measurements":30,"record_years":30.4},"geometry":{"type":"Point","coordinates":[-120.36908,36.66479]}},{"type":"Feature","properties":{"station_id":"366667N1206227W001","well_use":"Irrigation","slope_ft_per_yr":-2.029,"p_value":0.2906,"trend":"no trend","n_measurements":21,"record_years":28.4},"geometry":{"type":"Point","coordinates":[-120.62222,36.66652]}},{"type":"Feature","properties":{"station_id":"366670N1205500W001","well_use":"Observation","slope_ft_per_yr":-0.68,"p_value":0.0,"trend":"decreasing","n_measurements":24,"record_years":13.1},"geometry":{"type":"Point","coordinates":[-120.54988,36.66711]}},{"type":"Feature","properties":{"station_id":"366842N1205141W001","well_use":"Irrigation","slope_ft_per_yr":-3.348,"p_value":0.041,"trend":"decreasing","n_measurements":20,"record_years":23.0},"geometry":{"type":"Point","coordinates":[-120.51382,36.68369]}},{"type":"Feature","properties":{"station_id":"366844N1205863W001","well_use":"Irrigation","slope_ft_per_yr":0.801,"p_value":0.2966,"trend":"no trend","n_measurements":22,"record_years":23.0},"geometry":{"type":"Point","coordinates":[-120.58626,36.68409]}},{"type":"Feature","properties":{"station_id":"366869N1204960W001","well_use":"Irrigation","slope_ft_per_yr":-5.205,"p_value":0.0002,"trend":"decreasing","n_measurements":26,"record_years":24.0},"geometry":{"type":"Point","coordinates":[-120.49572,36.6867]}},{"type":"Feature","properties":{"station_id":"366906N1203604W001","well_use":"Irrigation","slope_ft_per_yr":-0.935,"p_value":0.0303,"trend":"decreasing","n_measurements":39,"record_years":30.4},"geometry":{"type":"Point","coordinates":[-120.36034,36.69083]}},{"type":"Feature","properties":{"station_id":"366910N1205130W002","well_use":"Observation","slope_ft_per_yr":-0.654,"p_value":0.0005,"trend":"decreasing","n_measurements":20,"record_years":10.6},"geometry":{"type":"Point","coordinates":[-120.51298,36.69105]}},{"type":"Feature","properties":{"station_id":"366910N1205130W003","well_use":"Observation","slope_ft_per_yr":-1.003,"p_value":0.0,"trend":"decreasing","n_measurements":20,"record_years":10.6},"geometry":{"type":"Point","coordinates":[-120.51272,36.69105]}},{"type":"Feature","properties":{"station_id":"366910N1205130W004","well_use":"Observation","slope_ft_per_yr":-0.598,"p_value":0.0025,"trend":"decreasing","n_measurements":20,"record_years":11.6},"geometry":{"type":"Point","coordinates":[-120.51311,36.69106]}},{"type":"Feature","properties":{"station_id":"366910N1205130W005","well_use":"Observation","slope_ft_per_yr":-1.429,"p_value":0.0001,"trend":"decreasing","n_measurements":20,"record_years":11.6},"geometry":{"type":"Point","coordinates":[-120.51285,36.69104]}},{"type":"Feature","properties":{"station_id":"366910N1205130W006","well_use":"Observation","slope_ft_per_yr":-4.09,"p_value":0.3853,"trend":"no trend","n_measurements":24,"record_years":13.1},"geometry":{"type":"Point","coordinates":[-120.51343,36.69105]}},{"type":"Feature","properties":{"station_id":"367000N1205316W001","well_use":"Irrigation","slope_ft_per_yr":0.463,"p_value":0.6341,"trend":"no trend","n_measurements":31,"record_years":30.3},"geometry":{"type":"Point","coordinates":[-120.53161,36.70013]}},{"type":"Feature","properties":{"station_id":"367050N1205324W001","well_use":"Irrigation","slope_ft_per_yr":-2.633,"p_value":0.0034,"trend":"decreasing","n_measurements":28,"record_years":23.9},"geometry":{"type":"Point","coordinates":[-120.53247,36.70502]}},{"type":"Feature","properties":{"station_id":"367133N1206035W001","well_use":"Irrigation","slope_ft_per_yr":-2.82,"p_value":0.1849,"trend":"no trend","n_measurements":22,"record_years":24.0},"geometry":{"type":"Point","coordinates":[-120.60338,36.72252]}},{"type":"Feature","properties":{"station_id":"367200N1205091W001","well_use":"Irrigation","slope_ft_per_yr":-4.097,"p_value":0.0068,"trend":"decreasing","n_measurements":32,"record_years":30.3},"geometry":{"type":"Point","coordinates":[-120.50911,36.72006]}},{"type":"Feature","properties":{"station_id":"367203N1204227W001","well_use":"Irrigation","slope_ft_per_yr":-5.459,"p_value":0.0,"trend":"decreasing","n_measurements":22,"record_years":22.9},"geometry":{"type":"Point","coordinates":[-120.42307,36.72029]}},{"type":"Feature","properties":{"station_id":"367292N1206021W001","well_use":"Irrigation","slope_ft_per_yr":-4.293,"p_value":0.0007,"trend":"decreasing","n_measurements":20,"record_years":23.9},"geometry":{"type":"Point","coordinates":[-120.60148,36.72925]}},{"type":"Feature","properties":{"station_id":"367353N1205946W001","well_use":"Irrigation","slope_ft_per_yr":-1.463,"p_value":0.0857,"trend":"no trend","n_measurements":41,"record_years":30.4},"geometry":{"type":"Point","coordinates":[-120.59483,36.73504]}},{"type":"Feature","properties":{"station_id":"367550N1204671W001","well_use":"Irrigation","slope_ft_per_yr":-6.427,"p_value":0.0001,"trend":"decreasing","n_measurements":30,"record_years":25.3},"geometry":{"type":"Point","coordinates":[-120.4683,36.75488]}},{"type":"Feature","properties":{"station_id":"367633N1204593W001","well_use":"Irrigation","slope_ft_per_yr":-3.906,"p_value":0.0,"trend":"decreasing","n_measurements":28,"record_years":24.0},"geometry":{"type":"Point","coordinates":[-120.45853,36.76374]}},{"type":"Feature","properties":{"station_id":"367706N1204502W001","well_use":"Irrigation","slope_ft_per_yr":0.096,"p_value":0.823,"trend":"no trend","n_measurements":24,"record_years":24.0},"geometry":{"type":"Point","coordinates":[-120.45011,36.77074]}},{"type":"Feature","properties":{"station_id":"367708N1204591W001","well_use":"Irrigation","slope_ft_per_yr":0.726,"p_value":0.1462,"trend":"no trend","n_measurements":21,"record_years":24.0},"geometry":{"type":"Point","coordinates":[-120.45911,36.77068]}},{"type":"Feature","properties":{"station_id":"367779N1205490W001","well_use":"Observation","slope_ft_per_yr":-0.609,"p_value":0.0012,"trend":"decreasing","n_measurements":21,"record_years":12.6},"geometry":{"type":"Point","coordinates":[-120.5513,36.7762]}},{"type":"Feature","properties":{"station_id":"367779N1205490W002","well_use":"Observation","slope_ft_per_yr":-0.592,"p_value":0.0,"trend":"decreasing","n_measurements":21,"record_years":12.6},"geometry":{"type":"Point","coordinates":[-120.54903,36.77788]}},{"type":"Feature","properties":{"station_id":"367999N1205629W001","well_use":"Unknown","slope_ft_per_yr":-1.177,"p_value":0.4128,"trend":"no trend","n_measurements":23,"record_years":17.5},"geometry":{"type":"Point","coordinates":[-120.5629,36.7999]}}]}