{"type":"FeatureCollection","features":[{"type":"Feature","properties":{"pwsid":"CA1000054","pws_name":"LAS DELTAS MUTUAL WATER COMPANY","pop_served":375,"connections":75,"geom_type":"polygon","sgti_ft_per_yr":-0.197,"n_wells_used":3,"n_wells_significant":1,"vuln_rank":3,"radius_m":2000},"geometry":{"type":"MultiPolygon","coordinates":[[[[-120.44046,36.79671],[-120.44486,36.79969],[-120.44041,36.79968],[-120.44036,36.80341],[-120.44152,36.80348],[-120.4415,36.80441],[-120.4413,36.80441],[-120.44134,36.80534],[-120.44031,36.80533],[-120.44029,36.80695],[-120.44119,36.80696],[-120.44118,36.80661],[-120.44474,36.80656],[-120.44474,36.80695],[-120.4455,36.80695],[-120.44548,36.80661],[-120.44628,36.80659],[-120.44629,36.80695],[-120.44928,36.80694],[-120.44928,36.80656],[-120.4501,36.80657],[-120.45012,36.80694],[-120.45329,36.80695],[-120.45331,36.80545],[-120.45833,36.80884],[-120.4585,36.80975],[-120.45959,36.80975],[-120.46058,36.8106],[-120.45848,36.8106],[-120.45832,36.8115],[-120.4598,36.81152],[-120.45978,36.81268],[-120.45842,36.81268],[-120.4584,36.81433],[-120.46473,36.8143],[-120.46731,36.81781],[-120.45834,36.81792],[-120.45831,36.81266],[-120.45746,36.81164],[-120.45652,36.81167],[-120.45654,36.8106],[-120.44282,36.81053],[-120.43404,36.81065],[-120.43409,36.80714],[-120.4296,36.80718],[-120.43227,36.80949],[-120.42689,36.80953],[-120.42092,36.8027],[-120.42708,36.80255],[-120.4281,36.80549],[-120.42874,36.80645],[-120.42705,36.80125],[-120.42594,36.79946],[-120.42533,36.79865],[-120.42451,36.79794],[-120.42225,36.79688],[-120.42228,36.79429],[-120.43722,36.80699],[-120.4399,36.80701],[-120.44021,36.79964],[-120.43127,36.79968],[-120.43124,36.79617],[-120.44044,36.79608],[-120.44041,36.79328],[-120.439,36.79334],[-120.43894,36.79256],[-120.43403,36.79264],[-120.43383,36.79324],[-120.43331,36.79325],[-120.43277,36.79318],[-120.43241,36.79265],[-120.42353,36.79272],[-120.42357,36.79365],[-120.42263,36.79427],[-120.42083,36.79274],[-120.42084,36.79253],[-120.42651,36.7925],[-120.42715,36.79198],[-120.42806,36.79196],[-120.42871,36.79249],[-120.43202,36.79247],[-120.43201,36.78966],[-120.43455,36.79176],[-120.43455,36.79246],[-120.4403,36.7924],[-120.44081,36.77927],[-120.44172,36.78212],[-120.44495,36.78583],[-120.44999,36.79099],[-120.45379,36.79245],[-120.45841,36.79248],[-120.45809,36.80859],[-120.4436,36.79872],[-120.44046,36.79671]]],[[[-120.43997,36.81057],[-120.43999,36.82173],[-120.44002,36.82481],[-120.43511,36.81916],[-120.43973,36.8192],[-120.43987,36.81534],[-120.43699,36.81552],[-120.43693,36.81433],[-120.43992,36.81405],[-120.43997,36.81057]]]]}},{"type":"Feature","properties":{"pwsid":"CA1010030","pws_name":"TRANQUILLITY IRRIGATION DISTRICT","pop_served":807,"connections":340,"geom_type":"polygon","sgti_ft_per_yr":3.091,"n_wells_used":5,"n_wells_significant":3,"vuln_rank":9,"radius_m":2000},"geometry":{"type":"Polygon","coordinates":[[[-120.30308,36.6393],[-120.30073,36.64616],[-120.30062,36.65315],[-120.30121,36.6543],[-120.29778,36.66132],[-120.29756,36.66132],[-120.29756,36.66869],[-120.28811,36.66866],[-120.28731,36.66885],[-120.28694,36.67061],[-120.28533,36.67377],[-120.27438,36.67712],[-120.27374,36.67702],[-120.2735,36.67674],[-120.27327,36.67565],[-120.27295,36.67214],[-120.2724,36.67182],[-120.27225,36.67139],[-120.27137,36.67137],[-120.27007,36.67062],[-120.26612,36.66904],[-120.26422,36.66867],[-120.26324,36.6686],[-120.2626,36.66894],[-120.2619,36.6691],[-120.26138,36.669],[-120.26108,36.66878],[-120.25895,36.66828],[-120.25797,36.66839],[-120.25758,36.66904],[-120.25705,36.66902],[-120.25694,36.66884],[-120.25724,36.66731],[-120.25695,36.66721],[-120.2568,36.6669],[-120.25689,36.66664],[-120.25767,36.66633],[-120.25772,36.66613],[-120.25532,36.66461],[-120.25333,36.66407],[-120.25238,36.66357],[-120.24829,36.66111],[-120.24356,36.65752],[-120.24109,36.6561],[-120.23992,36.65315],[-120.23679,36.65128],[-120.235,36.64642],[-120.23469,36.64613],[-120.23377,36.64418],[-120.23131,36.63745],[-120.23021,36.63371],[-120.2276,36.62679],[-120.22757,36.62587],[-120.22709,36.62424],[-120.22454,36.61722],[-120.22525,36.61722],[-120.22534,36.60259],[-120.25473,36.60262],[-120.26196,36.58984],[-120.25975,36.5882],[-120.26133,36.5882],[-120.27955,36.60272],[-120.27958,36.61054],[-120.28427,36.61755],[-120.29769,36.61758],[-120.29769,36.62812],[-120.30141,36.62941],[-120.30256,36.63189],[-120.30384,36.63341],[-120.30414,36.63401],[-120.30308,36.6393]]]}},{"type":"Feature","properties":{"pwsid":"CA2000512","pws_name":"EAST ACRES MUTUAL WATER COMPANY","pop_served":250,"connections":85,"geom_type":"polygon","sgti_ft_per_yr":-0.379,"n_wells_used":4,"n_wells_significant":3,"vuln_rank":2,"radius_m":2000},"geometry":{"type":"Polygon","coordinates":[[[-120.43903,36.85573],[-120.44254,36.85823],[-120.43447,36.85828],[-120.43457,36.85408],[-120.43519,36.8526],[-120.43576,36.85267],[-120.43608,36.85229],[-120.43651,36.85318],[-120.43903,36.85573]]]}},{"type":"Feature","properties":{"pwsid":"CA2000800","pws_name":"MARQUEZ RENTAL","pop_served":50,"connections":22,"geom_type":"polygon","sgti_ft_per_yr":null,"n_wells_used":null,"n_wells_significant":null,"vuln_rank":null,"radius_m":null},"geometry":{"type":"Polygon","coordinates":[[[-120.42143,36.85827],[-120.41786,36.85835],[-120.4179,36.85618],[-120.41991,36.8562],[-120.42143,36.85827]]]}},{"type":"Feature","properties":{"pwsid":"CA2400201","pws_name":"VOLTA COMMUNITY SD","pop_served":406,"connections":44,"geom_type":"polygon","sgti_ft_per_yr":-0.171,"n_wells_used":8,"n_wells_significant":3,"vuln_rank":5,"radius_m":2000},"geometry":{"type":"Polygon","coordinates":[[[-120.92994,37.09434],[-120.92835,37.09649],[-120.92893,37.09675],[-120.92868,37.09711],[-120.93328,37.09921],[-120.93411,37.09811],[-120.934,37.10004],[-120.92545,37.10001],[-120.92567,37.09194],[-120.92956,37.09201],[-120.92845,37.09363],[-120.92994,37.09434]]]}},{"type":"Feature","properties":{"pwsid":"CA3901031","pws_name":"132 INVESTMENTS WATER SYSTEM","pop_served":252,"connections":93,"geom_type":"polygon","sgti_ft_per_yr":null,"n_wells_used":null,"n_wells_significant":null,"vuln_rank":null,"radius_m":null},"geometry":{"type":"Polygon","coordinates":[[[-121.27822,37.63839],[-121.2749,37.64103],[-121.26957,37.64527],[-121.26954,37.642],[-121.27054,37.64201],[-121.27054,37.64078],[-121.27353,37.6384],[-121.27822,37.63839]]]}},{"type":"Feature","properties":{"pwsid":"CA5000005","pws_name":"CROWS LANDING COMM SVC DISTRICT","pop_served":500,"connections":138,"geom_type":"polygon","sgti_ft_per_yr":-0.762,"n_wells_used":2,"n_wells_significant":2,"vuln_rank":1,"radius_m":2000},"geometry":{"type":"Polygon","coordinates":[[[-121.07433,37.39941],[-121.0722,37.39661],[-121.07208,37.39667],[-121.07086,37.39517],[-121.06708,37.39712],[-121.06677,37.39664],[-121.07065,37.39459],[-121.06838,37.39162],[-121.06737,37.39162],[-121.06738,37.39221],[-121.06603,37.3922],[-121.06604,37.3919],[-121.06384,37.39188],[-121.06361,37.39148],[-121.06697,37.39149],[-121.06713,37.38826],[-121.0675,37.38867],[-121.06898,37.38877],[-121.07087,37.39107],[-121.07231,37.39106],[-121.07232,37.39148],[-121.08268,37.39147],[-121.08267,37.39206],[-121.08231,37.39206],[-121.0823,37.39164],[-121.08216,37.39163],[-121.08214,37.39206],[-121.07763,37.39207],[-121.07762,37.39387],[-121.07655,37.39385],[-121.07656,37.3933],[-121.07637,37.39338],[-121.07636,37.39379],[-121.07387,37.39505],[-121.07464,37.39611],[-121.07418,37.39636],[-121.07518,37.39753],[-121.07558,37.39854],[-121.07622,37.39941],[-121.07433,37.39941]]]}},{"type":"Feature","properties":{"pwsid":"CA5000058","pws_name":"FISHERMAN'S BEND MHP","pop_served":120,"connections":66,"geom_type":"polygon","sgti_ft_per_yr":-0.171,"n_wells_used":2,"n_wells_significant":1,"vuln_rank":4,"radius_m":2000},"geometry":{"type":"Polygon","coordinates":[[[-120.9817,37.35234],[-120.98309,37.3548],[-120.98272,37.35494],[-120.98231,37.35434],[-120.97879,37.35579],[-120.97774,37.35423],[-120.9817,37.35234]]]}},{"type":"Feature","properties":{"pwsid":"CA5000061","pws_name":"MARTIN'S MOBILE HOME COURT","pop_served":60,"connections":20,"geom_type":"polygon","sgti_ft_per_yr":-0.149,"n_wells_used":2,"n_wells_significant":1,"vuln_rank":6,"radius_m":2000},"geometry":{"type":"Polygon","coordinates":[[[-120.98415,37.3567],[-120.98333,37.35697],[-120.98269,37.35601],[-120.98316,37.35585],[-120.98296,37.35548],[-120.98341,37.35536],[-120.98415,37.3567]]]}},{"type":"Feature","properties":{"pwsid":"CA5000297","pws_name":"BUEHNER HOUSES","pop_served":25,"connections":13,"geom_type":"polygon","sgti_ft_per_yr":null,"n_wells_used":null,"n_wells_significant":null,"vuln_rank":null,"radius_m":null},"geometry":{"type":"Polygon","coordinates":[[[-121.23855,37.62278],[-121.23725,37.62361],[-121.23626,37.62272],[-121.23744,37.62177],[-121.23855,37.62278]]]}},{"type":"Feature","properties":{"pwsid":"CA5000313","pws_name":"BUEHNER WATER SYSTEM","pop_served":150,"connections":36,"geom_type":"polygon","sgti_ft_per_yr":-0.143,"n_wells_used":1,"n_wells_significant":1,"vuln_rank":7,"radius_m":2000},"geometry":{"type":"Polygon","coordinates":[[[-121.04648,37.4521],[-121.04566,37.45225],[-121.04547,37.4519],[-121.0461,37.45159],[-121.04648,37.4521]]]}},{"type":"Feature","properties":{"pwsid":"CA5000408","pws_name":"WESTLEY CSD","pop_served":70,"connections":35,"geom_type":"polygon","sgti_ft_per_yr":null,"n_wells_used":null,"n_wells_significant":null,"vuln_rank":null,"radius_m":null},"geometry":{"type":"Polygon","coordinates":[[[-121.20092,37.55141],[-121.19573,37.54666],[-121.19928,37.54386],[-121.20037,37.54484],[-121.19962,37.54542],[-121.20359,37.54919],[-121.20092,37.55141]]]}},{"type":"Feature","properties":{"pwsid":"CA5010007","pws_name":"HILLSVIEW HOMES","pop_served":887,"connections":230,"geom_type":"polygon","sgti_ft_per_yr":1.523,"n_wells_used":1,"n_wells_significant":1,"vuln_rank":8,"radius_m":2000},"geometry":{"type":"Polygon","coordinates":[[[-121.21031,37.54391],[-121.20737,37.54623],[-121.2052,37.54448],[-121.2039,37.54551],[-121.20316,37.54492],[-121.20094,37.54667],[-121.19958,37.54542],[-121.20033,37.54483],[-121.19933,37.54392],[-121.20449,37.53975],[-121.20449,37.54391],[-121.21031,37.54391]]]}},{"type":"Feature","properties":{"pwsid":"CA5010033","pws_name":"CITY OF MODESTO - GRAYSON","pop_served":914,"connections":278,"geom_type":"polygon","sgti_ft_per_yr":null,"n_wells_used":null,"n_wells_significant":null,"vuln_rank":null,"radius_m":null},"geometry":{"type":"Polygon","coordinates":[[[-121.18027,37.55872],[-121.18232,37.56347],[-121.18323,37.56513],[-121.1861,37.567],[-121.17886,37.56902],[-121.17769,37.56668],[-121.17711,37.56616],[-121.17681,37.56551],[-121.17688,37.56429],[-121.17663,37.56349],[-121.17621,37.56277],[-121.17572,37.56234],[-121.18027,37.55872]]]}}]}