{"type":"FeatureCollection","features":[{"type":"Feature","properties":{"station_id":"366000N1202300W001","well_use":"Irrigation","slope_ft_per_yr":-0.174,"p_value":0.3509,"trend":"no trend","n_measurements":163,"record_years":18.1},"geometry":{"type":"Point","coordinates":[-120.23201,36.60276]}},{"type":"Feature","properties":{"station_id":"366430N1202404W001","well_use":"Observation","slope_ft_per_yr":8.429,"p_value":0.0,"trend":"increasing","n_measurements":67,"record_years":11.2},"geometry":{"type":"Point","coordinates":[-120.26784,36.67579]}},{"type":"Feature","properties":{"station_id":"366500N1202500W001","well_use":"Irrigation","slope_ft_per_yr":0.92,"p_value":0.0001,"trend":"increasing","n_measurements":164,"record_years":18.1},"geometry":{"type":"Point","coordinates":[-120.25,36.65]}},{"type":"Feature","properties":{"station_id":"366758N1202678W001","well_use":"Observation","slope_ft_per_yr":7.609,"p_value":0.0,"trend":"increasing","n_measurements":67,"record_years":11.2},"geometry":{"type":"Point","coordinates":[-120.2405,36.64294]}},{"type":"Feature","properties":{"station_id":"366857N1202799W003","well_use":"Unknown","slope_ft_per_yr":1.133,"p_value":0.1919,"trend":"no trend","n_measurements":28,"record_years":23.5},"geometry":{"type":"Point","coordinates":[-120.2799,36.6857]}},{"type":"Feature","properties":{"station_id":"367334N1203792W001","well_use":"Unknown","slope_ft_per_yr":-0.317,"p_value":0.0,"trend":"decreasing","n_measurements":140,"record_years":26.7},"geometry":{"type":"Point","coordinates":[-120.37915,36.7334]}},{"type":"Feature","properties":{"station_id":"367496N1203198W001","well_use":"Observation","slope_ft_per_yr":0.174,"p_value":0.1502,"trend":"no trend","n_measurements":59,"record_years":30.6},"geometry":{"type":"Point","coordinates":[-120.31976,36.74963]}},{"type":"Feature","properties":{"station_id":"367552N1203732W002","well_use":"Observation","slope_ft_per_yr":-2.805,"p_value":0.0,"trend":"decreasing","n_measurements":206,"record_years":31.3},"geometry":{"type":"Point","coordinates":[-120.3732,36.75517]}},{"type":"Feature","properties":{"station_id":"367705N1203029W001","well_use":"Unknown","slope_ft_per_yr":-1.603,"p_value":0.0473,"trend":"decreasing","n_measurements":26,"record_years":24.1},"geometry":{"type":"Point","coordinates":[-120.3029,36.7705]}},{"type":"Feature","properties":{"station_id":"367710N1203371W001","well_use":"Unknown","slope_ft_per_yr":-0.819,"p_value":0.0052,"trend":"decreasing","n_measurements":29,"record_years":23.4},"geometry":{"type":"Point","coordinates":[-120.3371,36.771]}},{"type":"Feature","properties":{"station_id":"367726N1203145W001","well_use":"Irrigation","slope_ft_per_yr":0.288,"p_value":0.2713,"trend":"no trend","n_measurements":121,"record_years":29.0},"geometry":{"type":"Point","coordinates":[-120.31451,36.77263]}},{"type":"Feature","properties":{"station_id":"367730N1203049W001","well_use":"Unknown","slope_ft_per_yr":-0.604,"p_value":0.2973,"trend":"no trend","n_measurements":27,"record_years":24.1},"geometry":{"type":"Point","coordinates":[-120.3049,36.773]}},{"type":"Feature","properties":{"station_id":"367730N1203623W001","well_use":"Irrigation","slope_ft_per_yr":0.347,"p_value":0.1139,"trend":"no trend","n_measurements":154,"record_years":30.8},"geometry":{"type":"Point","coordinates":[-120.36233,36.77304]}},{"type":"Feature","properties":{"station_id":"367738N1202877W001","well_use":"Unknown","slope_ft_per_yr":-0.615,"p_value":0.2603,"trend":"no trend","n_measurements":27,"record_years":24.1},"geometry":{"type":"Point","coordinates":[-120.2877,36.7738]}},{"type":"Feature","properties":{"station_id":"367755N1202599W001","well_use":"Irrigation","slope_ft_per_yr":-1.3,"p_value":0.0249,"trend":"decreasing","n_measurements":42,"record_years":31.4},"geometry":{"type":"Point","coordinates":[-120.2593,36.77614]}},{"type":"Feature","properties":{"station_id":"367755N1202654W001","well_use":"Unknown","slope_ft_per_yr":-1.225,"p_value":0.1229,"trend":"no trend","n_measurements":26,"record_years":24.1},"geometry":{"type":"Point","coordinates":[-120.2654,36.7755]}},{"type":"Feature","properties":{"station_id":"367768N1203024W001","well_use":"Unknown","slope_ft_per_yr":-2.392,"p_value":0.0016,"trend":"decreasing","n_measurements":29,"record_years":24.1},"geometry":{"type":"Point","coordinates":[-120.3024,36.7768]}},{"type":"Feature","properties":{"station_id":"367768N1203232W001","well_use":"Unknown","slope_ft_per_yr":-1.384,"p_value":0.0478,"trend":"decreasing","n_measurements":20,"record_years":21.0},"geometry":{"type":"Point","coordinates":[-120.3232,36.7768]}},{"type":"Feature","properties":{"station_id":"367805N1203718W001","well_use":"Unknown","slope_ft_per_yr":-0.872,"p_value":0.1232,"trend":"no trend","n_measurements":28,"record_years":24.1},"geometry":{"type":"Point","coordinates":[-120.3718,36.7805]}},{"type":"Feature","properties":{"station_id":"367813N1202410W001","well_use":"Unknown","slope_ft_per_yr":-0.489,"p_value":0.4272,"trend":"no trend","n_measurements":24,"record_years":24.1},"geometry":{"type":"Point","coordinates":[-120.241,36.7813]}},{"type":"Feature","properties":{"station_id":"367824N1202593W001","well_use":"Unknown","slope_ft_per_yr":-1.403,"p_value":0.0208,"trend":"decreasing","n_measurements":25,"record_years":23.7},"geometry":{"type":"Point","coordinates":[-120.2593,36.7824]}},{"type":"Feature","properties":{"station_id":"367827N1202666W001","well_use":"Irrigation","slope_ft_per_yr":-0.931,"p_value":0.1181,"trend":"no trend","n_measurements":24,"record_years":24.7},"geometry":{"type":"Point","coordinates":[-120.2666,36.7827]}},{"type":"Feature","properties":{"station_id":"367868N1203770W001","well_use":"Irrigation","slope_ft_per_yr":0.718,"p_value":0.0572,"trend":"no trend","n_measurements":23,"record_years":10.5},"geometry":{"type":"Point","coordinates":[-120.377,36.7869]}},{"type":"Feature","properties":{"station_id":"367882N1203566W001","well_use":"Unknown","slope_ft_per_yr":-1.323,"p_value":0.0135,"trend":"decreasing","n_measurements":28,"record_years":24.1},"geometry":{"type":"Point","coordinates":[-120.3566,36.7882]}},{"type":"Feature","properties":{"station_id":"367882N1203579W001","well_use":"Unknown","slope_ft_per_yr":-0.822,"p_value":0.3812,"trend":"no trend","n_measurements":21,"record_years":24.1},"geometry":{"type":"Point","coordinates":[-120.3579,36.7882]}},{"type":"Feature","properties":{"station_id":"367885N1206510W001","well_use":"Irrigation","slope_ft_per_yr":-19.892,"p_value":0.0,"trend":"decreasing","n_measurements":28,"record_years":17.6},"geometry":{"type":"Point","coordinates":[-120.651,36.7885]}},{"type":"Feature","properties":{"station_id":"367907N1203904W001","well_use":"Irrigation","slope_ft_per_yr":0.15,"p_value":0.259,"trend":"no trend","n_measurements":22,"record_years":24.9},"geometry":{"type":"Point","coordinates":[-120.3904,36.7907]}},{"type":"Feature","properties":{"station_id":"367985N1203102W001","well_use":"Irrigation","slope_ft_per_yr":-1.339,"p_value":0.0049,"trend":"decreasing","n_measurements":38,"record_years":31.2},"geometry":{"type":"Point","coordinates":[-120.3092,36.7986]}},{"type":"Feature","properties":{"station_id":"368002N1202596W001","well_use":"Irrigation","slope_ft_per_yr":-0.794,"p_value":0.0482,"trend":"decreasing","n_measurements":22,"record_years":24.7},"geometry":{"type":"Point","coordinates":[-120.2596,36.8002]}},{"type":"Feature","properties":{"station_id":"368068N1202368W001","well_use":"Unknown","slope_ft_per_yr":-0.945,"p_value":0.2242,"trend":"no trend","n_measurements":24,"record_years":24.1},"geometry":{"type":"Point","coordinates":[-120.2368,36.8068]}},{"type":"Feature","properties":{"station_id":"368107N1203993W001","well_use":"Irrigation","slope_ft_per_yr":0.024,"p_value":0.7138,"trend":"no trend","n_measurements":22,"record_years":24.8},"geometry":{"type":"Point","coordinates":[-120.3993,36.8107]}},{"type":"Feature","properties":{"station_id":"368157N1204038W001","well_use":"Irrigation","slope_ft_per_yr":-0.058,"p_value":0.3873,"trend":"no trend","n_measurements":25,"record_years":24.9},"geometry":{"type":"Point","coordinates":[-120.4038,36.8157]}},{"type":"Feature","properties":{"station_id":"368185N1204079W001","well_use":"Irrigation","slope_ft_per_yr":-0.155,"p_value":0.0839,"trend":"no trend","n_measurements":25,"record_years":24.9},"geometry":{"type":"Point","coordinates":[-120.4079,36.8185]}},{"type":"Feature","properties":{"station_id":"368207N1203910W001","well_use":"Irrigation","slope_ft_per_yr":-0.392,"p_value":0.0982,"trend":"no trend","n_measurements":26,"record_years":24.8},"geometry":{"type":"Point","coordinates":[-120.391,36.8207]}},{"type":"Feature","properties":{"station_id":"368213N1203027W001","well_use":"Unknown","slope_ft_per_yr":-0.759,"p_value":0.2643,"trend":"no trend","n_measurements":24,"record_years":23.7},"geometry":{"type":"Point","coordinates":[-120.3027,36.8213]}},{"type":"Feature","properties":{"station_id":"368221N1204135W001","well_use":"Irrigation","slope_ft_per_yr":-0.309,"p_value":0.0347,"trend":"decreasing","n_measurements":24,"record_years":24.9},"geometry":{"type":"Point","coordinates":[-120.4135,36.8221]}},{"type":"Feature","properties":{"station_id":"368263N1204204W001","well_use":"Irrigation","slope_ft_per_yr":-0.137,"p_value":0.2239,"trend":"no trend","n_measurements":24,"record_years":24.9},"geometry":{"type":"Point","coordinates":[-120.4204,36.8263]}},{"type":"Feature","properties":{"station_id":"368291N1203016W001","well_use":"Unknown","slope_ft_per_yr":-2.043,"p_value":0.0447,"trend":"decreasing","n_measurements":23,"record_years":23.7},"geometry":{"type":"Point","coordinates":[-120.3016,36.8291]}},{"type":"Feature","properties":{"station_id":"368352N1204076W001","well_use":"Observation","slope_ft_per_yr":-0.055,"p_value":0.2292,"trend":"no trend","n_measurements":103,"record_years":15.0},"geometry":{"type":"Point","coordinates":[-120.4076,36.8352]}},{"type":"Feature","properties":{"station_id":"368368N1203099W001","well_use":"Unknown","slope_ft_per_yr":-1.625,"p_value":0.0725,"trend":"no trend","n_measurements":23,"record_years":24.1},"geometry":{"type":"Point","coordinates":[-120.3099,36.8368]}},{"type":"Feature","properties":{"station_id":"368368N1203291W001","well_use":"Unknown","slope_ft_per_yr":-1.185,"p_value":0.0505,"trend":"no trend","n_measurements":28,"record_years":24.1},"geometry":{"type":"Point","coordinates":[-120.3291,36.8368]}},{"type":"Feature","properties":{"station_id":"368424N1203168W001","well_use":"Unknown","slope_ft_per_yr":-2.035,"p_value":0.0095,"trend":"decreasing","n_measurements":25,"record_years":23.7},"geometry":{"type":"Point","coordinates":[-120.3168,36.8424]}},{"type":"Feature","properties":{"station_id":"368438N1202621W001","well_use":"Irrigation","slope_ft_per_yr":-2.184,"p_value":0.0,"trend":"decreasing","n_measurements":44,"record_years":31.3},"geometry":{"type":"Point","coordinates":[-120.2611,36.8439]}},{"type":"Feature","properties":{"station_id":"368491N1203504W001","well_use":"Unknown","slope_ft_per_yr":-1.877,"p_value":0.0001,"trend":"decreasing","n_measurements":37,"record_years":31.2},"geometry":{"type":"Point","coordinates":[-120.35053,36.84797]}},{"type":"Feature","properties":{"station_id":"368507N1206171W001","well_use":"Observation","slope_ft_per_yr":-0.1,"p_value":0.0016,"trend":"decreasing","n_measurements":48,"record_years":21.0},"geometry":{"type":"Point","coordinates":[-120.6171,36.8507]}},{"type":"Feature","properties":{"station_id":"368660N1204560W001","well_use":"Irrigation","slope_ft_per_yr":-0.006,"p_value":0.9101,"trend":"no trend","n_measurements":22,"record_years":24.8},"geometry":{"type":"Point","coordinates":[-120.456,36.866]}},{"type":"Feature","properties":{"station_id":"368671N1204491W001","well_use":"Unknown","slope_ft_per_yr":-0.477,"p_value":0.0249,"trend":"decreasing","n_measurements":25,"record_years":21.7},"geometry":{"type":"Point","coordinates":[-120.4491,36.8671]}},{"type":"Feature","properties":{"station_id":"368676N1204502W001","well_use":"Irrigation","slope_ft_per_yr":-0.384,"p_value":0.026,"trend":"decreasing","n_measurements":31,"record_years":27.7},"geometry":{"type":"Point","coordinates":[-120.45021,36.86763]}},{"type":"Feature","properties":{"station_id":"368716N1207366W001","well_use":"Unknown","slope_ft_per_yr":-0.222,"p_value":0.0,"trend":"decreasing","n_measurements":31,"record_years":19.0},"geometry":{"type":"Point","coordinates":[-120.7366,36.8716]}},{"type":"Feature","properties":{"station_id":"368721N1207082W001","well_use":"Observation","slope_ft_per_yr":-0.27,"p_value":0.0,"trend":"decreasing","n_measurements":46,"record_years":20.0},"geometry":{"type":"Point","coordinates":[-120.7082,36.8721]}},{"type":"Feature","properties":{"station_id":"368727N1204593W001","well_use":"Irrigation","slope_ft_per_yr":-0.037,"p_value":0.5086,"trend":"no trend","n_measurements":23,"record_years":24.9},"geometry":{"type":"Point","coordinates":[-120.4593,36.8727]}},{"type":"Feature","properties":{"station_id":"368743N1204360W001","well_use":"Unknown","slope_ft_per_yr":-0.671,"p_value":0.0018,"trend":"decreasing","n_measurements":24,"record_years":21.7},"geometry":{"type":"Point","coordinates":[-120.436,36.8743]}},{"type":"Feature","properties":{"station_id":"368774N1205788W001","well_use":"Irrigation","slope_ft_per_yr":-0.36,"p_value":0.1308,"trend":"no trend","n_measurements":104,"record_years":25.5},"geometry":{"type":"Point","coordinates":[-120.5788,36.87742]}},{"type":"Feature","properties":{"station_id":"368790N1205784W001","well_use":"Irrigation","slope_ft_per_yr":2.505,"p_value":0.0,"trend":"increasing","n_measurements":70,"record_years":14.1},"geometry":{"type":"Point","coordinates":[-120.57835,36.87901]}},{"type":"Feature","properties":{"station_id":"368868N1204654W001","well_use":"Irrigation","slope_ft_per_yr":-0.133,"p_value":0.0757,"trend":"no trend","n_measurements":25,"record_years":24.8},"geometry":{"type":"Point","coordinates":[-120.4654,36.8868]}},{"type":"Feature","properties":{"station_id":"368871N1206355W001","well_use":"Irrigation","slope_ft_per_yr":-0.453,"p_value":0.0035,"trend":"decreasing","n_measurements":133,"record_years":31.1},"geometry":{"type":"Point","coordinates":[-120.6355,36.8871]}},{"type":"Feature","properties":{"station_id":"368896N1206702W001","well_use":"Observation","slope_ft_per_yr":0.416,"p_value":0.4657,"trend":"no trend","n_measurements":156,"record_years":14.7},"geometry":{"type":"Point","coordinates":[-120.6702,36.8896]}},{"type":"Feature","properties":{"station_id":"368896N1206702W004","well_use":"Observation","slope_ft_per_yr":5.754,"p_value":0.0,"trend":"increasing","n_measurements":157,"record_years":14.1},"geometry":{"type":"Point","coordinates":[-120.6702,36.8896]}},{"type":"Feature","properties":{"station_id":"368907N1207379W001","well_use":"Unknown","slope_ft_per_yr":-0.554,"p_value":0.6265,"trend":"no trend","n_measurements":20,"record_years":19.0},"geometry":{"type":"Point","coordinates":[-120.7379,36.8907]}},{"type":"Feature","properties":{"station_id":"368943N1207546W001","well_use":"Unknown","slope_ft_per_yr":-4.718,"p_value":0.0001,"trend":"decreasing","n_measurements":36,"record_years":22.0},"geometry":{"type":"Point","coordinates":[-120.7546,36.8943]}},{"type":"Feature","properties":{"station_id":"368946N1206354W001","well_use":"Unknown","slope_ft_per_yr":-4.183,"p_value":0.0003,"trend":"decreasing","n_measurements":35,"record_years":21.6},"geometry":{"type":"Point","coordinates":[-120.6354,36.8946]}},{"type":"Feature","properties":{"station_id":"368946N1206532W001","well_use":"Unknown","slope_ft_per_yr":-0.051,"p_value":0.8512,"trend":"no trend","n_measurements":29,"record_years":17.5},"geometry":{"type":"Point","coordinates":[-120.6532,36.8946]}},{"type":"Feature","properties":{"station_id":"368955N1206529W001","well_use":"Unknown","slope_ft_per_yr":-1.311,"p_value":0.1819,"trend":"no trend","n_measurements":27,"record_years":16.6},"geometry":{"type":"Point","coordinates":[-120.6529,36.8955]}},{"type":"Feature","properties":{"station_id":"368971N1204560W001","well_use":"Unknown","slope_ft_per_yr":-0.322,"p_value":0.0611,"trend":"no trend","n_measurements":21,"record_years":23.7},"geometry":{"type":"Point","coordinates":[-120.456,36.8971]}},{"type":"Feature","properties":{"station_id":"368977N1202735W001","well_use":"Unknown","slope_ft_per_yr":-2.451,"p_value":0.0025,"trend":"decreasing","n_measurements":22,"record_years":23.7},"geometry":{"type":"Point","coordinates":[-120.2735,36.8977]}},{"type":"Feature","properties":{"station_id":"369010N1204813W001","well_use":"Irrigation","slope_ft_per_yr":-0.282,"p_value":0.0376,"trend":"decreasing","n_measurements":25,"record_years":24.8},"geometry":{"type":"Point","coordinates":[-120.4813,36.901]}},{"type":"Feature","properties":{"station_id":"369064N1207276W001","well_use":"Irrigation","slope_ft_per_yr":-2.259,"p_value":0.0,"trend":"decreasing","n_measurements":154,"record_years":31.0},"geometry":{"type":"Point","coordinates":[-120.7276,36.9064]}},{"type":"Feature","properties":{"station_id":"369097N1207554W001","well_use":"Irrigation","slope_ft_per_yr":-0.519,"p_value":0.6155,"trend":"no trend","n_measurements":87,"record_years":14.7},"geometry":{"type":"Point","coordinates":[-120.7554,36.9097]}},{"type":"Feature","properties":{"station_id":"369099N1205091W001","well_use":"Irrigation","slope_ft_per_yr":-0.227,"p_value":0.0264,"trend":"decreasing","n_measurements":25,"record_years":24.9},"geometry":{"type":"Point","coordinates":[-120.5091,36.9099]}},{"type":"Feature","properties":{"station_id":"369102N1204527W001","well_use":"Irrigation","slope_ft_per_yr":-0.463,"p_value":0.0025,"trend":"decreasing","n_measurements":24,"record_years":24.8},"geometry":{"type":"Point","coordinates":[-120.4527,36.9102]}},{"type":"Feature","properties":{"station_id":"369168N1206918W001","well_use":"Unknown","slope_ft_per_yr":-1.901,"p_value":0.0003,"trend":"decreasing","n_measurements":31,"record_years":21.6},"geometry":{"type":"Point","coordinates":[-120.6918,36.9168]}},{"type":"Feature","properties":{"station_id":"369205N1205093W001","well_use":"Irrigation","slope_ft_per_yr":-0.261,"p_value":0.0868,"trend":"no trend","n_measurements":24,"record_years":24.9},"geometry":{"type":"Point","coordinates":[-120.5093,36.9205]}},{"type":"Feature","properties":{"station_id":"369216N1207057W001","well_use":"Unknown","slope_ft_per_yr":0.008,"p_value":0.7569,"trend":"no trend","n_measurements":26,"record_years":18.1},"geometry":{"type":"Point","coordinates":[-120.7057,36.9216]}},{"type":"Feature","properties":{"station_id":"369257N1207454W001","well_use":"Irrigation","slope_ft_per_yr":-2.841,"p_value":0.0,"trend":"decreasing","n_measurements":41,"record_years":30.6},"geometry":{"type":"Point","coordinates":[-120.74176,36.9249]}},{"type":"Feature","properties":{"station_id":"369271N1204491W001","well_use":"Unknown","slope_ft_per_yr":-0.989,"p_value":0.0047,"trend":"decreasing","n_measurements":25,"record_years":24.1},"geometry":{"type":"Point","coordinates":[-120.4491,36.9271]}},{"type":"Feature","properties":{"station_id":"369277N1204941W001","well_use":"Irrigation","slope_ft_per_yr":-0.2,"p_value":0.3148,"trend":"no trend","n_measurements":23,"record_years":24.8},"geometry":{"type":"Point","coordinates":[-120.4941,36.9277]}},{"type":"Feature","properties":{"station_id":"369277N1205121W001","well_use":"Irrigation","slope_ft_per_yr":-0.136,"p_value":0.0206,"trend":"decreasing","n_measurements":25,"record_years":24.9},"geometry":{"type":"Point","coordinates":[-120.5121,36.9277]}},{"type":"Feature","properties":{"station_id":"369299N1206860W001","well_use":"Unknown","slope_ft_per_yr":-0.316,"p_value":0.2476,"trend":"no trend","n_measurements":31,"record_years":19.6},"geometry":{"type":"Point","coordinates":[-120.686,36.9299]}},{"type":"Feature","properties":{"station_id":"369313N1204707W001","well_use":"Observation","slope_ft_per_yr":-1.078,"p_value":0.0,"trend":"decreasing","n_measurements":99,"record_years":11.1},"geometry":{"type":"Point","coordinates":[-120.4707,36.9313]}},{"type":"Feature","properties":{"station_id":"369316N1204979W001","well_use":"Irrigation","slope_ft_per_yr":-0.314,"p_value":0.0699,"trend":"no trend","n_measurements":21,"record_years":24.9},"geometry":{"type":"Point","coordinates":[-120.4979,36.9316]}},{"type":"Feature","properties":{"station_id":"369321N1205418W001","well_use":"Irrigation","slope_ft_per_yr":-0.229,"p_value":0.0171,"trend":"decreasing","n_measurements":39,"record_years":31.1},"geometry":{"type":"Point","coordinates":[-120.5418,36.9321]}},{"type":"Feature","properties":{"station_id":"369341N1205146W001","well_use":"Irrigation","slope_ft_per_yr":-0.384,"p_value":0.0344,"trend":"decreasing","n_measurements":22,"record_years":23.0},"geometry":{"type":"Point","coordinates":[-120.5146,36.9341]}},{"type":"Feature","properties":{"station_id":"369374N1205407W001","well_use":"Irrigation","slope_ft_per_yr":-0.01,"p_value":0.8326,"trend":"no trend","n_measurements":23,"record_years":24.9},"geometry":{"type":"Point","coordinates":[-120.5407,36.9374]}},{"type":"Feature","properties":{"station_id":"369405N1205474W001","well_use":"Irrigation","slope_ft_per_yr":-0.213,"p_value":0.0523,"trend":"no trend","n_measurements":25,"record_years":24.8},"geometry":{"type":"Point","coordinates":[-120.5474,36.9405]}},{"type":"Feature","properties":{"station_id":"369477N1205196W001","well_use":"Irrigation","slope_ft_per_yr":-0.091,"p_value":0.3211,"trend":"no trend","n_measurements":26,"record_years":24.9},"geometry":{"type":"Point","coordinates":[-120.5196,36.9477]}},{"type":"Feature","properties":{"station_id":"369477N1206907W001","well_use":"Observation","slope_ft_per_yr":-0.09,"p_value":0.0017,"trend":"decreasing","n_measurements":54,"record_years":31.0},"geometry":{"type":"Point","coordinates":[-120.69055,36.9479]}},{"type":"Feature","properties":{"station_id":"369482N1206907W001","well_use":"Unknown","slope_ft_per_yr":-0.02,"p_value":0.3142,"trend":"no trend","n_measurements":48,"record_years":27.9},"geometry":{"type":"Point","coordinates":[-120.6907,36.9482]}},{"type":"Feature","properties":{"station_id":"369485N1206907W001","well_use":"Observation","slope_ft_per_yr":-0.03,"p_value":0.7707,"trend":"no trend","n_measurements":53,"record_years":31.0},"geometry":{"type":"Point","coordinates":[-120.69052,36.94813]}},{"type":"Feature","properties":{"station_id":"369549N1208371W001","well_use":"Industrial","slope_ft_per_yr":-0.699,"p_value":0.0072,"trend":"decreasing","n_measurements":31,"record_years":20.0},"geometry":{"type":"Point","coordinates":[-120.8371,36.9549]}},{"type":"Feature","properties":{"station_id":"369563N1205229W001","well_use":"Irrigation","slope_ft_per_yr":0.0,"p_value":1.0,"trend":"no trend","n_measurements":26,"record_years":24.9},"geometry":{"type":"Point","coordinates":[-120.5229,36.9563]}},{"type":"Feature","properties":{"station_id":"369574N1208393W001","well_use":"Residential","slope_ft_per_yr":-1.113,"p_value":0.0,"trend":"decreasing","n_measurements":42,"record_years":29.0},"geometry":{"type":"Point","coordinates":[-120.83961,36.95761]}},{"type":"Feature","properties":{"station_id":"369618N1208460W001","well_use":"Irrigation","slope_ft_per_yr":-0.513,"p_value":0.0029,"trend":"decreasing","n_measurements":30,"record_years":19.7},"geometry":{"type":"Point","coordinates":[-120.846,36.9618]}},{"type":"Feature","properties":{"station_id":"369618N1208588W001","well_use":"Unknown","slope_ft_per_yr":-1.533,"p_value":0.0,"trend":"decreasing","n_measurements":22,"record_years":16.0},"geometry":{"type":"Point","coordinates":[-120.8588,36.9618]}},{"type":"Feature","properties":{"station_id":"369680N1208463W001","well_use":"Irrigation","slope_ft_per_yr":-0.485,"p_value":0.0109,"trend":"decreasing","n_measurements":32,"record_years":19.7},"geometry":{"type":"Point","coordinates":[-120.8463,36.968]}},{"type":"Feature","properties":{"station_id":"369688N1205677W001","well_use":"Irrigation","slope_ft_per_yr":-0.038,"p_value":0.4589,"trend":"no trend","n_measurements":23,"record_years":24.9},"geometry":{"type":"Point","coordinates":[-120.5677,36.9688]}},{"type":"Feature","properties":{"station_id":"369691N1208427W001","well_use":"Residential","slope_ft_per_yr":-1.409,"p_value":0.0,"trend":"decreasing","n_measurements":50,"record_years":31.1},"geometry":{"type":"Point","coordinates":[-120.8466,36.96746]}},{"type":"Feature","properties":{"station_id":"369696N1208527W001","well_use":"Irrigation","slope_ft_per_yr":-0.523,"p_value":0.0328,"trend":"decreasing","n_measurements":28,"record_years":20.0},"geometry":{"type":"Point","coordinates":[-120.8527,36.9696]}},{"type":"Feature","properties":{"station_id":"369699N1208371W001","well_use":"Irrigation","slope_ft_per_yr":-0.964,"p_value":0.0,"trend":"decreasing","n_measurements":50,"record_years":29.6},"geometry":{"type":"Point","coordinates":[-120.83709,36.9699]}},{"type":"Feature","properties":{"station_id":"369724N1205740W001","well_use":"Irrigation","slope_ft_per_yr":-0.044,"p_value":0.4274,"trend":"no trend","n_measurements":23,"record_years":24.9},"geometry":{"type":"Point","coordinates":[-120.574,36.9724]}},{"type":"Feature","properties":{"station_id":"369760N1208485W001","well_use":"Irrigation","slope_ft_per_yr":-0.079,"p_value":0.5454,"trend":"no trend","n_measurements":27,"record_years":18.7},"geometry":{"type":"Point","coordinates":[-120.8485,36.976]}},{"type":"Feature","properties":{"station_id":"369768N1208002W001","well_use":"Irrigation","slope_ft_per_yr":-0.488,"p_value":0.0,"trend":"decreasing","n_measurements":53,"record_years":31.1},"geometry":{"type":"Point","coordinates":[-120.80019,36.9768]}},{"type":"Feature","properties":{"station_id":"369777N1205799W001","well_use":"Irrigation","slope_ft_per_yr":-0.148,"p_value":0.006,"trend":"decreasing","n_measurements":39,"record_years":31.1},"geometry":{"type":"Point","coordinates":[-120.5799,36.9777]}},{"type":"Feature","properties":{"station_id":"369788N1205621W001","well_use":"Irrigation","slope_ft_per_yr":0.006,"p_value":0.8701,"trend":"no trend","n_measurements":25,"record_years":24.9},"geometry":{"type":"Point","coordinates":[-120.5621,36.9788]}},{"type":"Feature","properties":{"station_id":"369813N1205085W001","well_use":"Unknown","slope_ft_per_yr":-0.182,"p_value":0.2637,"trend":"no trend","n_measurements":24,"record_years":23.6},"geometry":{"type":"Point","coordinates":[-120.5085,36.9813]}},{"type":"Feature","properties":{"station_id":"369816N1204918W001","well_use":"Observation","slope_ft_per_yr":-1.06,"p_value":0.0,"trend":"decreasing","n_measurements":286,"record_years":13.6},"geometry":{"type":"Point","coordinates":[-120.49184,36.98163]}},{"type":"Feature","properties":{"station_id":"369817N1204859W001","well_use":"Observation","slope_ft_per_yr":-1.558,"p_value":0.0,"trend":"decreasing","n_measurements":280,"record_years":13.6},"geometry":{"type":"Point","coordinates":[-120.4859,36.98174]}},{"type":"Feature","properties":{"station_id":"369821N1204885W001","well_use":"Unknown","slope_ft_per_yr":-2.841,"p_value":0.0212,"trend":"decreasing","n_measurements":20,"record_years":24.1},"geometry":{"type":"Point","coordinates":[-120.4885,36.9821]}},{"type":"Feature","properties":{"station_id":"369857N1207177W001","well_use":"Unknown","slope_ft_per_yr":0.039,"p_value":0.2669,"trend":"no trend","n_measurements":35,"record_years":20.0},"geometry":{"type":"Point","coordinates":[-120.7177,36.9857]}},{"type":"Feature","properties":{"station_id":"369857N1207177W003","well_use":"Observation","slope_ft_per_yr":-0.062,"p_value":0.0202,"trend":"decreasing","n_measurements":35,"record_years":20.0},"geometry":{"type":"Point","coordinates":[-120.7177,36.9857]}},{"type":"Feature","properties":{"station_id":"369907N1208827W001","well_use":"Irrigation","slope_ft_per_yr":-0.663,"p_value":0.0743,"trend":"no trend","n_measurements":31,"record_years":19.0},"geometry":{"type":"Point","coordinates":[-120.8827,36.9907]}},{"type":"Feature","properties":{"station_id":"369952N1208191W001","well_use":"Irrigation","slope_ft_per_yr":-0.494,"p_value":0.0,"trend":"decreasing","n_measurements":57,"record_years":30.6},"geometry":{"type":"Point","coordinates":[-120.81909,36.9952]}},{"type":"Feature","properties":{"station_id":"369980N1208852W001","well_use":"Unknown","slope_ft_per_yr":-0.636,"p_value":0.081,"trend":"no trend","n_measurements":29,"record_years":19.7},"geometry":{"type":"Point","coordinates":[-120.8852,36.998]}},{"type":"Feature","properties":{"station_id":"369982N1207813W001","well_use":"Unknown","slope_ft_per_yr":-0.299,"p_value":0.0003,"trend":"decreasing","n_measurements":37,"record_years":20.0},"geometry":{"type":"Point","coordinates":[-120.7813,36.9982]}},{"type":"Feature","properties":{"station_id":"369982N1208671W001","well_use":"Irrigation","slope_ft_per_yr":0.059,"p_value":0.7996,"trend":"no trend","n_measurements":22,"record_years":19.7},"geometry":{"type":"Point","coordinates":[-120.8671,36.9982]}},{"type":"Feature","properties":{"station_id":"369985N1208766W001","well_use":"Irrigation","slope_ft_per_yr":-1.045,"p_value":0.0,"trend":"decreasing","n_measurements":46,"record_years":31.0},"geometry":{"type":"Point","coordinates":[-120.8772,36.99901]}},{"type":"Feature","properties":{"station_id":"369985N1208863W001","well_use":"Unknown","slope_ft_per_yr":-0.128,"p_value":0.7563,"trend":"no trend","n_measurements":22,"record_years":15.1},"geometry":{"type":"Point","coordinates":[-120.8863,36.9985]}},{"type":"Feature","properties":{"station_id":"369988N1208638W001","well_use":"Irrigation","slope_ft_per_yr":0.008,"p_value":0.9441,"trend":"no trend","n_measurements":25,"record_years":19.7},"geometry":{"type":"Point","coordinates":[-120.8638,36.9988]}},{"type":"Feature","properties":{"station_id":"370005N1208429W001","well_use":"Residential","slope_ft_per_yr":-0.663,"p_value":0.0044,"trend":"decreasing","n_measurements":36,"record_years":19.7},"geometry":{"type":"Point","coordinates":[-120.8429,37.0005]}},{"type":"Feature","properties":{"station_id":"370013N1208499W001","well_use":"Unknown","slope_ft_per_yr":-0.664,"p_value":0.0076,"trend":"decreasing","n_measurements":35,"record_years":19.7},"geometry":{"type":"Point","coordinates":[-120.8499,37.0013]}},{"type":"Feature","properties":{"station_id":"370021N1208713W001","well_use":"Irrigation","slope_ft_per_yr":-0.759,"p_value":0.0108,"trend":"decreasing","n_measurements":31,"record_years":19.7},"geometry":{"type":"Point","coordinates":[-120.8713,37.0021]}},{"type":"Feature","properties":{"station_id":"370021N1209010W001","well_use":"Irrigation","slope_ft_per_yr":-2.438,"p_value":0.0,"trend":"decreasing","n_measurements":48,"record_years":31.1},"geometry":{"type":"Point","coordinates":[-120.90099,37.00209]}},{"type":"Feature","properties":{"station_id":"370024N1209071W001","well_use":"Residential","slope_ft_per_yr":-2.079,"p_value":0.0011,"trend":"decreasing","n_measurements":29,"record_years":19.7},"geometry":{"type":"Point","coordinates":[-120.9071,37.0024]}},{"type":"Feature","properties":{"station_id":"370060N1208363W001","well_use":"Irrigation","slope_ft_per_yr":-0.652,"p_value":0.0001,"trend":"decreasing","n_measurements":35,"record_years":20.0},"geometry":{"type":"Point","coordinates":[-120.8363,37.006]}},{"type":"Feature","properties":{"station_id":"370060N1208821W001","well_use":"Irrigation","slope_ft_per_yr":-0.477,"p_value":0.3001,"trend":"no trend","n_measurements":26,"record_years":19.7},"geometry":{"type":"Point","coordinates":[-120.8821,37.006]}},{"type":"Feature","properties":{"station_id":"370060N1208904W001","well_use":"Unknown","slope_ft_per_yr":-1.317,"p_value":0.0048,"trend":"decreasing","n_measurements":20,"record_years":16.9},"geometry":{"type":"Point","coordinates":[-120.8904,37.006]}},{"type":"Feature","properties":{"station_id":"370077N1208549W001","well_use":"Irrigation","slope_ft_per_yr":-0.618,"p_value":0.0001,"trend":"decreasing","n_measurements":50,"record_years":31.1},"geometry":{"type":"Point","coordinates":[-120.85489,37.00769]}},{"type":"Feature","properties":{"station_id":"370102N1208907W001","well_use":"Irrigation","slope_ft_per_yr":-1.115,"p_value":0.0009,"trend":"decreasing","n_measurements":27,"record_years":17.6},"geometry":{"type":"Point","coordinates":[-120.8907,37.0102]}},{"type":"Feature","properties":{"station_id":"370130N1207991W001","well_use":"Unknown","slope_ft_per_yr":-0.322,"p_value":0.0,"trend":"decreasing","n_measurements":36,"record_years":23.0},"geometry":{"type":"Point","coordinates":[-120.7991,37.013]}},{"type":"Feature","properties":{"station_id":"370132N1208329W001","well_use":"Residential","slope_ft_per_yr":-0.617,"p_value":0.0,"trend":"decreasing","n_measurements":47,"record_years":28.5},"geometry":{"type":"Point","coordinates":[-120.83199,37.01297]}},{"type":"Feature","properties":{"station_id":"370157N1206670W001","well_use":"Irrigation","slope_ft_per_yr":0.031,"p_value":0.9579,"trend":"no trend","n_measurements":23,"record_years":10.5},"geometry":{"type":"Point","coordinates":[-120.667,37.0157]}},{"type":"Feature","properties":{"station_id":"370173N1208999W001","well_use":"Observation","slope_ft_per_yr":-0.008,"p_value":0.9617,"trend":"no trend","n_measurements":155,"record_years":14.6},"geometry":{"type":"Point","coordinates":[-120.8999,37.0173]}},{"type":"Feature","properties":{"station_id":"370173N1208999W002","well_use":"Observation","slope_ft_per_yr":0.661,"p_value":0.0533,"trend":"no trend","n_measurements":154,"record_years":14.6},"geometry":{"type":"Point","coordinates":[-120.8999,37.0173]}},{"type":"Feature","properties":{"station_id":"370185N1208416W001","well_use":"Residential","slope_ft_per_yr":-0.383,"p_value":0.0,"trend":"decreasing","n_measurements":57,"record_years":30.6},"geometry":{"type":"Point","coordinates":[-120.84198,37.01917]}},{"type":"Feature","properties":{"station_id":"370185N1208904W001","well_use":"Irrigation","slope_ft_per_yr":-0.577,"p_value":0.2518,"trend":"no trend","n_measurements":28,"record_years":19.7},"geometry":{"type":"Point","coordinates":[-120.8904,37.0185]}},{"type":"Feature","properties":{"station_id":"370216N1208746W001","well_use":"Residential","slope_ft_per_yr":-0.934,"p_value":0.0022,"trend":"decreasing","n_measurements":35,"record_years":19.7},"geometry":{"type":"Point","coordinates":[-120.8746,37.0216]}},{"type":"Feature","properties":{"station_id":"370268N1208774W001","well_use":"Irrigation","slope_ft_per_yr":-0.595,"p_value":0.0,"trend":"decreasing","n_measurements":44,"record_years":31.1},"geometry":{"type":"Point","coordinates":[-120.87752,37.02382]}},{"type":"Feature","properties":{"station_id":"370271N1208571W001","well_use":"Irrigation","slope_ft_per_yr":-0.67,"p_value":0.0027,"trend":"decreasing","n_measurements":43,"record_years":23.6},"geometry":{"type":"Point","coordinates":[-120.8571,37.0271]}},{"type":"Feature","properties":{"station_id":"370271N1208654W001","well_use":"Residential","slope_ft_per_yr":-0.575,"p_value":0.0,"trend":"decreasing","n_measurements":52,"record_years":30.6},"geometry":{"type":"Point","coordinates":[-120.86539,37.0271]}},{"type":"Feature","properties":{"station_id":"370274N1208346W001","well_use":"Unknown","slope_ft_per_yr":0.098,"p_value":0.3515,"trend":"no trend","n_measurements":22,"record_years":13.0},"geometry":{"type":"Point","coordinates":[-120.8346,37.0274]}},{"type":"Feature","properties":{"station_id":"370277N1208968W001","well_use":"Unknown","slope_ft_per_yr":-0.392,"p_value":0.3036,"trend":"no trend","n_measurements":25,"record_years":16.7},"geometry":{"type":"Point","coordinates":[-120.8968,37.0277]}},{"type":"Feature","properties":{"station_id":"370291N1208357W001","well_use":"Irrigation","slope_ft_per_yr":-2.648,"p_value":0.0356,"trend":"decreasing","n_measurements":29,"record_years":24.1},"geometry":{"type":"Point","coordinates":[-120.8357,37.0291]}},{"type":"Feature","properties":{"station_id":"370307N1209082W001","well_use":"Residential","slope_ft_per_yr":-0.539,"p_value":0.0,"trend":"decreasing","n_measurements":42,"record_years":30.6},"geometry":{"type":"Point","coordinates":[-120.90802,37.03138]}},{"type":"Feature","properties":{"station_id":"370327N1206185W001","well_use":"Irrigation","slope_ft_per_yr":0.0,"p_value":0.8977,"trend":"no trend","n_measurements":35,"record_years":25.1},"geometry":{"type":"Point","coordinates":[-120.6185,37.0327]}},{"type":"Feature","properties":{"station_id":"370327N1206310W001","well_use":"Unknown","slope_ft_per_yr":-0.026,"p_value":0.7276,"trend":"no trend","n_measurements":24,"record_years":16.7},"geometry":{"type":"Point","coordinates":[-120.631,37.0327]}},{"type":"Feature","properties":{"station_id":"370332N1208399W001","well_use":"Unknown","slope_ft_per_yr":0.183,"p_value":0.1611,"trend":"no trend","n_measurements":23,"record_years":14.8},"geometry":{"type":"Point","coordinates":[-120.8399,37.0332]}},{"type":"Feature","properties":{"station_id":"370368N1208502W001","well_use":"Residential","slope_ft_per_yr":-0.405,"p_value":0.007,"trend":"decreasing","n_measurements":39,"record_years":21.1},"geometry":{"type":"Point","coordinates":[-120.8502,37.0368]}},{"type":"Feature","properties":{"station_id":"370391N1206385W001","well_use":"Unknown","slope_ft_per_yr":0.056,"p_value":0.5647,"trend":"no trend","n_measurements":37,"record_years":25.1},"geometry":{"type":"Point","coordinates":[-120.6385,37.0391]}},{"type":"Feature","properties":{"station_id":"370413N1208929W001","well_use":"Unknown","slope_ft_per_yr":-1.257,"p_value":0.0,"trend":"decreasing","n_measurements":25,"record_years":15.3},"geometry":{"type":"Point","coordinates":[-120.8929,37.0413]}},{"type":"Feature","properties":{"station_id":"370416N1208127W001","well_use":"Irrigation","slope_ft_per_yr":-0.283,"p_value":0.0009,"trend":"decreasing","n_measurements":41,"record_years":29.0},"geometry":{"type":"Point","coordinates":[-120.81641,37.03861]}},{"type":"Feature","properties":{"station_id":"370418N1208724W001","well_use":"Irrigation","slope_ft_per_yr":-0.481,"p_value":0.2059,"trend":"no trend","n_measurements":24,"record_years":27.3},"geometry":{"type":"Point","coordinates":[-120.8724,37.0418]}},{"type":"Feature","properties":{"station_id":"370421N1208727W001","well_use":"Unknown","slope_ft_per_yr":-1.0,"p_value":0.0003,"trend":"decreasing","n_measurements":28,"record_years":24.0},"geometry":{"type":"Point","coordinates":[-120.8727,37.0421]}},{"type":"Feature","properties":{"station_id":"370424N1208816W001","well_use":"Irrigation","slope_ft_per_yr":-0.811,"p_value":0.0005,"trend":"decreasing","n_measurements":34,"record_years":19.7},"geometry":{"type":"Point","coordinates":[-120.8816,37.0424]}},{"type":"Feature","properties":{"station_id":"370443N1209129W001","well_use":"Unknown","slope_ft_per_yr":-0.672,"p_value":0.004,"trend":"decreasing","n_measurements":21,"record_years":13.6},"geometry":{"type":"Point","coordinates":[-120.9129,37.0443]}},{"type":"Feature","properties":{"station_id":"370463N1208554W001","well_use":"Irrigation","slope_ft_per_yr":-0.507,"p_value":0.0,"trend":"decreasing","n_measurements":38,"record_years":19.7},"geometry":{"type":"Point","coordinates":[-120.8554,37.0463]}},{"type":"Feature","properties":{"station_id":"370513N1208938W001","well_use":"Irrigation","slope_ft_per_yr":-0.519,"p_value":0.0001,"trend":"decreasing","n_measurements":46,"record_years":31.1},"geometry":{"type":"Point","coordinates":[-120.89379,37.0513]}},{"type":"Feature","properties":{"station_id":"370543N1206316W001","well_use":"Unknown","slope_ft_per_yr":0.0,"p_value":1.0,"trend":"no trend","n_measurements":23,"record_years":16.7},"geometry":{"type":"Point","coordinates":[-120.6316,37.0543]}},{"type":"Feature","properties":{"station_id":"370555N1208093W001","well_use":"Unknown","slope_ft_per_yr":-0.104,"p_value":0.2316,"trend":"no trend","n_measurements":30,"record_years":17.0},"geometry":{"type":"Point","coordinates":[-120.8093,37.0555]}},{"type":"Feature","properties":{"station_id":"370568N1206613W001","well_use":"Irrigation","slope_ft_per_yr":-0.031,"p_value":0.4382,"trend":"no trend","n_measurements":53,"record_years":26.2},"geometry":{"type":"Point","coordinates":[-120.66129,37.05679]}},{"type":"Feature","properties":{"station_id":"370593N1206893W001","well_use":"Irrigation","slope_ft_per_yr":-0.02,"p_value":0.8612,"trend":"no trend","n_measurements":40,"record_years":15.1},"geometry":{"type":"Point","coordinates":[-120.6893,37.0593]}},{"type":"Feature","properties":{"station_id":"370599N1206118W001","well_use":"Irrigation","slope_ft_per_yr":-0.013,"p_value":0.7273,"trend":"no trend","n_measurements":47,"record_years":31.2},"geometry":{"type":"Point","coordinates":[-120.6118,37.0599]}},{"type":"Feature","properties":{"station_id":"370599N1206760W001","well_use":"Unknown","slope_ft_per_yr":-0.073,"p_value":0.4101,"trend":"no trend","n_measurements":24,"record_years":16.7},"geometry":{"type":"Point","coordinates":[-120.676,37.0599]}},{"type":"Feature","properties":{"station_id":"370605N1208038W001","well_use":"Irrigation","slope_ft_per_yr":-0.24,"p_value":0.0011,"trend":"decreasing","n_measurements":59,"record_years":31.1},"geometry":{"type":"Point","coordinates":[-120.80438,37.0603]}},{"type":"Feature","properties":{"station_id":"370610N1208904W001","well_use":"Unknown","slope_ft_per_yr":-0.045,"p_value":0.7856,"trend":"no trend","n_measurements":21,"record_years":12.7},"geometry":{"type":"Point","coordinates":[-120.8904,37.061]}},{"type":"Feature","properties":{"station_id":"370630N1209254W001","well_use":"Unknown","slope_ft_per_yr":0.205,"p_value":0.0111,"trend":"increasing","n_measurements":21,"record_years":12.0},"geometry":{"type":"Point","coordinates":[-120.9254,37.063]}},{"type":"Feature","properties":{"station_id":"370630N1209266W001","well_use":"Irrigation","slope_ft_per_yr":-0.169,"p_value":0.0001,"trend":"decreasing","n_measurements":52,"record_years":31.1},"geometry":{"type":"Point","coordinates":[-120.92659,37.063]}},{"type":"Feature","properties":{"station_id":"370649N1206818W001","well_use":"Unknown","slope_ft_per_yr":-0.337,"p_value":0.0076,"trend":"decreasing","n_measurements":23,"record_years":14.7},"geometry":{"type":"Point","coordinates":[-120.6818,37.0649]}},{"type":"Feature","properties":{"station_id":"370655N1209118W001","well_use":"Unknown","slope_ft_per_yr":0.079,"p_value":0.4404,"trend":"no trend","n_measurements":25,"record_years":14.1},"geometry":{"type":"Point","coordinates":[-120.9118,37.0655]}},{"type":"Feature","properties":{"station_id":"370655N1209485W001","well_use":"Residential","slope_ft_per_yr":-0.186,"p_value":0.0005,"trend":"decreasing","n_measurements":57,"record_years":31.0},"geometry":{"type":"Point","coordinates":[-120.94849,37.06549]}},{"type":"Feature","properties":{"station_id":"370660N1207963W001","well_use":"Irrigation","slope_ft_per_yr":-0.085,"p_value":0.1613,"trend":"no trend","n_measurements":37,"record_years":20.0},"geometry":{"type":"Point","coordinates":[-120.7963,37.066]}},{"type":"Feature","properties":{"station_id":"370666N1209349W001","well_use":"Unknown","slope_ft_per_yr":0.239,"p_value":0.0006,"trend":"increasing","n_measurements":20,"record_years":14.1},"geometry":{"type":"Point","coordinates":[-120.9349,37.0666]}},{"type":"Feature","properties":{"station_id":"370705N1206629W001","well_use":"Unknown","slope_ft_per_yr":-0.099,"p_value":0.1744,"trend":"no trend","n_measurements":22,"record_years":16.7},"geometry":{"type":"Point","coordinates":[-120.6629,37.0705]}},{"type":"Feature","properties":{"station_id":"370716N1208260W001","well_use":"Unknown","slope_ft_per_yr":-0.339,"p_value":0.0076,"trend":"decreasing","n_measurements":34,"record_years":20.0},"geometry":{"type":"Point","coordinates":[-120.826,37.0716]}},{"type":"Feature","properties":{"station_id":"370727N1209491W001","well_use":"Unknown","slope_ft_per_yr":-0.046,"p_value":0.6797,"trend":"no trend","n_measurements":29,"record_years":18.8},"geometry":{"type":"Point","coordinates":[-120.9491,37.0727]}},{"type":"Feature","properties":{"station_id":"370755N1209260W002","well_use":"Irrigation","slope_ft_per_yr":-0.261,"p_value":0.0,"trend":"decreasing","n_measurements":59,"record_years":31.1},"geometry":{"type":"Point","coordinates":[-120.92599,37.07495]}},{"type":"Feature","properties":{"station_id":"370768N1208074W001","well_use":"Irrigation","slope_ft_per_yr":-0.081,"p_value":0.1573,"trend":"no trend","n_measurements":37,"record_years":20.0},"geometry":{"type":"Point","coordinates":[-120.8074,37.0768]}},{"type":"Feature","properties":{"station_id":"370835N1206363W001","well_use":"Unknown","slope_ft_per_yr":0.145,"p_value":0.0336,"trend":"increasing","n_measurements":26,"record_years":16.7},"geometry":{"type":"Point","coordinates":[-120.6363,37.0835]}},{"type":"Feature","properties":{"station_id":"370843N1208527W001","well_use":"Irrigation","slope_ft_per_yr":-0.327,"p_value":0.0002,"trend":"decreasing","n_measurements":33,"record_years":19.7},"geometry":{"type":"Point","coordinates":[-120.8527,37.0843]}},{"type":"Feature","properties":{"station_id":"370849N1206110W001","well_use":"Unknown","slope_ft_per_yr":0.0,"p_value":1.0,"trend":"no trend","n_measurements":27,"record_years":16.7},"geometry":{"type":"Point","coordinates":[-120.611,37.0849]}},{"type":"Feature","properties":{"station_id":"370860N1206774W001","well_use":"Irrigation","slope_ft_per_yr":-0.057,"p_value":0.1621,"trend":"no trend","n_measurements":50,"record_years":30.0},"geometry":{"type":"Point","coordinates":[-120.67739,37.08599]}},{"type":"Feature","properties":{"station_id":"370866N1208993W001","well_use":"Irrigation","slope_ft_per_yr":0.0,"p_value":0.9752,"trend":"no trend","n_measurements":33,"record_years":19.6},"geometry":{"type":"Point","coordinates":[-120.8993,37.0866]}},{"type":"Feature","properties":{"station_id":"370877N1207479W001","well_use":"Unknown","slope_ft_per_yr":0.028,"p_value":0.6457,"trend":"no trend","n_measurements":31,"record_years":16.6},"geometry":{"type":"Point","coordinates":[-120.7479,37.0877]}},{"type":"Feature","properties":{"station_id":"370880N1209257W001","well_use":"Observation","slope_ft_per_yr":0.016,"p_value":0.5736,"trend":"no trend","n_measurements":41,"record_years":22.0},"geometry":{"type":"Point","coordinates":[-120.9257,37.088]}},{"type":"Feature","properties":{"station_id":"370899N1208316W001","well_use":"Irrigation","slope_ft_per_yr":-0.326,"p_value":0.0051,"trend":"decreasing","n_measurements":35,"record_years":19.6},"geometry":{"type":"Point","coordinates":[-120.8316,37.0899]}},{"type":"Feature","properties":{"station_id":"370916N1208427W001","well_use":"Residential","slope_ft_per_yr":-0.423,"p_value":0.0,"trend":"decreasing","n_measurements":58,"record_years":31.1},"geometry":{"type":"Point","coordinates":[-120.83509,37.09246]}},{"type":"Feature","properties":{"station_id":"370916N1209279W001","well_use":"Irrigation","slope_ft_per_yr":-0.265,"p_value":0.0003,"trend":"decreasing","n_measurements":60,"record_years":31.1},"geometry":{"type":"Point","coordinates":[-120.92789,37.09159]}},{"type":"Feature","properties":{"station_id":"370921N1208771W001","well_use":"Irrigation","slope_ft_per_yr":-0.293,"p_value":0.0003,"trend":"decreasing","n_measurements":38,"record_years":22.0},"geometry":{"type":"Point","coordinates":[-120.8771,37.0921]}},{"type":"Feature","properties":{"station_id":"370924N1207016W001","well_use":"Unknown","slope_ft_per_yr":-0.364,"p_value":0.0048,"trend":"decreasing","n_measurements":23,"record_years":16.7},"geometry":{"type":"Point","coordinates":[-120.7016,37.0924]}},{"type":"Feature","properties":{"station_id":"370943N1209252W001","well_use":"Unknown","slope_ft_per_yr":-0.133,"p_value":0.0624,"trend":"no trend","n_measurements":43,"record_years":26.1},"geometry":{"type":"Point","coordinates":[-120.9252,37.0943]}},{"type":"Feature","properties":{"station_id":"370963N1209238W001","well_use":"Unknown","slope_ft_per_yr":-0.047,"p_value":0.491,"trend":"no trend","n_measurements":27,"record_years":16.6},"geometry":{"type":"Point","coordinates":[-120.9238,37.0963]}},{"type":"Feature","properties":{"station_id":"370980N1206896W001","well_use":"Unknown","slope_ft_per_yr":-0.104,"p_value":0.2141,"trend":"no trend","n_measurements":25,"record_years":16.7},"geometry":{"type":"Point","coordinates":[-120.6896,37.098]}},{"type":"Feature","properties":{"station_id":"370980N1206954W001","well_use":"Irrigation","slope_ft_per_yr":0.015,"p_value":0.6879,"trend":"no trend","n_measurements":50,"record_years":29.5},"geometry":{"type":"Point","coordinates":[-120.69678,37.09822]}},{"type":"Feature","properties":{"station_id":"370993N1208213W001","well_use":"Irrigation","slope_ft_per_yr":-0.284,"p_value":0.0185,"trend":"decreasing","n_measurements":37,"record_years":19.7},"geometry":{"type":"Point","coordinates":[-120.8213,37.0993]}},{"type":"Feature","properties":{"station_id":"370993N1208571W001","well_use":"Irrigation","slope_ft_per_yr":-0.469,"p_value":0.0,"trend":"decreasing","n_measurements":53,"record_years":30.4},"geometry":{"type":"Point","coordinates":[-120.85794,37.09978]}},{"type":"Feature","properties":{"station_id":"370999N1207441W001","well_use":"Unknown","slope_ft_per_yr":-0.018,"p_value":0.7233,"trend":"no trend","n_measurements":26,"record_years":16.7},"geometry":{"type":"Point","coordinates":[-120.7441,37.0999]}},{"type":"Feature","properties":{"station_id":"371002N1208574W001","well_use":"Unknown","slope_ft_per_yr":0.307,"p_value":0.0062,"trend":"increasing","n_measurements":27,"record_years":17.0},"geometry":{"type":"Point","coordinates":[-120.8574,37.1002]}},{"type":"Feature","properties":{"station_id":"371004N1210072W001","well_use":"Public Supply","slope_ft_per_yr":-0.875,"p_value":0.0,"trend":"decreasing","n_measurements":452,"record_years":12.3},"geometry":{"type":"Point","coordinates":[-121.00724,37.10043]}},{"type":"Feature","properties":{"station_id":"371032N1206357W001","well_use":"Unknown","slope_ft_per_yr":0.107,"p_value":0.2023,"trend":"no trend","n_measurements":27,"record_years":16.7},"geometry":{"type":"Point","coordinates":[-120.6357,37.1032]}},{"type":"Feature","properties":{"station_id":"371045N1205916W001","well_use":"Observation","slope_ft_per_yr":-0.154,"p_value":0.0041,"trend":"decreasing","n_measurements":106,"record_years":12.5},"geometry":{"type":"Point","coordinates":[-120.5916,37.1045]}},{"type":"Feature","properties":{"station_id":"371062N1209361W002","well_use":"Unknown","slope_ft_per_yr":-0.025,"p_value":0.9224,"trend":"no trend","n_measurements":20,"record_years":11.0},"geometry":{"type":"Point","coordinates":[-120.93611,37.10615]}},{"type":"Feature","properties":{"station_id":"371071N1207807W001","well_use":"Unknown","slope_ft_per_yr":-0.016,"p_value":0.4619,"trend":"no trend","n_measurements":40,"record_years":21.0},"geometry":{"type":"Point","coordinates":[-120.7807,37.1071]}},{"type":"Feature","properties":{"station_id":"371075N1209314W002","well_use":"Unknown","slope_ft_per_yr":-0.97,"p_value":0.0161,"trend":"decreasing","n_measurements":24,"record_years":12.3},"geometry":{"type":"Point","coordinates":[-120.93136,37.1075]}},{"type":"Feature","properties":{"station_id":"371096N1209399W001","well_use":"Irrigation","slope_ft_per_yr":0.0,"p_value":0.8473,"trend":"no trend","n_measurements":50,"record_years":26.6},"geometry":{"type":"Point","coordinates":[-120.93989,37.10959]}},{"type":"Feature","properties":{"station_id":"371152N1207366W001","well_use":"Residential","slope_ft_per_yr":0.036,"p_value":0.5612,"trend":"no trend","n_measurements":23,"record_years":29.5},"geometry":{"type":"Point","coordinates":[-120.73589,37.11675]}},{"type":"Feature","properties":{"station_id":"371180N1207077W001","well_use":"Unknown","slope_ft_per_yr":0.0,"p_value":0.9601,"trend":"no trend","n_measurements":24,"record_years":16.7},"geometry":{"type":"Point","coordinates":[-120.7077,37.118]}},{"type":"Feature","properties":{"station_id":"371216N1209616W001","well_use":"Unknown","slope_ft_per_yr":-0.144,"p_value":0.0033,"trend":"decreasing","n_measurements":27,"record_years":20.0},"geometry":{"type":"Point","coordinates":[-120.9616,37.1216]}},{"type":"Feature","properties":{"station_id":"371224N1208710W001","well_use":"Irrigation","slope_ft_per_yr":-0.205,"p_value":0.0003,"trend":"decreasing","n_measurements":43,"record_years":31.0},"geometry":{"type":"Point","coordinates":[-120.8705,37.1224]}},{"type":"Feature","properties":{"station_id":"371246N1207077W001","well_use":"Unknown","slope_ft_per_yr":0.209,"p_value":0.02,"trend":"increasing","n_measurements":26,"record_years":16.7},"geometry":{"type":"Point","coordinates":[-120.7077,37.1246]}},{"type":"Feature","properties":{"station_id":"371266N1209477W001","well_use":"Unknown","slope_ft_per_yr":-0.015,"p_value":0.7088,"trend":"no trend","n_measurements":32,"record_years":25.5},"geometry":{"type":"Point","coordinates":[-120.9477,37.1266]}},{"type":"Feature","properties":{"station_id":"371349N1209521W001","well_use":"Unknown","slope_ft_per_yr":-0.101,"p_value":0.081,"trend":"no trend","n_measurements":39,"record_years":22.3},"geometry":{"type":"Point","coordinates":[-120.9521,37.1349]}},{"type":"Feature","properties":{"station_id":"371357N1209524W001","well_use":"Unknown","slope_ft_per_yr":-2.348,"p_value":0.0,"trend":"decreasing","n_measurements":33,"record_years":18.6},"geometry":{"type":"Point","coordinates":[-120.9524,37.1357]}},{"type":"Feature","properties":{"station_id":"371363N1209524W001","well_use":"Unknown","slope_ft_per_yr":-2.282,"p_value":0.0,"trend":"decreasing","n_measurements":37,"record_years":22.5},"geometry":{"type":"Point","coordinates":[-120.9524,37.1363]}},{"type":"Feature","properties":{"station_id":"371410N1209927W001","well_use":"Irrigation","slope_ft_per_yr":0.033,"p_value":0.615,"trend":"no trend","n_measurements":32,"record_years":21.1},"geometry":{"type":"Point","coordinates":[-120.9927,37.141]}},{"type":"Feature","properties":{"station_id":"371443N1209554W001","well_use":"Unknown","slope_ft_per_yr":0.489,"p_value":0.0001,"trend":"increasing","n_measurements":29,"record_years":13.6},"geometry":{"type":"Point","coordinates":[-120.9554,37.1443]}},{"type":"Feature","properties":{"station_id":"371466N1210316W001","well_use":"Unknown","slope_ft_per_yr":-0.418,"p_value":0.0336,"trend":"decreasing","n_measurements":32,"record_years":20.0},"geometry":{"type":"Point","coordinates":[-121.0316,37.1466]}},{"type":"Feature","properties":{"station_id":"371646N1210143W001","well_use":"Unknown","slope_ft_per_yr":-0.354,"p_value":0.0007,"trend":"decreasing","n_measurements":33,"record_years":20.0},"geometry":{"type":"Point","coordinates":[-121.0143,37.1646]}},{"type":"Feature","properties":{"station_id":"371660N1209854W001","well_use":"Irrigation","slope_ft_per_yr":-0.067,"p_value":0.0917,"trend":"no trend","n_measurements":43,"record_years":31.0},"geometry":{"type":"Point","coordinates":[-120.98539,37.166]}},{"type":"Feature","properties":{"station_id":"371735N1209954W001","well_use":"Irrigation","slope_ft_per_yr":-0.281,"p_value":0.0014,"trend":"decreasing","n_measurements":40,"record_years":31.2},"geometry":{"type":"Point","coordinates":[-120.9954,37.1735]}},{"type":"Feature","properties":{"station_id":"371743N1210224W001","well_use":"Irrigation","slope_ft_per_yr":-1.17,"p_value":0.0006,"trend":"decreasing","n_measurements":20,"record_years":21.2},"geometry":{"type":"Point","coordinates":[-121.0224,37.1743]}},{"type":"Feature","properties":{"station_id":"371871N1209707W001","well_use":"Unknown","slope_ft_per_yr":-0.716,"p_value":0.0009,"trend":"decreasing","n_measurements":44,"record_years":26.0},"geometry":{"type":"Point","coordinates":[-120.9707,37.1871]}},{"type":"Feature","properties":{"station_id":"371974N1209668W001","well_use":"Unknown","slope_ft_per_yr":-0.095,"p_value":0.0362,"trend":"decreasing","n_measurements":43,"record_years":24.0},"geometry":{"type":"Point","coordinates":[-120.9668,37.1974]}},{"type":"Feature","properties":{"station_id":"372021N1210641W001","well_use":"Irrigation","slope_ft_per_yr":-0.931,"p_value":0.0,"trend":"decreasing","n_measurements":57,"record_years":31.0},"geometry":{"type":"Point","coordinates":[-121.06442,37.20239]}},{"type":"Feature","properties":{"station_id":"372110N1209213W001","well_use":"Unknown","slope_ft_per_yr":0.063,"p_value":0.1098,"trend":"no trend","n_measurements":37,"record_years":21.3},"geometry":{"type":"Point","coordinates":[-120.9213,37.211]}},{"type":"Feature","properties":{"station_id":"372132N1209027W001","well_use":"Unknown","slope_ft_per_yr":-0.021,"p_value":0.3766,"trend":"no trend","n_measurements":29,"record_years":24.6},"geometry":{"type":"Point","coordinates":[-120.9027,37.2132]}},{"type":"Feature","properties":{"station_id":"372171N1209943W001","well_use":"Observation","slope_ft_per_yr":-0.037,"p_value":0.0007,"trend":"decreasing","n_measurements":59,"record_years":31.0},"geometry":{"type":"Point","coordinates":[-120.9943,37.21698]}},{"type":"Feature","properties":{"station_id":"372213N1209754W001","well_use":"Unknown","slope_ft_per_yr":0.054,"p_value":0.6777,"trend":"no trend","n_measurements":28,"record_years":16.5},"geometry":{"type":"Point","coordinates":[-120.9754,37.2213]}},{"type":"Feature","properties":{"station_id":"372313N1209016W001","well_use":"Unknown","slope_ft_per_yr":-0.023,"p_value":0.397,"trend":"no trend","n_measurements":34,"record_years":20.9},"geometry":{"type":"Point","coordinates":[-120.9016,37.2313]}},{"type":"Feature","properties":{"station_id":"372313N1210657W001","well_use":"Irrigation","slope_ft_per_yr":-0.819,"p_value":0.0,"trend":"decreasing","n_measurements":48,"record_years":31.0},"geometry":{"type":"Point","coordinates":[-121.06569,37.2313]}},{"type":"Feature","properties":{"station_id":"372327N1209407W001","well_use":"Unknown","slope_ft_per_yr":0.022,"p_value":0.7303,"trend":"no trend","n_measurements":23,"record_years":18.7},"geometry":{"type":"Point","coordinates":[-120.9407,37.2327]}},{"type":"Feature","properties":{"station_id":"372377N1210752W001","well_use":"Unknown","slope_ft_per_yr":-1.315,"p_value":0.019,"trend":"decreasing","n_measurements":29,"record_years":18.9},"geometry":{"type":"Point","coordinates":[-121.0752,37.2377]}},{"type":"Feature","properties":{"station_id":"372413N1209385W001","well_use":"Unknown","slope_ft_per_yr":0.0,"p_value":0.8645,"trend":"no trend","n_measurements":31,"record_years":18.9},"geometry":{"type":"Point","coordinates":[-120.9385,37.2413]}},{"type":"Feature","properties":{"station_id":"372424N1210754W001","well_use":"Irrigation","slope_ft_per_yr":-1.021,"p_value":0.0,"trend":"decreasing","n_measurements":114,"record_years":31.1},"geometry":{"type":"Point","coordinates":[-121.0754,37.2424]}},{"type":"Feature","properties":{"station_id":"372535N1209754W001","well_use":"Unknown","slope_ft_per_yr":-0.133,"p_value":0.0354,"trend":"decreasing","n_measurements":35,"record_years":19.6},"geometry":{"type":"Point","coordinates":[-120.9754,37.2535]}},{"type":"Feature","properties":{"station_id":"372588N1209788W001","well_use":"Unknown","slope_ft_per_yr":-0.008,"p_value":0.9136,"trend":"no trend","n_measurements":33,"record_years":19.0},"geometry":{"type":"Point","coordinates":[-120.9788,37.2588]}},{"type":"Feature","properties":{"station_id":"372604N1210611W001","well_use":"Irrigation","slope_ft_per_yr":0.923,"p_value":0.2839,"trend":"no trend","n_measurements":22,"record_years":10.1},"geometry":{"type":"Point","coordinates":[-121.0611,37.2604]}},{"type":"Feature","properties":{"station_id":"372632N1210271W001","well_use":"Irrigation","slope_ft_per_yr":-0.484,"p_value":0.0047,"trend":"decreasing","n_measurements":28,"record_years":23.9},"geometry":{"type":"Point","coordinates":[-121.0271,37.2632]}},{"type":"Feature","properties":{"station_id":"372696N1209849W001","well_use":"Unknown","slope_ft_per_yr":-0.192,"p_value":0.0,"trend":"decreasing","n_measurements":40,"record_years":21.6},"geometry":{"type":"Point","coordinates":[-120.9849,37.2696]}},{"type":"Feature","properties":{"station_id":"372832N1210649W001","well_use":"Irrigation","slope_ft_per_yr":-1.359,"p_value":0.0,"trend":"decreasing","n_measurements":48,"record_years":30.5},"geometry":{"type":"Point","coordinates":[-121.06739,37.28326]}},{"type":"Feature","properties":{"station_id":"372852N1210496W001","well_use":"Irrigation","slope_ft_per_yr":-0.443,"p_value":0.0,"trend":"decreasing","n_measurements":50,"record_years":31.0},"geometry":{"type":"Point","coordinates":[-121.04947,37.28336]}},{"type":"Feature","properties":{"station_id":"372891N1209899W001","well_use":"Unknown","slope_ft_per_yr":-0.344,"p_value":0.0009,"trend":"decreasing","n_measurements":45,"record_years":25.5},"geometry":{"type":"Point","coordinates":[-120.9899,37.2891]}},{"type":"Feature","properties":{"station_id":"372907N1210875W002","well_use":"Observation","slope_ft_per_yr":-0.245,"p_value":0.0,"trend":"decreasing","n_measurements":154,"record_years":14.6},"geometry":{"type":"Point","coordinates":[-121.0875,37.2907]}},{"type":"Feature","properties":{"station_id":"373021N1210427W001","well_use":"Unknown","slope_ft_per_yr":-0.909,"p_value":0.0,"trend":"decreasing","n_measurements":26,"record_years":15.0},"geometry":{"type":"Point","coordinates":[-121.0427,37.3021]}},{"type":"Feature","properties":{"station_id":"373070N1210540W001","well_use":"Irrigation","slope_ft_per_yr":-0.588,"p_value":0.0,"trend":"decreasing","n_measurements":145,"record_years":31.2},"geometry":{"type":"Point","coordinates":[-121.054,37.307]}},{"type":"Feature","properties":{"station_id":"373277N1210660W001","well_use":"Unknown","slope_ft_per_yr":-0.05,"p_value":0.8532,"trend":"no trend","n_measurements":23,"record_years":19.6},"geometry":{"type":"Point","coordinates":[-121.066,37.3277]}},{"type":"Feature","properties":{"station_id":"373291N1210491W001","well_use":"Unknown","slope_ft_per_yr":-0.517,"p_value":0.1233,"trend":"no trend","n_measurements":32,"record_years":20.0},"geometry":{"type":"Point","coordinates":[-121.0491,37.3291]}},{"type":"Feature","properties":{"station_id":"373330N1210857W001","well_use":"Unknown","slope_ft_per_yr":-0.732,"p_value":0.0003,"trend":"decreasing","n_measurements":133,"record_years":31.0},"geometry":{"type":"Point","coordinates":[-121.08571,37.33295]}},{"type":"Feature","properties":{"station_id":"373410N1210991W001","well_use":"Unknown","slope_ft_per_yr":-1.673,"p_value":0.0,"trend":"decreasing","n_measurements":33,"record_years":20.0},"geometry":{"type":"Point","coordinates":[-121.0991,37.341]}},{"type":"Feature","properties":{"station_id":"373435N1210027W001","well_use":"Residential","slope_ft_per_yr":-0.399,"p_value":0.0001,"trend":"decreasing","n_measurements":58,"record_years":31.0},"geometry":{"type":"Point","coordinates":[-121.00269,37.34349]}},{"type":"Feature","properties":{"station_id":"373443N1210468W001","well_use":"Irrigation","slope_ft_per_yr":-1.876,"p_value":0.0,"trend":"decreasing","n_measurements":37,"record_years":24.3},"geometry":{"type":"Point","coordinates":[-121.04679,37.34429]}},{"type":"Feature","properties":{"station_id":"373477N1209793W001","well_use":"Irrigation","slope_ft_per_yr":-0.218,"p_value":0.0008,"trend":"decreasing","n_measurements":36,"record_years":19.6},"geometry":{"type":"Point","coordinates":[-120.9793,37.3477]}},{"type":"Feature","properties":{"station_id":"373493N1210696W001","well_use":"Residential","slope_ft_per_yr":-0.294,"p_value":0.7091,"trend":"no trend","n_measurements":32,"record_years":20.0},"geometry":{"type":"Point","coordinates":[-121.0696,37.3493]}},{"type":"Feature","properties":{"station_id":"373502N1210191W001","well_use":"Irrigation","slope_ft_per_yr":-0.682,"p_value":0.0599,"trend":"no trend","n_measurements":32,"record_years":19.6},"geometry":{"type":"Point","coordinates":[-121.0191,37.3502]}},{"type":"Feature","properties":{"station_id":"373535N1210013W001","well_use":"Unknown","slope_ft_per_yr":-0.032,"p_value":0.5811,"trend":"no trend","n_measurements":32,"record_years":18.0},"geometry":{"type":"Point","coordinates":[-121.0013,37.3535]}},{"type":"Feature","properties":{"station_id":"373552N1211010W001","well_use":"Unknown","slope_ft_per_yr":-1.363,"p_value":0.0001,"trend":"decreasing","n_measurements":30,"record_years":20.0},"geometry":{"type":"Point","coordinates":[-121.101,37.3552]}},{"type":"Feature","properties":{"station_id":"373674N1210846W001","well_use":"Unknown","slope_ft_per_yr":-1.273,"p_value":0.0,"trend":"decreasing","n_measurements":32,"record_years":20.0},"geometry":{"type":"Point","coordinates":[-121.0846,37.3674]}},{"type":"Feature","properties":{"station_id":"373818N1210707W001","well_use":"Unknown","slope_ft_per_yr":-0.934,"p_value":0.0,"trend":"decreasing","n_measurements":47,"record_years":26.6},"geometry":{"type":"Point","coordinates":[-121.0707,37.3818]}},{"type":"Feature","properties":{"station_id":"373843N1211054W001","well_use":"Irrigation","slope_ft_per_yr":-1.404,"p_value":0.0,"trend":"decreasing","n_measurements":49,"record_years":31.0},"geometry":{"type":"Point","coordinates":[-121.10539,37.38429]}},{"type":"Feature","properties":{"station_id":"373860N1211204W001","well_use":"Unknown","slope_ft_per_yr":-2.343,"p_value":0.0,"trend":"decreasing","n_measurements":38,"record_years":25.5},"geometry":{"type":"Point","coordinates":[-121.1204,37.386]}},{"type":"Feature","properties":{"station_id":"374007N1211232W001","well_use":"Unknown","slope_ft_per_yr":-0.76,"p_value":0.1655,"trend":"no trend","n_measurements":28,"record_years":18.7},"geometry":{"type":"Point","coordinates":[-121.1232,37.4007]}},{"type":"Feature","properties":{"station_id":"374010N1210349W001","well_use":"Unknown","slope_ft_per_yr":-0.366,"p_value":0.0,"trend":"decreasing","n_measurements":35,"record_years":19.4},"geometry":{"type":"Point","coordinates":[-121.0349,37.401]}},{"type":"Feature","properties":{"station_id":"374052N1210671W001","well_use":"Unknown","slope_ft_per_yr":-0.564,"p_value":0.0,"trend":"decreasing","n_measurements":32,"record_years":20.0},"geometry":{"type":"Point","coordinates":[-121.0671,37.4052]}},{"type":"Feature","properties":{"station_id":"374061N1211212W001","well_use":"Irrigation","slope_ft_per_yr":-5.642,"p_value":0.0,"trend":"decreasing","n_measurements":93,"record_years":14.7},"geometry":{"type":"Point","coordinates":[-121.1212,37.4061]}},{"type":"Feature","properties":{"station_id":"374135N1210282W001","well_use":"Unknown","slope_ft_per_yr":-0.15,"p_value":0.0546,"trend":"no trend","n_measurements":36,"record_years":20.0},"geometry":{"type":"Point","coordinates":[-121.0282,37.4135]}},{"type":"Feature","properties":{"station_id":"374249N1210393W001","well_use":"Unknown","slope_ft_per_yr":-0.161,"p_value":0.017,"trend":"decreasing","n_measurements":46,"record_years":25.5},"geometry":{"type":"Point","coordinates":[-121.0393,37.4249]}},{"type":"Feature","properties":{"station_id":"374257N1210277W001","well_use":"Unknown","slope_ft_per_yr":-0.294,"p_value":0.0,"trend":"decreasing","n_measurements":38,"record_years":20.0},"geometry":{"type":"Point","coordinates":[-121.0277,37.4257]}},{"type":"Feature","properties":{"station_id":"374257N1210338W001","well_use":"Irrigation","slope_ft_per_yr":-0.184,"p_value":0.0339,"trend":"decreasing","n_measurements":46,"record_years":28.3},"geometry":{"type":"Point","coordinates":[-121.03379,37.42569]}},{"type":"Feature","properties":{"station_id":"374316N1210994W001","well_use":"Observation","slope_ft_per_yr":-0.601,"p_value":0.1237,"trend":"no trend","n_measurements":155,"record_years":14.6},"geometry":{"type":"Point","coordinates":[-121.0994,37.43139]}},{"type":"Feature","properties":{"station_id":"374316N1210994W003","well_use":"Observation","slope_ft_per_yr":-1.63,"p_value":0.0,"trend":"decreasing","n_measurements":155,"record_years":14.6},"geometry":{"type":"Point","coordinates":[-121.0994,37.4313]}},{"type":"Feature","properties":{"station_id":"374410N1210349W001","well_use":"Residential","slope_ft_per_yr":-0.143,"p_value":0.0061,"trend":"decreasing","n_measurements":58,"record_years":30.4},"geometry":{"type":"Point","coordinates":[-121.03678,37.43636]}},{"type":"Feature","properties":{"station_id":"374607N1211652W001","well_use":"Unknown","slope_ft_per_yr":-0.078,"p_value":0.5239,"trend":"no trend","n_measurements":44,"record_years":26.6},"geometry":{"type":"Point","coordinates":[-121.1652,37.4607]}},{"type":"Feature","properties":{"station_id":"374712N1211328W002","well_use":"Public Supply","slope_ft_per_yr":0.017,"p_value":0.6678,"trend":"no trend","n_measurements":90,"record_years":22.6},"geometry":{"type":"Point","coordinates":[-121.13283,37.4712]}},{"type":"Feature","properties":{"station_id":"374772N1211672W001","well_use":"Irrigation","slope_ft_per_yr":2.024,"p_value":0.0,"trend":"increasing","n_measurements":65,"record_years":16.1},"geometry":{"type":"Point","coordinates":[-121.16722,37.47718]}},{"type":"Feature","properties":{"station_id":"374816N1211350W001","well_use":"Observation","slope_ft_per_yr":1.399,"p_value":0.0,"trend":"increasing","n_measurements":62,"record_years":15.8},"geometry":{"type":"Point","coordinates":[-121.13503,37.48156]}},{"type":"Feature","properties":{"station_id":"374868N1211413W001","well_use":"Unknown","slope_ft_per_yr":-0.286,"p_value":0.0139,"trend":"decreasing","n_measurements":34,"record_years":24.0},"geometry":{"type":"Point","coordinates":[-121.1413,37.4868]}},{"type":"Feature","properties":{"station_id":"375007N1211816W001","well_use":"Unknown","slope_ft_per_yr":-0.186,"p_value":0.0181,"trend":"decreasing","n_measurements":53,"record_years":31.0},"geometry":{"type":"Point","coordinates":[-121.1816,37.5007]}},{"type":"Feature","properties":{"station_id":"375015N1211011W001","well_use":"Observation","slope_ft_per_yr":0.664,"p_value":0.0001,"trend":"increasing","n_measurements":62,"record_years":15.8},"geometry":{"type":"Point","coordinates":[-121.1011,37.5015]}},{"type":"Feature","properties":{"station_id":"375046N1211743W001","well_use":"Unknown","slope_ft_per_yr":-0.425,"p_value":0.0855,"trend":"no trend","n_measurements":28,"record_years":21.6},"geometry":{"type":"Point","coordinates":[-121.1743,37.5046]}},{"type":"Feature","properties":{"station_id":"375130N1211957W001","well_use":"Unknown","slope_ft_per_yr":-0.215,"p_value":0.2331,"trend":"no trend","n_measurements":47,"record_years":30.6},"geometry":{"type":"Point","coordinates":[-121.1957,37.513]}},{"type":"Feature","properties":{"station_id":"375151N1212030W001","well_use":"Irrigation","slope_ft_per_yr":2.436,"p_value":0.0,"trend":"increasing","n_measurements":49,"record_years":10.5},"geometry":{"type":"Point","coordinates":[-121.20303,37.51514]}},{"type":"Feature","properties":{"station_id":"375313N1212242W001","well_use":"Irrigation","slope_ft_per_yr":1.523,"p_value":0.0001,"trend":"increasing","n_measurements":88,"record_years":14.7},"geometry":{"type":"Point","coordinates":[-121.2242,37.5313]}},{"type":"Feature","properties":{"station_id":"375321N1211363W001","well_use":"Unknown","slope_ft_per_yr":-0.148,"p_value":0.0069,"trend":"decreasing","n_measurements":56,"record_years":31.0},"geometry":{"type":"Point","coordinates":[-121.1363,37.5321]}},{"type":"Feature","properties":{"station_id":"375509N1212609W001","well_use":"Irrigation","slope_ft_per_yr":0.566,"p_value":0.555,"trend":"no trend","n_measurements":92,"record_years":14.6},"geometry":{"type":"Point","coordinates":[-121.261,37.5509]}},{"type":"Feature","properties":{"station_id":"375774N1212096W001","well_use":"Observation","slope_ft_per_yr":-0.429,"p_value":0.0237,"trend":"decreasing","n_measurements":54,"record_years":14.0},"geometry":{"type":"Point","coordinates":[-121.2096,37.5774]}},{"type":"Feature","properties":{"station_id":"375830N1212024W001","well_use":"Unknown","slope_ft_per_yr":-0.371,"p_value":0.0213,"trend":"decreasing","n_measurements":66,"record_years":14.0},"geometry":{"type":"Point","coordinates":[-121.20242,37.58298]}},{"type":"Feature","properties":{"station_id":"376127N1213219W001","well_use":"Unknown","slope_ft_per_yr":-0.733,"p_value":0.0308,"trend":"decreasing","n_measurements":24,"record_years":14.1},"geometry":{"type":"Point","coordinates":[-121.3219,37.6127]}},{"type":"Feature","properties":{"station_id":"376233N1213247W001","well_use":"Unknown","slope_ft_per_yr":-0.879,"p_value":0.0,"trend":"decreasing","n_measurements":68,"record_years":25.5},"geometry":{"type":"Point","coordinates":[-121.3247,37.6233]}},{"type":"Feature","properties":{"station_id":"376322N1213413W001","well_use":"Unknown","slope_ft_per_yr":-0.682,"p_value":0.0,"trend":"decreasing","n_measurements":46,"record_years":23.4},"geometry":{"type":"Point","coordinates":[-121.3413,37.6322]}},{"type":"Feature","properties":{"station_id":"376391N1213663W001","well_use":"Unknown","slope_ft_per_yr":-0.254,"p_value":0.4759,"trend":"no trend","n_measurements":29,"record_years":19.0},"geometry":{"type":"Point","coordinates":[-121.3663,37.6391]}},{"type":"Feature","properties":{"station_id":"376429N1213651W001","well_use":"Unknown","slope_ft_per_yr":-1.036,"p_value":0.0,"trend":"decreasing","n_measurements":130,"record_years":30.5},"geometry":{"type":"Point","coordinates":[-121.36512,37.64286]}},{"type":"Feature","properties":{"station_id":"376735N1214069W001","well_use":"Unknown","slope_ft_per_yr":-0.201,"p_value":0.6167,"trend":"no trend","n_measurements":27,"record_years":16.7},"geometry":{"type":"Point","coordinates":[-121.4069,37.6735]}}]}