{"type":"FeatureCollection","features":[{"type":"Feature","properties":{"pwsid":"CA1010020","pws_name":"LATON COMMUNITY SERVICES DISTRICT","pop_served":1151,"connections":473,"geom_type":"polygon","sgti_ft_per_yr":-2.267,"n_wells_used":1,"n_wells_significant":1,"vuln_rank":3,"radius_m":2000},"geometry":{"type":"Polygon","coordinates":[[[-119.67826,36.43265],[-119.67816,36.43096],[-119.67859,36.43074],[-119.68173,36.43005],[-119.6826,36.42792],[-119.68337,36.42693],[-119.68423,36.42687],[-119.68635,36.42604],[-119.69233,36.42572],[-119.69372,36.42519],[-119.69433,36.42519],[-119.69528,36.42689],[-119.69529,36.42755],[-119.69516,36.43103],[-119.69417,36.43104],[-119.6943,36.43831],[-119.6908,36.43833],[-119.69075,36.43886],[-119.68977,36.43909],[-119.6871,36.4391],[-119.68672,36.43937],[-119.68568,36.43942],[-119.68492,36.43938],[-119.68371,36.43842],[-119.68224,36.43829],[-119.68088,36.43848],[-119.67935,36.43822],[-119.67809,36.4384],[-119.67771,36.43827],[-119.67601,36.43683],[-119.67486,36.43644],[-119.67299,36.43522],[-119.67544,36.43436],[-119.67826,36.43265]]]}},{"type":"Feature","properties":{"pwsid":"CA1600002","pws_name":"SUNSET VISTA ESTATES MHP","pop_served":400,"connections":109,"geom_type":"polygon","sgti_ft_per_yr":null,"n_wells_used":null,"n_wells_significant":null,"vuln_rank":null,"radius_m":null},"geometry":{"type":"Polygon","coordinates":[[[-119.81222,36.33214],[-119.81221,36.33316],[-119.80857,36.3332],[-119.80835,36.33307],[-119.80836,36.33216],[-119.81222,36.33214]]]}},{"type":"Feature","properties":{"pwsid":"CA1600293","pws_name":"15TH AVENUE","pop_served":50,"connections":3,"geom_type":"polygon","sgti_ft_per_yr":-0.874,"n_wells_used":1,"n_wells_significant":1,"vuln_rank":5,"radius_m":2000},"geometry":{"type":"Polygon","coordinates":[[[-119.72708,36.30668],[-119.72579,36.30667],[-119.72585,36.30567],[-119.72708,36.30568],[-119.72708,36.30668]]]}},{"type":"Feature","properties":{"pwsid":"CA1600507","pws_name":"HARDWICK WATER COMPANY","pop_served":69,"connections":40,"geom_type":"polygon","sgti_ft_per_yr":-1.893,"n_wells_used":5,"n_wells_significant":5,"vuln_rank":4,"radius_m":2000},"geometry":{"type":"Polygon","coordinates":[[[-119.71834,36.4012],[-119.72151,36.4012],[-119.72148,36.40317],[-119.71985,36.40325],[-119.71976,36.40481],[-119.71833,36.40476],[-119.71834,36.4012]]]}},{"type":"Feature","properties":{"pwsid":"CA1610006","pws_name":"STRATFORD PUD","pop_served":1277,"connections":358,"geom_type":"polygon","sgti_ft_per_yr":-3.483,"n_wells_used":1,"n_wells_significant":1,"vuln_rank":1,"radius_m":2000},"geometry":{"type":"Polygon","coordinates":[[[-119.82524,36.18209],[-119.82531,36.18568],[-119.82807,36.18567],[-119.82807,36.18864],[-119.82859,36.18865],[-119.8294,36.18751],[-119.82943,36.18937],[-119.82806,36.18938],[-119.82805,36.19294],[-119.8254,36.1931],[-119.82501,36.19368],[-119.82505,36.1967],[-119.82312,36.19671],[-119.82312,36.19792],[-119.82143,36.2003],[-119.81803,36.19415],[-119.81668,36.18939],[-119.81372,36.18944],[-119.81372,36.1882],[-119.81629,36.18815],[-119.81587,36.1856],[-119.81596,36.18388],[-119.81535,36.18213],[-119.81833,36.18212],[-119.81833,36.18559],[-119.82408,36.18568],[-119.82406,36.18526],[-119.82445,36.18526],[-119.82445,36.18567],[-119.82477,36.18566],[-119.8247,36.18476],[-119.82435,36.18425],[-119.82339,36.18379],[-119.82056,36.18375],[-119.82053,36.18209],[-119.82524,36.18209]]]}},{"type":"Feature","properties":{"pwsid":"CA1610007","pws_name":"HOME GARDEN CSD","pop_served":1750,"connections":486,"geom_type":"polygon","sgti_ft_per_yr":-3.177,"n_wells_used":4,"n_wells_significant":4,"vuln_rank":2,"radius_m":2000},"geometry":{"type":"Polygon","coordinates":[[[-119.63001,36.29862],[-119.6369,36.29873],[-119.64153,36.29862],[-119.64145,36.30219],[-119.6369,36.30206],[-119.6369,36.30298],[-119.64143,36.30309],[-119.64135,36.30632],[-119.63731,36.30623],[-119.63728,36.30693],[-119.63903,36.30696],[-119.639,36.30766],[-119.6369,36.30768],[-119.6369,36.30612],[-119.62596,36.3061],[-119.62596,36.30117],[-119.6299,36.30119],[-119.63001,36.29862]]]}}]}