{"type":"FeatureCollection","features":[{"type":"Feature","properties":{"station_id":"357978N1195732W001","well_use":"Irrigation","slope_ft_per_yr":2.479,"p_value":0.317,"trend":"no trend","n_measurements":27,"record_years":29.4},"geometry":{"type":"Point","coordinates":[-119.5732,35.79719]}},{"type":"Feature","properties":{"station_id":"358039N1196004W001","well_use":"Unknown","slope_ft_per_yr":-2.745,"p_value":0.0072,"trend":"decreasing","n_measurements":25,"record_years":21.0},"geometry":{"type":"Point","coordinates":[-119.6004,35.8039]}},{"type":"Feature","properties":{"station_id":"358042N1195554W001","well_use":"Irrigation","slope_ft_per_yr":-5.375,"p_value":0.0187,"trend":"decreasing","n_measurements":28,"record_years":22.0},"geometry":{"type":"Point","coordinates":[-119.5554,35.8042]}},{"type":"Feature","properties":{"station_id":"358044N1195732W001","well_use":"Unknown","slope_ft_per_yr":-1.599,"p_value":0.0009,"trend":"decreasing","n_measurements":23,"record_years":15.9},"geometry":{"type":"Point","coordinates":[-119.5732,35.8044]}},{"type":"Feature","properties":{"station_id":"358181N1195785W001","well_use":"Unknown","slope_ft_per_yr":-2.39,"p_value":0.0,"trend":"decreasing","n_measurements":35,"record_years":26.1},"geometry":{"type":"Point","coordinates":[-119.5785,35.8181]}},{"type":"Feature","properties":{"station_id":"359300N1194810W001","well_use":"Unknown","slope_ft_per_yr":-0.13,"p_value":0.0222,"trend":"decreasing","n_measurements":66,"record_years":16.5},"geometry":{"type":"Point","coordinates":[-119.481,35.93]}},{"type":"Feature","properties":{"station_id":"359600N1195710W001","well_use":"Unknown","slope_ft_per_yr":0.037,"p_value":0.2615,"trend":"no trend","n_measurements":65,"record_years":16.5},"geometry":{"type":"Point","coordinates":[-119.571,35.96]}},{"type":"Feature","properties":{"station_id":"359900N1195710W001","well_use":"Unknown","slope_ft_per_yr":0.039,"p_value":0.2021,"trend":"no trend","n_measurements":65,"record_years":16.5},"geometry":{"type":"Point","coordinates":[-119.571,35.99]}},{"type":"Feature","properties":{"station_id":"360800N1198110W001","well_use":"Unknown","slope_ft_per_yr":0.215,"p_value":0.0001,"trend":"increasing","n_measurements":58,"record_years":16.5},"geometry":{"type":"Point","coordinates":[-119.811,36.08]}},{"type":"Feature","properties":{"station_id":"361100N1196010W001","well_use":"Unknown","slope_ft_per_yr":-0.123,"p_value":0.0017,"trend":"decreasing","n_measurements":64,"record_years":16.5},"geometry":{"type":"Point","coordinates":[-119.601,36.11]}},{"type":"Feature","properties":{"station_id":"361158N1196258W001","well_use":"Observation","slope_ft_per_yr":1.51,"p_value":0.7261,"trend":"no trend","n_measurements":25,"record_years":14.5},"geometry":{"type":"Point","coordinates":[-119.62581,36.11581]}},{"type":"Feature","properties":{"station_id":"361231N1196799W001","well_use":"Unknown","slope_ft_per_yr":0.494,"p_value":0.7712,"trend":"no trend","n_measurements":23,"record_years":15.3},"geometry":{"type":"Point","coordinates":[-119.6799,36.1231]}},{"type":"Feature","properties":{"station_id":"361381N1195482W001","well_use":"Irrigation","slope_ft_per_yr":-2.198,"p_value":0.0232,"trend":"decreasing","n_measurements":26,"record_years":23.0},"geometry":{"type":"Point","coordinates":[-119.5482,36.1381]}},{"type":"Feature","properties":{"station_id":"361383N1196218W001","well_use":"Irrigation","slope_ft_per_yr":-5.413,"p_value":0.0131,"trend":"decreasing","n_measurements":27,"record_years":27.5},"geometry":{"type":"Point","coordinates":[-119.6218,36.1383]}},{"type":"Feature","properties":{"station_id":"361414N1196460W001","well_use":"Residential","slope_ft_per_yr":-8.577,"p_value":0.0013,"trend":"decreasing","n_measurements":26,"record_years":21.6},"geometry":{"type":"Point","coordinates":[-119.646,36.1414]}},{"type":"Feature","properties":{"station_id":"361500N1196410W001","well_use":"Unknown","slope_ft_per_yr":-0.057,"p_value":0.1832,"trend":"no trend","n_measurements":65,"record_years":16.5},"geometry":{"type":"Point","coordinates":[-119.641,36.15]}},{"type":"Feature","properties":{"station_id":"361525N1197882W001","well_use":"Unknown","slope_ft_per_yr":-9.762,"p_value":0.0,"trend":"decreasing","n_measurements":28,"record_years":18.1},"geometry":{"type":"Point","coordinates":[-119.7882,36.1525]}},{"type":"Feature","properties":{"station_id":"361586N1198402W001","well_use":"Irrigation","slope_ft_per_yr":-6.391,"p_value":0.0,"trend":"decreasing","n_measurements":36,"record_years":31.0},"geometry":{"type":"Point","coordinates":[-119.8402,36.1586]}},{"type":"Feature","properties":{"station_id":"361600N1197700W001","well_use":"Observation","slope_ft_per_yr":-0.867,"p_value":0.2764,"trend":"no trend","n_measurements":30,"record_years":14.4},"geometry":{"type":"Point","coordinates":[-119.7758,36.15977]}},{"type":"Feature","properties":{"station_id":"361600N1197800W001","well_use":"Observation","slope_ft_per_yr":-1.328,"p_value":0.0002,"trend":"decreasing","n_measurements":30,"record_years":14.4},"geometry":{"type":"Point","coordinates":[-119.77581,36.15983]}},{"type":"Feature","properties":{"station_id":"361617N1198124W001","well_use":"Unknown","slope_ft_per_yr":-3.661,"p_value":0.0012,"trend":"decreasing","n_measurements":47,"record_years":31.0},"geometry":{"type":"Point","coordinates":[-119.81243,36.16145]}},{"type":"Feature","properties":{"station_id":"361675N1196360W001","well_use":"Irrigation","slope_ft_per_yr":-2.803,"p_value":0.0051,"trend":"decreasing","n_measurements":45,"record_years":31.0},"geometry":{"type":"Point","coordinates":[-119.636,36.1675]}},{"type":"Feature","properties":{"station_id":"361700N1196900W001","well_use":"Irrigation","slope_ft_per_yr":4.114,"p_value":0.1485,"trend":"no trend","n_measurements":31,"record_years":14.5},"geometry":{"type":"Point","coordinates":[-119.69,36.17]}},{"type":"Feature","properties":{"station_id":"361700N1198510W001","well_use":"Unknown","slope_ft_per_yr":-0.1,"p_value":0.0006,"trend":"decreasing","n_measurements":78,"record_years":30.7},"geometry":{"type":"Point","coordinates":[-119.85169,36.16491]}},{"type":"Feature","properties":{"station_id":"361744N1196196W001","well_use":"Irrigation","slope_ft_per_yr":-8.25,"p_value":0.0,"trend":"decreasing","n_measurements":31,"record_years":24.1},"geometry":{"type":"Point","coordinates":[-119.6196,36.1744]}},{"type":"Feature","properties":{"station_id":"361744N1196282W001","well_use":"Irrigation","slope_ft_per_yr":-1.312,"p_value":0.2719,"trend":"no trend","n_measurements":37,"record_years":31.0},"geometry":{"type":"Point","coordinates":[-119.62972,36.1744]}},{"type":"Feature","properties":{"station_id":"361750N1196368W001","well_use":"Irrigation","slope_ft_per_yr":0.014,"p_value":0.9827,"trend":"no trend","n_measurements":42,"record_years":29.6},"geometry":{"type":"Point","coordinates":[-119.6368,36.175]}},{"type":"Feature","properties":{"station_id":"361750N1196454W001","well_use":"Unknown","slope_ft_per_yr":-6.281,"p_value":0.0006,"trend":"decreasing","n_measurements":38,"record_years":23.6},"geometry":{"type":"Point","coordinates":[-119.6454,36.175]}},{"type":"Feature","properties":{"station_id":"361806N1196010W001","well_use":"Unknown","slope_ft_per_yr":-1.884,"p_value":0.002,"trend":"decreasing","n_measurements":36,"record_years":20.9},"geometry":{"type":"Point","coordinates":[-119.601,36.1806]}},{"type":"Feature","properties":{"station_id":"361850N1196188W001","well_use":"Irrigation","slope_ft_per_yr":-5.439,"p_value":0.0001,"trend":"decreasing","n_measurements":49,"record_years":31.0},"geometry":{"type":"Point","coordinates":[-119.6177,36.1823]}},{"type":"Feature","properties":{"station_id":"361889N1197082W001","well_use":"Unknown","slope_ft_per_yr":-8.463,"p_value":0.0054,"trend":"decreasing","n_measurements":21,"record_years":17.7},"geometry":{"type":"Point","coordinates":[-119.7082,36.1889]}},{"type":"Feature","properties":{"station_id":"361892N1197207W001","well_use":"Unknown","slope_ft_per_yr":-5.938,"p_value":0.0497,"trend":"decreasing","n_measurements":21,"record_years":15.9},"geometry":{"type":"Point","coordinates":[-119.7207,36.1892]}},{"type":"Feature","properties":{"station_id":"361900N1197210W001","well_use":"Unknown","slope_ft_per_yr":0.104,"p_value":0.0001,"trend":"increasing","n_measurements":65,"record_years":16.5},"geometry":{"type":"Point","coordinates":[-119.721,36.19]}},{"type":"Feature","properties":{"station_id":"361906N1196252W001","well_use":"Irrigation","slope_ft_per_yr":-4.418,"p_value":0.0,"trend":"decreasing","n_measurements":46,"record_years":31.0},"geometry":{"type":"Point","coordinates":[-119.6229,36.1893]}},{"type":"Feature","properties":{"station_id":"361958N1197257W001","well_use":"Irrigation","slope_ft_per_yr":-7.051,"p_value":0.0005,"trend":"decreasing","n_measurements":29,"record_years":28.4},"geometry":{"type":"Point","coordinates":[-119.7257,36.1958]}},{"type":"Feature","properties":{"station_id":"361983N1196704W001","well_use":"Unknown","slope_ft_per_yr":-7.49,"p_value":0.0123,"trend":"decreasing","n_measurements":27,"record_years":16.0},"geometry":{"type":"Point","coordinates":[-119.6704,36.1983]}},{"type":"Feature","properties":{"station_id":"362000N1196700W001","well_use":"Irrigation","slope_ft_per_yr":0.566,"p_value":0.3816,"trend":"no trend","n_measurements":30,"record_years":14.5},"geometry":{"type":"Point","coordinates":[-119.67,36.2]}},{"type":"Feature","properties":{"station_id":"362006N1196463W001","well_use":"Unknown","slope_ft_per_yr":11.255,"p_value":0.0131,"trend":"increasing","n_measurements":22,"record_years":14.0},"geometry":{"type":"Point","coordinates":[-119.6463,36.2006]}},{"type":"Feature","properties":{"station_id":"362017N1197066W001","well_use":"Unknown","slope_ft_per_yr":0.41,"p_value":0.0001,"trend":"increasing","n_measurements":23,"record_years":18.0},"geometry":{"type":"Point","coordinates":[-119.7066,36.2017]}},{"type":"Feature","properties":{"station_id":"362061N1198388W001","well_use":"Irrigation","slope_ft_per_yr":-3.483,"p_value":0.0008,"trend":"decreasing","n_measurements":36,"record_years":28.0},"geometry":{"type":"Point","coordinates":[-119.83923,36.20555]}},{"type":"Feature","properties":{"station_id":"362100N1198010W001","well_use":"Unknown","slope_ft_per_yr":-0.201,"p_value":0.0001,"trend":"decreasing","n_measurements":64,"record_years":16.5},"geometry":{"type":"Point","coordinates":[-119.801,36.21]}},{"type":"Feature","properties":{"station_id":"362106N1196685W001","well_use":"Unknown","slope_ft_per_yr":-9.103,"p_value":0.0011,"trend":"decreasing","n_measurements":30,"record_years":16.0},"geometry":{"type":"Point","coordinates":[-119.6685,36.2106]}},{"type":"Feature","properties":{"station_id":"362108N1197263W001","well_use":"Unknown","slope_ft_per_yr":-5.964,"p_value":0.0002,"trend":"decreasing","n_measurements":29,"record_years":19.0},"geometry":{"type":"Point","coordinates":[-119.7263,36.2108]}},{"type":"Feature","properties":{"station_id":"362400N1197110W001","well_use":"Unknown","slope_ft_per_yr":-0.194,"p_value":0.001,"trend":"decreasing","n_measurements":63,"record_years":16.5},"geometry":{"type":"Point","coordinates":[-119.711,36.24]}},{"type":"Feature","properties":{"station_id":"362400N1198300W001","well_use":"Observation","slope_ft_per_yr":-0.968,"p_value":0.2844,"trend":"no trend","n_measurements":30,"record_years":14.4},"geometry":{"type":"Point","coordinates":[-119.83458,36.24045]}},{"type":"Feature","properties":{"station_id":"362400N1198300W002","well_use":"Observation","slope_ft_per_yr":-0.973,"p_value":0.285,"trend":"no trend","n_measurements":29,"record_years":14.4},"geometry":{"type":"Point","coordinates":[-119.83458,36.24053]}},{"type":"Feature","properties":{"station_id":"362500N1198310W001","well_use":"Unknown","slope_ft_per_yr":-1.26,"p_value":0.0002,"trend":"decreasing","n_measurements":30,"record_years":20.1},"geometry":{"type":"Point","coordinates":[-119.83352,36.25102]}},{"type":"Feature","properties":{"station_id":"362541N1197293W001","well_use":"Irrigation","slope_ft_per_yr":-14.64,"p_value":0.0,"trend":"decreasing","n_measurements":32,"record_years":23.9},"geometry":{"type":"Point","coordinates":[-119.75,36.26]}},{"type":"Feature","properties":{"station_id":"362618N1197496W001","well_use":"Unknown","slope_ft_per_yr":-3.792,"p_value":0.0004,"trend":"decreasing","n_measurements":33,"record_years":31.0},"geometry":{"type":"Point","coordinates":[-119.73,36.25]}},{"type":"Feature","properties":{"station_id":"362667N1198352W001","well_use":"Irrigation","slope_ft_per_yr":-7.345,"p_value":0.0,"trend":"decreasing","n_measurements":25,"record_years":15.9},"geometry":{"type":"Point","coordinates":[-119.8352,36.2667]}},{"type":"Feature","properties":{"station_id":"362699N1197110W001","well_use":"Unknown","slope_ft_per_yr":-0.6,"p_value":0.0,"trend":"decreasing","n_measurements":63,"record_years":16.5},"geometry":{"type":"Point","coordinates":[-119.711,36.2699]}},{"type":"Feature","properties":{"station_id":"362764N1196760W001","well_use":"Unknown","slope_ft_per_yr":-6.201,"p_value":0.0,"trend":"decreasing","n_measurements":38,"record_years":21.0},"geometry":{"type":"Point","coordinates":[-119.676,36.2764]}},{"type":"Feature","properties":{"station_id":"362800N1197610W001","well_use":"Unknown","slope_ft_per_yr":-0.34,"p_value":0.0,"trend":"decreasing","n_measurements":65,"record_years":16.5},"geometry":{"type":"Point","coordinates":[-119.761,36.28]}},{"type":"Feature","properties":{"station_id":"362835N1197168W001","well_use":"Unknown","slope_ft_per_yr":-3.482,"p_value":0.0048,"trend":"decreasing","n_measurements":20,"record_years":21.0},"geometry":{"type":"Point","coordinates":[-119.7168,36.2835]}},{"type":"Feature","properties":{"station_id":"362857N1197277W001","well_use":"Unknown","slope_ft_per_yr":-0.99,"p_value":0.0008,"trend":"decreasing","n_measurements":21,"record_years":21.0},"geometry":{"type":"Point","coordinates":[-119.7277,36.2857]}},{"type":"Feature","properties":{"station_id":"362864N1195654W002","well_use":"Unknown","slope_ft_per_yr":-1.96,"p_value":0.0002,"trend":"decreasing","n_measurements":31,"record_years":30.5},"geometry":{"type":"Point","coordinates":[-119.5654,36.2864]}},{"type":"Feature","properties":{"station_id":"362867N1196727W001","well_use":"Unknown","slope_ft_per_yr":-6.175,"p_value":0.0001,"trend":"decreasing","n_measurements":28,"record_years":19.0},"geometry":{"type":"Point","coordinates":[-119.6727,36.2867]}},{"type":"Feature","properties":{"station_id":"362892N1196235W001","well_use":"Unknown","slope_ft_per_yr":-3.06,"p_value":0.0,"trend":"decreasing","n_measurements":35,"record_years":26.6},"geometry":{"type":"Point","coordinates":[-119.6235,36.2892]}},{"type":"Feature","properties":{"station_id":"362911N1196004W001","well_use":"Unknown","slope_ft_per_yr":-4.54,"p_value":0.0235,"trend":"decreasing","n_measurements":25,"record_years":17.0},"geometry":{"type":"Point","coordinates":[-119.6004,36.2911]}},{"type":"Feature","properties":{"station_id":"362942N1198432W001","well_use":"Unknown","slope_ft_per_yr":-2.316,"p_value":0.014,"trend":"decreasing","n_measurements":23,"record_years":15.9},"geometry":{"type":"Point","coordinates":[-119.8432,36.2942]}},{"type":"Feature","properties":{"station_id":"362944N1196910W001","well_use":"Unknown","slope_ft_per_yr":-4.202,"p_value":0.0151,"trend":"decreasing","n_measurements":22,"record_years":21.0},"geometry":{"type":"Point","coordinates":[-119.691,36.2944]}},{"type":"Feature","properties":{"station_id":"362980N1197471W001","well_use":"Unknown","slope_ft_per_yr":-0.874,"p_value":0.0005,"trend":"decreasing","n_measurements":21,"record_years":21.0},"geometry":{"type":"Point","coordinates":[-119.7471,36.298]}},{"type":"Feature","properties":{"station_id":"362981N1196189W001","well_use":"Observation","slope_ft_per_yr":-2.334,"p_value":0.0409,"trend":"decreasing","n_measurements":29,"record_years":14.5},"geometry":{"type":"Point","coordinates":[-119.61892,36.29808]}},{"type":"Feature","properties":{"station_id":"362981N1196629W001","well_use":"Unknown","slope_ft_per_yr":-3.428,"p_value":0.0003,"trend":"decreasing","n_measurements":24,"record_years":21.0},"geometry":{"type":"Point","coordinates":[-119.6629,36.2981]}},{"type":"Feature","properties":{"station_id":"362983N1195782W001","well_use":"Unknown","slope_ft_per_yr":-3.149,"p_value":0.0,"trend":"decreasing","n_measurements":30,"record_years":20.0},"geometry":{"type":"Point","coordinates":[-119.5782,36.2983]}},{"type":"Feature","properties":{"station_id":"363028N1196866W001","well_use":"Unknown","slope_ft_per_yr":-3.202,"p_value":0.1232,"trend":"no trend","n_measurements":21,"record_years":17.0},"geometry":{"type":"Point","coordinates":[-119.6866,36.3028]}},{"type":"Feature","properties":{"station_id":"363039N1196729W001","well_use":"Unknown","slope_ft_per_yr":-1.693,"p_value":0.0054,"trend":"decreasing","n_measurements":21,"record_years":21.0},"geometry":{"type":"Point","coordinates":[-119.6729,36.3039]}},{"type":"Feature","properties":{"station_id":"363042N1195679W001","well_use":"Unknown","slope_ft_per_yr":-2.267,"p_value":0.0422,"trend":"decreasing","n_measurements":25,"record_years":17.0},"geometry":{"type":"Point","coordinates":[-119.5679,36.3042]}},{"type":"Feature","properties":{"station_id":"363042N1195988W001","well_use":"Unknown","slope_ft_per_yr":-1.543,"p_value":0.0003,"trend":"decreasing","n_measurements":21,"record_years":19.5},"geometry":{"type":"Point","coordinates":[-119.5988,36.3042]}},{"type":"Feature","properties":{"station_id":"363053N1198438W001","well_use":"Irrigation","slope_ft_per_yr":-0.946,"p_value":0.0133,"trend":"decreasing","n_measurements":34,"record_years":23.0},"geometry":{"type":"Point","coordinates":[-119.84381,36.30531]}},{"type":"Feature","properties":{"station_id":"363061N1195877W001","well_use":"Unknown","slope_ft_per_yr":-2.434,"p_value":0.0017,"trend":"decreasing","n_measurements":32,"record_years":21.0},"geometry":{"type":"Point","coordinates":[-119.5877,36.3061]}},{"type":"Feature","properties":{"station_id":"363069N1196224W001","well_use":"Unknown","slope_ft_per_yr":-3.555,"p_value":0.0,"trend":"decreasing","n_measurements":25,"record_years":17.0},"geometry":{"type":"Point","coordinates":[-119.6224,36.3069]}},{"type":"Feature","properties":{"station_id":"363092N1198438W001","well_use":"Irrigation","slope_ft_per_yr":-3.21,"p_value":0.0,"trend":"decreasing","n_measurements":32,"record_years":23.6},"geometry":{"type":"Point","coordinates":[-119.8438,36.3092]}},{"type":"Feature","properties":{"station_id":"363128N1195916W001","well_use":"Unknown","slope_ft_per_yr":-2.456,"p_value":0.0,"trend":"decreasing","n_measurements":31,"record_years":21.0},"geometry":{"type":"Point","coordinates":[-119.5916,36.3128]}},{"type":"Feature","properties":{"station_id":"363128N1196816W001","well_use":"Unknown","slope_ft_per_yr":-1.085,"p_value":0.0222,"trend":"decreasing","n_measurements":39,"record_years":21.0},"geometry":{"type":"Point","coordinates":[-119.6816,36.3128]}},{"type":"Feature","properties":{"station_id":"363128N1198266W001","well_use":"Irrigation","slope_ft_per_yr":-8.241,"p_value":0.0,"trend":"decreasing","n_measurements":22,"record_years":15.1},"geometry":{"type":"Point","coordinates":[-119.8266,36.3128]}},{"type":"Feature","properties":{"station_id":"363142N1195685W001","well_use":"Residential","slope_ft_per_yr":-1.221,"p_value":0.0013,"trend":"decreasing","n_measurements":40,"record_years":31.0},"geometry":{"type":"Point","coordinates":[-119.5685,36.3142]}},{"type":"Feature","properties":{"station_id":"363144N1197968W001","well_use":"Residential","slope_ft_per_yr":-0.707,"p_value":0.0,"trend":"decreasing","n_measurements":49,"record_years":31.0},"geometry":{"type":"Point","coordinates":[-119.7968,36.3144]}},{"type":"Feature","properties":{"station_id":"363187N1196015W001","well_use":"Unknown","slope_ft_per_yr":-3.016,"p_value":0.0,"trend":"decreasing","n_measurements":27,"record_years":13.4},"geometry":{"type":"Point","coordinates":[-119.6015,36.3187]}},{"type":"Feature","properties":{"station_id":"363239N1196735W001","well_use":"Irrigation","slope_ft_per_yr":-2.562,"p_value":0.0,"trend":"decreasing","n_measurements":43,"record_years":21.0},"geometry":{"type":"Point","coordinates":[-119.6735,36.3239]}},{"type":"Feature","properties":{"station_id":"363269N1197113W001","well_use":"Unknown","slope_ft_per_yr":-2.611,"p_value":0.0006,"trend":"decreasing","n_measurements":21,"record_years":20.9},"geometry":{"type":"Point","coordinates":[-119.7113,36.3269]}},{"type":"Feature","properties":{"station_id":"363274N1197327W001","well_use":"Unknown","slope_ft_per_yr":-1.721,"p_value":0.0,"trend":"decreasing","n_measurements":34,"record_years":31.0},"geometry":{"type":"Point","coordinates":[-119.7327,36.3274]}},{"type":"Feature","properties":{"station_id":"363300N1198510W001","well_use":"Unknown","slope_ft_per_yr":-0.283,"p_value":0.0,"trend":"decreasing","n_measurements":64,"record_years":16.5},"geometry":{"type":"Point","coordinates":[-119.851,36.33]}},{"type":"Feature","properties":{"station_id":"363319N1195802W001","well_use":"Unknown","slope_ft_per_yr":-1.286,"p_value":0.0025,"trend":"decreasing","n_measurements":40,"record_years":21.0},"geometry":{"type":"Point","coordinates":[-119.5802,36.3319]}},{"type":"Feature","properties":{"station_id":"363386N1195563W001","well_use":"Unknown","slope_ft_per_yr":-2.416,"p_value":0.0002,"trend":"decreasing","n_measurements":36,"record_years":21.1},"geometry":{"type":"Point","coordinates":[-119.5563,36.3386]}},{"type":"Feature","properties":{"station_id":"363393N1195832W001","well_use":"Irrigation","slope_ft_per_yr":-2.489,"p_value":0.0,"trend":"decreasing","n_measurements":46,"record_years":27.1},"geometry":{"type":"Point","coordinates":[-119.58,36.34]}},{"type":"Feature","properties":{"station_id":"363417N1196979W001","well_use":"Irrigation","slope_ft_per_yr":-5.369,"p_value":0.0,"trend":"decreasing","n_measurements":41,"record_years":26.7},"geometry":{"type":"Point","coordinates":[-119.7,36.34]}},{"type":"Feature","properties":{"station_id":"363419N1196799W001","well_use":"Irrigation","slope_ft_per_yr":-1.504,"p_value":0.0,"trend":"decreasing","n_measurements":50,"record_years":31.0},"geometry":{"type":"Point","coordinates":[-119.68,36.34]}},{"type":"Feature","properties":{"station_id":"363422N1196063W001","well_use":"Unknown","slope_ft_per_yr":-2.626,"p_value":0.0,"trend":"decreasing","n_measurements":26,"record_years":17.9},"geometry":{"type":"Point","coordinates":[-119.6063,36.3422]}},{"type":"Feature","properties":{"station_id":"363500N1197800W001","well_use":"Observation","slope_ft_per_yr":-1.011,"p_value":0.4081,"trend":"no trend","n_measurements":32,"record_years":14.4},"geometry":{"type":"Point","coordinates":[-119.7806,36.34607]}},{"type":"Feature","properties":{"station_id":"363500N1197800W002","well_use":"Observation","slope_ft_per_yr":-0.551,"p_value":0.5748,"trend":"no trend","n_measurements":31,"record_years":14.4},"geometry":{"type":"Point","coordinates":[-119.78052,36.34609]}},{"type":"Feature","properties":{"station_id":"363500N1197800W003","well_use":"Observation","slope_ft_per_yr":0.106,"p_value":0.4264,"trend":"no trend","n_measurements":32,"record_years":14.4},"geometry":{"type":"Point","coordinates":[-119.78055,36.34604]}},{"type":"Feature","properties":{"station_id":"363506N1196213W001","well_use":"Unknown","slope_ft_per_yr":-1.149,"p_value":0.0001,"trend":"decreasing","n_measurements":39,"record_years":21.0},"geometry":{"type":"Point","coordinates":[-119.6213,36.3506]}},{"type":"Feature","properties":{"station_id":"363517N1196927W001","well_use":"Irrigation","slope_ft_per_yr":-1.648,"p_value":0.0005,"trend":"decreasing","n_measurements":21,"record_years":20.9},"geometry":{"type":"Point","coordinates":[-119.6927,36.3517]}},{"type":"Feature","properties":{"station_id":"363519N1197279W001","well_use":"Unknown","slope_ft_per_yr":-0.234,"p_value":0.0586,"trend":"no trend","n_measurements":22,"record_years":20.9},"geometry":{"type":"Point","coordinates":[-119.7279,36.3519]}},{"type":"Feature","properties":{"station_id":"363567N1195938W001","well_use":"Unknown","slope_ft_per_yr":-2.028,"p_value":0.0,"trend":"decreasing","n_measurements":30,"record_years":21.0},"geometry":{"type":"Point","coordinates":[-119.5938,36.3567]}},{"type":"Feature","properties":{"station_id":"363572N1195468W001","well_use":"Irrigation","slope_ft_per_yr":-1.835,"p_value":0.0,"trend":"decreasing","n_measurements":62,"record_years":31.0},"geometry":{"type":"Point","coordinates":[-119.5468,36.3572]}},{"type":"Feature","properties":{"station_id":"363589N1196074W001","well_use":"Unknown","slope_ft_per_yr":-1.643,"p_value":0.0001,"trend":"decreasing","n_measurements":38,"record_years":21.0},"geometry":{"type":"Point","coordinates":[-119.6074,36.3589]}},{"type":"Feature","properties":{"station_id":"363608N1195924W001","well_use":"Unknown","slope_ft_per_yr":-1.184,"p_value":0.006,"trend":"decreasing","n_measurements":39,"record_years":21.0},"geometry":{"type":"Point","coordinates":[-119.5924,36.3608]}},{"type":"Feature","properties":{"station_id":"363675N1197041W001","well_use":"Unknown","slope_ft_per_yr":-0.301,"p_value":0.0015,"trend":"decreasing","n_measurements":21,"record_years":20.9},"geometry":{"type":"Point","coordinates":[-119.7041,36.3675]}},{"type":"Feature","properties":{"station_id":"363675N1197188W001","well_use":"Unknown","slope_ft_per_yr":-0.301,"p_value":0.0317,"trend":"decreasing","n_measurements":22,"record_years":20.9},"geometry":{"type":"Point","coordinates":[-119.7188,36.3675]}},{"type":"Feature","properties":{"station_id":"363681N1197127W001","well_use":"Unknown","slope_ft_per_yr":-0.259,"p_value":0.019,"trend":"decreasing","n_measurements":22,"record_years":20.9},"geometry":{"type":"Point","coordinates":[-119.7127,36.3681]}},{"type":"Feature","properties":{"station_id":"363711N1196846W001","well_use":"Unknown","slope_ft_per_yr":-0.683,"p_value":0.0298,"trend":"decreasing","n_measurements":22,"record_years":20.9},"geometry":{"type":"Point","coordinates":[-119.6846,36.3711]}},{"type":"Feature","properties":{"station_id":"363719N1196754W001","well_use":"Unknown","slope_ft_per_yr":-1.316,"p_value":0.0049,"trend":"decreasing","n_measurements":21,"record_years":21.0},"geometry":{"type":"Point","coordinates":[-119.6754,36.3719]}},{"type":"Feature","properties":{"station_id":"363722N1196182W001","well_use":"Unknown","slope_ft_per_yr":-1.007,"p_value":0.002,"trend":"decreasing","n_measurements":21,"record_years":20.9},"geometry":{"type":"Point","coordinates":[-119.6182,36.3722]}},{"type":"Feature","properties":{"station_id":"363722N1197282W001","well_use":"Unknown","slope_ft_per_yr":2.752,"p_value":0.0,"trend":"increasing","n_measurements":23,"record_years":26.0},"geometry":{"type":"Point","coordinates":[-119.7282,36.3722]}},{"type":"Feature","properties":{"station_id":"363728N1196538W001","well_use":"Unknown","slope_ft_per_yr":-0.727,"p_value":0.0074,"trend":"decreasing","n_measurements":22,"record_years":20.9},"geometry":{"type":"Point","coordinates":[-119.6538,36.3728]}},{"type":"Feature","properties":{"station_id":"363764N1197093W001","well_use":"Unknown","slope_ft_per_yr":-2.029,"p_value":0.0068,"trend":"decreasing","n_measurements":22,"record_years":20.9},"geometry":{"type":"Point","coordinates":[-119.7093,36.3764]}},{"type":"Feature","properties":{"station_id":"363794N1196821W001","well_use":"Unknown","slope_ft_per_yr":-0.84,"p_value":0.0231,"trend":"decreasing","n_measurements":20,"record_years":17.9},"geometry":{"type":"Point","coordinates":[-119.6821,36.3794]}},{"type":"Feature","properties":{"station_id":"363863N1197571W001","well_use":"Irrigation","slope_ft_per_yr":-2.324,"p_value":0.0,"trend":"decreasing","n_measurements":44,"record_years":31.0},"geometry":{"type":"Point","coordinates":[-119.7571,36.3863]}},{"type":"Feature","properties":{"station_id":"363864N1196046W001","well_use":"Unknown","slope_ft_per_yr":-0.567,"p_value":0.0452,"trend":"decreasing","n_measurements":22,"record_years":20.9},"geometry":{"type":"Point","coordinates":[-119.6046,36.3864]}},{"type":"Feature","properties":{"station_id":"363894N1196557W001","well_use":"Unknown","slope_ft_per_yr":-1.08,"p_value":0.0141,"trend":"decreasing","n_measurements":22,"record_years":21.0},"geometry":{"type":"Point","coordinates":[-119.6557,36.3894]}},{"type":"Feature","properties":{"station_id":"363908N1197016W001","well_use":"Unknown","slope_ft_per_yr":-1.611,"p_value":0.011,"trend":"decreasing","n_measurements":22,"record_years":21.0},"geometry":{"type":"Point","coordinates":[-119.7016,36.3908]}},{"type":"Feature","properties":{"station_id":"363911N1195799W001","well_use":"Unknown","slope_ft_per_yr":-1.217,"p_value":0.0054,"trend":"decreasing","n_measurements":21,"record_years":20.9},"geometry":{"type":"Point","coordinates":[-119.5799,36.3911]}},{"type":"Feature","properties":{"station_id":"363927N1197477W001","well_use":"Irrigation","slope_ft_per_yr":-0.435,"p_value":0.0023,"trend":"decreasing","n_measurements":23,"record_years":21.0},"geometry":{"type":"Point","coordinates":[-119.75,36.39]}},{"type":"Feature","properties":{"station_id":"363931N1197227W001","well_use":"Unknown","slope_ft_per_yr":-1.861,"p_value":0.0007,"trend":"decreasing","n_measurements":21,"record_years":21.0},"geometry":{"type":"Point","coordinates":[-119.7227,36.3931]}},{"type":"Feature","properties":{"station_id":"363933N1196735W001","well_use":"Unknown","slope_ft_per_yr":-0.956,"p_value":0.011,"trend":"decreasing","n_measurements":22,"record_years":21.0},"geometry":{"type":"Point","coordinates":[-119.6735,36.3933]}},{"type":"Feature","properties":{"station_id":"363942N1196360W002","well_use":"Unknown","slope_ft_per_yr":-1.354,"p_value":0.0069,"trend":"decreasing","n_measurements":20,"record_years":20.9},"geometry":{"type":"Point","coordinates":[-119.636,36.3942]}},{"type":"Feature","properties":{"station_id":"363978N1196349W001","well_use":"Unknown","slope_ft_per_yr":-1.713,"p_value":0.0012,"trend":"decreasing","n_measurements":21,"record_years":21.0},"geometry":{"type":"Point","coordinates":[-119.6349,36.3978]}},{"type":"Feature","properties":{"station_id":"363992N1195716W001","well_use":"Unknown","slope_ft_per_yr":-1.408,"p_value":0.0002,"trend":"decreasing","n_measurements":25,"record_years":26.7},"geometry":{"type":"Point","coordinates":[-119.5716,36.3992]}},{"type":"Feature","properties":{"station_id":"364017N1197277W001","well_use":"Unknown","slope_ft_per_yr":-1.479,"p_value":0.0043,"trend":"decreasing","n_measurements":23,"record_years":21.0},"geometry":{"type":"Point","coordinates":[-119.7277,36.4017]}},{"type":"Feature","properties":{"station_id":"364019N1197179W001","well_use":"Unknown","slope_ft_per_yr":-1.984,"p_value":0.0057,"trend":"decreasing","n_measurements":22,"record_years":18.0},"geometry":{"type":"Point","coordinates":[-119.7179,36.4019]}},{"type":"Feature","properties":{"station_id":"364031N1195624W001","well_use":"Unknown","slope_ft_per_yr":-2.046,"p_value":0.0001,"trend":"decreasing","n_measurements":20,"record_years":21.0},"geometry":{"type":"Point","coordinates":[-119.5624,36.4031]}},{"type":"Feature","properties":{"station_id":"364033N1196960W001","well_use":"Irrigation","slope_ft_per_yr":-1.923,"p_value":0.0055,"trend":"decreasing","n_measurements":23,"record_years":21.0},"geometry":{"type":"Point","coordinates":[-119.696,36.4033]}},{"type":"Feature","properties":{"station_id":"364044N1195963W001","well_use":"Unknown","slope_ft_per_yr":-0.403,"p_value":0.7703,"trend":"no trend","n_measurements":20,"record_years":18.0},"geometry":{"type":"Point","coordinates":[-119.5963,36.4044]}},{"type":"Feature","properties":{"station_id":"364144N1196449W001","well_use":"Irrigation","slope_ft_per_yr":-2.386,"p_value":0.0,"trend":"decreasing","n_measurements":30,"record_years":19.0},"geometry":{"type":"Point","coordinates":[-119.6449,36.4144]}},{"type":"Feature","properties":{"station_id":"364150N1196196W001","well_use":"Unknown","slope_ft_per_yr":-1.797,"p_value":0.0058,"trend":"decreasing","n_measurements":20,"record_years":18.0},"geometry":{"type":"Point","coordinates":[-119.6196,36.415]}},{"type":"Feature","properties":{"station_id":"364156N1196638W001","well_use":"Unknown","slope_ft_per_yr":-1.956,"p_value":0.0012,"trend":"decreasing","n_measurements":21,"record_years":21.0},"geometry":{"type":"Point","coordinates":[-119.6638,36.4156]}},{"type":"Feature","properties":{"station_id":"364225N1196816W001","well_use":"Unknown","slope_ft_per_yr":-2.267,"p_value":0.0005,"trend":"decreasing","n_measurements":22,"record_years":21.0},"geometry":{"type":"Point","coordinates":[-119.6816,36.4225]}},{"type":"Feature","properties":{"station_id":"364303N1195841W001","well_use":"Irrigation","slope_ft_per_yr":-2.567,"p_value":0.0,"trend":"decreasing","n_measurements":35,"record_years":28.1},"geometry":{"type":"Point","coordinates":[-119.5841,36.4303]}}]}