{"type":"FeatureCollection","features":[{"type":"Feature","properties":{"station_id":"369600N1204283W001","well_use":"Irrigation","slope_ft_per_yr":-0.401,"p_value":0.4856,"trend":"no trend","n_measurements":41,"record_years":12.7},"geometry":{"type":"Point","coordinates":[-120.42829,36.95999]}},{"type":"Feature","properties":{"station_id":"369705N1203829W001","well_use":"Unknown","slope_ft_per_yr":-4.28,"p_value":0.0004,"trend":"decreasing","n_measurements":25,"record_years":24.1},"geometry":{"type":"Point","coordinates":[-120.3829,36.9705]}},{"type":"Feature","properties":{"station_id":"369810N1204413W001","well_use":"Irrigation","slope_ft_per_yr":-2.524,"p_value":0.0011,"trend":"decreasing","n_measurements":36,"record_years":24.7},"geometry":{"type":"Point","coordinates":[-120.4413,36.981]}},{"type":"Feature","properties":{"station_id":"369818N1204554W001","well_use":"Unknown","slope_ft_per_yr":-1.584,"p_value":0.1278,"trend":"no trend","n_measurements":22,"record_years":24.1},"geometry":{"type":"Point","coordinates":[-120.4554,36.9818]}},{"type":"Feature","properties":{"station_id":"369899N1204326W002","well_use":"Unknown","slope_ft_per_yr":0.0,"p_value":0.8942,"trend":"no trend","n_measurements":23,"record_years":15.5},"geometry":{"type":"Point","coordinates":[-120.43259,36.9899]}},{"type":"Feature","properties":{"station_id":"369949N1204377W001","well_use":"Unknown","slope_ft_per_yr":-2.429,"p_value":0.0025,"trend":"decreasing","n_measurements":28,"record_years":24.2},"geometry":{"type":"Point","coordinates":[-120.4377,36.9949]}},{"type":"Feature","properties":{"station_id":"369952N1203377W001","well_use":"Irrigation","slope_ft_per_yr":-1.55,"p_value":0.0152,"trend":"decreasing","n_measurements":26,"record_years":19.0},"geometry":{"type":"Point","coordinates":[-120.3377,36.9952]}},{"type":"Feature","properties":{"station_id":"369968N1203835W001","well_use":"Unknown","slope_ft_per_yr":-1.959,"p_value":0.0055,"trend":"decreasing","n_measurements":23,"record_years":15.1},"geometry":{"type":"Point","coordinates":[-120.3835,36.9968]}},{"type":"Feature","properties":{"station_id":"369998N1204577W001","well_use":"Unknown","slope_ft_per_yr":-1.73,"p_value":0.0212,"trend":"decreasing","n_measurements":32,"record_years":15.6},"geometry":{"type":"Point","coordinates":[-120.4577,36.99977]}},{"type":"Feature","properties":{"station_id":"370047N1203929W001","well_use":"Irrigation","slope_ft_per_yr":6.996,"p_value":0.0104,"trend":"increasing","n_measurements":20,"record_years":10.3},"geometry":{"type":"Point","coordinates":[-120.3929,37.00468]}},{"type":"Feature","properties":{"station_id":"370052N1203288W001","well_use":"Unknown","slope_ft_per_yr":-2.214,"p_value":0.0001,"trend":"decreasing","n_measurements":28,"record_years":19.1},"geometry":{"type":"Point","coordinates":[-120.3288,37.0052]}},{"type":"Feature","properties":{"station_id":"370105N1204479W001","well_use":"Unknown","slope_ft_per_yr":-2.373,"p_value":0.0231,"trend":"decreasing","n_measurements":20,"record_years":19.1},"geometry":{"type":"Point","coordinates":[-120.4479,37.0105]}},{"type":"Feature","properties":{"station_id":"370110N1204603W001","well_use":"Unknown","slope_ft_per_yr":-1.247,"p_value":0.0588,"trend":"no trend","n_measurements":24,"record_years":14.7},"geometry":{"type":"Point","coordinates":[-120.46025,37.01096]}},{"type":"Feature","properties":{"station_id":"370168N1203593W001","well_use":"Unknown","slope_ft_per_yr":-1.293,"p_value":0.0089,"trend":"decreasing","n_measurements":38,"record_years":31.2},"geometry":{"type":"Point","coordinates":[-120.3593,37.0168]}},{"type":"Feature","properties":{"station_id":"370174N1203593W001","well_use":"Unknown","slope_ft_per_yr":-1.328,"p_value":0.2989,"trend":"no trend","n_measurements":20,"record_years":12.1},"geometry":{"type":"Point","coordinates":[-120.3593,37.0174]}},{"type":"Feature","properties":{"station_id":"370177N1203202W001","well_use":"Unknown","slope_ft_per_yr":-3.257,"p_value":0.0156,"trend":"decreasing","n_measurements":27,"record_years":19.0},"geometry":{"type":"Point","coordinates":[-120.3202,37.0177]}},{"type":"Feature","properties":{"station_id":"370177N1204474W001","well_use":"Unknown","slope_ft_per_yr":0.504,"p_value":0.6315,"trend":"no trend","n_measurements":22,"record_years":19.0},"geometry":{"type":"Point","coordinates":[-120.4474,37.0177]}},{"type":"Feature","properties":{"station_id":"370180N1202571W001","well_use":"Unknown","slope_ft_per_yr":-2.98,"p_value":0.0012,"trend":"decreasing","n_measurements":22,"record_years":18.0},"geometry":{"type":"Point","coordinates":[-120.2571,37.018]}},{"type":"Feature","properties":{"station_id":"370180N1202960W001","well_use":"Unknown","slope_ft_per_yr":-3.76,"p_value":0.0002,"trend":"decreasing","n_measurements":27,"record_years":19.0},"geometry":{"type":"Point","coordinates":[-120.296,37.018]}},{"type":"Feature","properties":{"station_id":"370180N1205179W001","well_use":"Unknown","slope_ft_per_yr":-0.089,"p_value":0.544,"trend":"no trend","n_measurements":30,"record_years":31.1},"geometry":{"type":"Point","coordinates":[-120.5179,37.018]}},{"type":"Feature","properties":{"station_id":"370202N1205349W001","well_use":"Unknown","slope_ft_per_yr":-0.287,"p_value":0.1285,"trend":"no trend","n_measurements":35,"record_years":31.1},"geometry":{"type":"Point","coordinates":[-120.5349,37.0202]}},{"type":"Feature","properties":{"station_id":"370216N1204110W001","well_use":"Unknown","slope_ft_per_yr":-0.064,"p_value":0.8711,"trend":"no trend","n_measurements":20,"record_years":24.1},"geometry":{"type":"Point","coordinates":[-120.411,37.0216]}},{"type":"Feature","properties":{"station_id":"370238N1203107W001","well_use":"Irrigation","slope_ft_per_yr":-2.763,"p_value":0.0016,"trend":"decreasing","n_measurements":20,"record_years":10.5},"geometry":{"type":"Point","coordinates":[-120.3107,37.02375]}},{"type":"Feature","properties":{"station_id":"370241N1202529W001","well_use":"Unknown","slope_ft_per_yr":-1.886,"p_value":0.0058,"trend":"decreasing","n_measurements":24,"record_years":15.1},"geometry":{"type":"Point","coordinates":[-120.2529,37.0241]}},{"type":"Feature","properties":{"station_id":"370252N1202971W001","well_use":"Unknown","slope_ft_per_yr":-3.934,"p_value":0.0037,"trend":"decreasing","n_measurements":24,"record_years":18.1},"geometry":{"type":"Point","coordinates":[-120.2971,37.0252]}},{"type":"Feature","properties":{"station_id":"370255N1203107W001","well_use":"Unknown","slope_ft_per_yr":-3.584,"p_value":0.0,"trend":"decreasing","n_measurements":28,"record_years":19.0},"geometry":{"type":"Point","coordinates":[-120.3107,37.0255]}},{"type":"Feature","properties":{"station_id":"370280N1205444W001","well_use":"Observation","slope_ft_per_yr":0.048,"p_value":0.7882,"trend":"no trend","n_measurements":70,"record_years":16.0},"geometry":{"type":"Point","coordinates":[-120.5444,37.028]}},{"type":"Feature","properties":{"station_id":"370280N1205444W002","well_use":"Observation","slope_ft_per_yr":-0.063,"p_value":0.0,"trend":"decreasing","n_measurements":4799,"record_years":15.9},"geometry":{"type":"Point","coordinates":[-120.54439,37.02797]}},{"type":"Feature","properties":{"station_id":"370291N1204018W001","well_use":"Unknown","slope_ft_per_yr":-1.131,"p_value":0.002,"trend":"decreasing","n_measurements":25,"record_years":19.1},"geometry":{"type":"Point","coordinates":[-120.4018,37.0291]}},{"type":"Feature","properties":{"station_id":"370391N1204443W001","well_use":"Unknown","slope_ft_per_yr":-2.589,"p_value":0.0046,"trend":"decreasing","n_measurements":29,"record_years":30.2},"geometry":{"type":"Point","coordinates":[-120.4443,37.0391]}},{"type":"Feature","properties":{"station_id":"370393N1203471W001","well_use":"Unknown","slope_ft_per_yr":-4.293,"p_value":0.0,"trend":"decreasing","n_measurements":26,"record_years":19.0},"geometry":{"type":"Point","coordinates":[-120.3471,37.0393]}},{"type":"Feature","properties":{"station_id":"370393N1204649W001","well_use":"Unknown","slope_ft_per_yr":-0.037,"p_value":1.0,"trend":"no trend","n_measurements":21,"record_years":29.2},"geometry":{"type":"Point","coordinates":[-120.4649,37.0393]}},{"type":"Feature","properties":{"station_id":"370396N1202418W001","well_use":"Unknown","slope_ft_per_yr":-4.427,"p_value":0.0131,"trend":"decreasing","n_measurements":22,"record_years":19.0},"geometry":{"type":"Point","coordinates":[-120.2418,37.0396]}},{"type":"Feature","properties":{"station_id":"370396N1202746W001","well_use":"Unknown","slope_ft_per_yr":-2.297,"p_value":0.0,"trend":"decreasing","n_measurements":21,"record_years":16.3},"geometry":{"type":"Point","coordinates":[-120.2746,37.0396]}},{"type":"Feature","properties":{"station_id":"370396N1204104W001","well_use":"Unknown","slope_ft_per_yr":-1.313,"p_value":0.0366,"trend":"decreasing","n_measurements":23,"record_years":19.0},"geometry":{"type":"Point","coordinates":[-120.4104,37.0396]}},{"type":"Feature","properties":{"station_id":"370430N1205288W001","well_use":"Unknown","slope_ft_per_yr":0.205,"p_value":0.2515,"trend":"no trend","n_measurements":33,"record_years":31.1},"geometry":{"type":"Point","coordinates":[-120.5288,37.043]}},{"type":"Feature","properties":{"station_id":"370468N1204421W001","well_use":"Unknown","slope_ft_per_yr":-0.272,"p_value":0.5086,"trend":"no trend","n_measurements":23,"record_years":18.1},"geometry":{"type":"Point","coordinates":[-120.4421,37.0468]}},{"type":"Feature","properties":{"station_id":"370471N1203016W001","well_use":"Unknown","slope_ft_per_yr":-3.827,"p_value":0.015,"trend":"decreasing","n_measurements":24,"record_years":19.0},"geometry":{"type":"Point","coordinates":[-120.3016,37.0471]}},{"type":"Feature","properties":{"station_id":"370513N1204738W001","well_use":"Unknown","slope_ft_per_yr":-2.205,"p_value":0.0,"trend":"decreasing","n_measurements":27,"record_years":19.0},"geometry":{"type":"Point","coordinates":[-120.4738,37.0513]}},{"type":"Feature","properties":{"station_id":"370516N1202571W001","well_use":"Unknown","slope_ft_per_yr":-6.152,"p_value":0.0,"trend":"decreasing","n_measurements":39,"record_years":31.2},"geometry":{"type":"Point","coordinates":[-120.2571,37.0516]}},{"type":"Feature","properties":{"station_id":"370524N1204035W001","well_use":"Unknown","slope_ft_per_yr":-2.573,"p_value":0.0003,"trend":"decreasing","n_measurements":23,"record_years":19.0},"geometry":{"type":"Point","coordinates":[-120.4035,37.0524]}},{"type":"Feature","properties":{"station_id":"370527N1203571W001","well_use":"Unknown","slope_ft_per_yr":-4.142,"p_value":0.0034,"trend":"decreasing","n_measurements":23,"record_years":19.0},"geometry":{"type":"Point","coordinates":[-120.3571,37.0527]}},{"type":"Feature","properties":{"station_id":"370543N1204471W001","well_use":"Unknown","slope_ft_per_yr":-1.364,"p_value":0.003,"trend":"decreasing","n_measurements":27,"record_years":18.1},"geometry":{"type":"Point","coordinates":[-120.4471,37.0543]}},{"type":"Feature","properties":{"station_id":"370555N1204193W001","well_use":"Unknown","slope_ft_per_yr":-1.491,"p_value":0.0162,"trend":"decreasing","n_measurements":26,"record_years":15.1},"geometry":{"type":"Point","coordinates":[-120.4193,37.0555]}},{"type":"Feature","properties":{"station_id":"370568N1203307W001","well_use":"Irrigation","slope_ft_per_yr":0.0,"p_value":0.7183,"trend":"no trend","n_measurements":50,"record_years":31.2},"geometry":{"type":"Point","coordinates":[-120.3307,37.0568]}},{"type":"Feature","properties":{"station_id":"370582N1204596W001","well_use":"Unknown","slope_ft_per_yr":-1.288,"p_value":0.0,"trend":"decreasing","n_measurements":25,"record_years":19.0},"geometry":{"type":"Point","coordinates":[-120.4596,37.0582]}},{"type":"Feature","properties":{"station_id":"370613N1203746W001","well_use":"Unknown","slope_ft_per_yr":-0.858,"p_value":0.0001,"trend":"decreasing","n_measurements":42,"record_years":31.2},"geometry":{"type":"Point","coordinates":[-120.3746,37.0613]}},{"type":"Feature","properties":{"station_id":"370613N1203804W001","well_use":"Unknown","slope_ft_per_yr":-1.176,"p_value":0.0361,"trend":"decreasing","n_measurements":28,"record_years":19.0},"geometry":{"type":"Point","coordinates":[-120.3804,37.0613]}},{"type":"Feature","properties":{"station_id":"370641N1204402W001","well_use":"Unknown","slope_ft_per_yr":-1.758,"p_value":0.005,"trend":"decreasing","n_measurements":23,"record_years":19.0},"geometry":{"type":"Point","coordinates":[-120.4402,37.0641]}},{"type":"Feature","properties":{"station_id":"370646N1204193W001","well_use":"Irrigation","slope_ft_per_yr":-3.53,"p_value":0.0,"trend":"decreasing","n_measurements":32,"record_years":19.0},"geometry":{"type":"Point","coordinates":[-120.4193,37.0646]}},{"type":"Feature","properties":{"station_id":"370649N1204466W001","well_use":"Unknown","slope_ft_per_yr":-1.958,"p_value":0.001,"trend":"decreasing","n_measurements":26,"record_years":19.0},"geometry":{"type":"Point","coordinates":[-120.4466,37.0649]}},{"type":"Feature","properties":{"station_id":"370663N1204779W001","well_use":"Unknown","slope_ft_per_yr":-0.405,"p_value":0.384,"trend":"no trend","n_measurements":28,"record_years":26.1},"geometry":{"type":"Point","coordinates":[-120.4779,37.0663]}},{"type":"Feature","properties":{"station_id":"370691N1202477W001","well_use":"Irrigation","slope_ft_per_yr":-5.84,"p_value":0.0,"trend":"decreasing","n_measurements":20,"record_years":19.1},"geometry":{"type":"Point","coordinates":[-120.2477,37.0691]}},{"type":"Feature","properties":{"station_id":"370732N1202342W001","well_use":"Irrigation","slope_ft_per_yr":-4.641,"p_value":0.0,"trend":"decreasing","n_measurements":20,"record_years":10.5},"geometry":{"type":"Point","coordinates":[-120.2342,37.0732]}},{"type":"Feature","properties":{"station_id":"370763N1204196W001","well_use":"Unknown","slope_ft_per_yr":-1.335,"p_value":0.0468,"trend":"decreasing","n_measurements":25,"record_years":19.0},"geometry":{"type":"Point","coordinates":[-120.4196,37.0763]}},{"type":"Feature","properties":{"station_id":"370796N1202927W001","well_use":"Unknown","slope_ft_per_yr":-4.368,"p_value":0.0,"trend":"decreasing","n_measurements":25,"record_years":18.3},"geometry":{"type":"Point","coordinates":[-120.2927,37.0796]}},{"type":"Feature","properties":{"station_id":"370802N1202343W001","well_use":"Unknown","slope_ft_per_yr":-4.773,"p_value":0.0,"trend":"decreasing","n_measurements":28,"record_years":19.1},"geometry":{"type":"Point","coordinates":[-120.2343,37.0802]}},{"type":"Feature","properties":{"station_id":"370821N1202846W001","well_use":"Unknown","slope_ft_per_yr":-2.345,"p_value":0.0978,"trend":"no trend","n_measurements":26,"record_years":18.3},"geometry":{"type":"Point","coordinates":[-120.2846,37.0821]}},{"type":"Feature","properties":{"station_id":"370830N1203591W001","well_use":"Unknown","slope_ft_per_yr":-4.252,"p_value":0.0,"trend":"decreasing","n_measurements":24,"record_years":19.0},"geometry":{"type":"Point","coordinates":[-120.3591,37.083]}},{"type":"Feature","properties":{"station_id":"370835N1203829W001","well_use":"Unknown","slope_ft_per_yr":-0.329,"p_value":0.3692,"trend":"no trend","n_measurements":27,"record_years":19.1},"geometry":{"type":"Point","coordinates":[-120.3829,37.0835]}},{"type":"Feature","properties":{"station_id":"370860N1202571W001","well_use":"Unknown","slope_ft_per_yr":-0.756,"p_value":0.4125,"trend":"no trend","n_measurements":23,"record_years":18.1},"geometry":{"type":"Point","coordinates":[-120.2571,37.086]}},{"type":"Feature","properties":{"station_id":"370882N1203471W001","well_use":"Observation","slope_ft_per_yr":0.891,"p_value":0.2039,"trend":"no trend","n_measurements":22,"record_years":10.4},"geometry":{"type":"Point","coordinates":[-120.34705,37.08822]}},{"type":"Feature","properties":{"station_id":"370902N1203741W001","well_use":"Unknown","slope_ft_per_yr":-4.554,"p_value":0.0,"trend":"decreasing","n_measurements":43,"record_years":31.2},"geometry":{"type":"Point","coordinates":[-120.3741,37.0902]}},{"type":"Feature","properties":{"station_id":"370913N1202924W001","well_use":"Unknown","slope_ft_per_yr":-4.487,"p_value":0.0,"trend":"decreasing","n_measurements":36,"record_years":31.2},"geometry":{"type":"Point","coordinates":[-120.2924,37.0913]}},{"type":"Feature","properties":{"station_id":"370955N1203524W001","well_use":"Unknown","slope_ft_per_yr":-1.99,"p_value":0.2471,"trend":"no trend","n_measurements":22,"record_years":19.0},"geometry":{"type":"Point","coordinates":[-120.3524,37.0955]}},{"type":"Feature","properties":{"station_id":"370955N1204646W001","well_use":"Unknown","slope_ft_per_yr":0.0,"p_value":0.97,"trend":"no trend","n_measurements":29,"record_years":19.0},"geometry":{"type":"Point","coordinates":[-120.4646,37.0955]}},{"type":"Feature","properties":{"station_id":"370977N1203852W001","well_use":"Unknown","slope_ft_per_yr":-1.131,"p_value":0.0717,"trend":"no trend","n_measurements":25,"record_years":19.1},"geometry":{"type":"Point","coordinates":[-120.3852,37.0977]}},{"type":"Feature","properties":{"station_id":"371021N1202049W001","well_use":"Unknown","slope_ft_per_yr":-3.201,"p_value":0.0001,"trend":"decreasing","n_measurements":32,"record_years":17.1},"geometry":{"type":"Point","coordinates":[-120.2049,37.1021]}},{"type":"Feature","properties":{"station_id":"371049N1201663W001","well_use":"Unknown","slope_ft_per_yr":-0.411,"p_value":0.7098,"trend":"no trend","n_measurements":24,"record_years":16.1},"geometry":{"type":"Point","coordinates":[-120.1663,37.1049]}},{"type":"Feature","properties":{"station_id":"371049N1203296W001","well_use":"Unknown","slope_ft_per_yr":0.068,"p_value":0.7331,"trend":"no trend","n_measurements":31,"record_years":31.2},"geometry":{"type":"Point","coordinates":[-120.3296,37.1049]}},{"type":"Feature","properties":{"station_id":"371124N1203952W001","well_use":"Unknown","slope_ft_per_yr":-2.894,"p_value":0.0043,"trend":"decreasing","n_measurements":25,"record_years":16.1},"geometry":{"type":"Point","coordinates":[-120.3952,37.1124]}},{"type":"Feature","properties":{"station_id":"371127N1203057W001","well_use":"Unknown","slope_ft_per_yr":-2.962,"p_value":0.0007,"trend":"decreasing","n_measurements":24,"record_years":18.1},"geometry":{"type":"Point","coordinates":[-120.3057,37.1127]}},{"type":"Feature","properties":{"station_id":"371132N1203335W001","well_use":"Unknown","slope_ft_per_yr":-2.784,"p_value":0.0012,"trend":"decreasing","n_measurements":20,"record_years":14.3},"geometry":{"type":"Point","coordinates":[-120.3335,37.1132]}},{"type":"Feature","properties":{"station_id":"371149N1203202W001","well_use":"Unknown","slope_ft_per_yr":-3.517,"p_value":0.0,"trend":"decreasing","n_measurements":28,"record_years":18.1},"geometry":{"type":"Point","coordinates":[-120.3202,37.1149]}},{"type":"Feature","properties":{"station_id":"371160N1204207W001","well_use":"Residential","slope_ft_per_yr":-3.697,"p_value":0.0,"trend":"decreasing","n_measurements":39,"record_years":31.2},"geometry":{"type":"Point","coordinates":[-120.41927,37.11664]}},{"type":"Feature","properties":{"station_id":"371243N1203829W001","well_use":"Unknown","slope_ft_per_yr":1.022,"p_value":0.1032,"trend":"no trend","n_measurements":27,"record_years":19.1},"geometry":{"type":"Point","coordinates":[-120.3829,37.1243]}},{"type":"Feature","properties":{"station_id":"371296N1202477W001","well_use":"Unknown","slope_ft_per_yr":0.538,"p_value":0.2001,"trend":"no trend","n_measurements":26,"record_years":19.1},"geometry":{"type":"Point","coordinates":[-120.2477,37.1296]}},{"type":"Feature","properties":{"station_id":"371341N1201577W001","well_use":"Irrigation","slope_ft_per_yr":-3.861,"p_value":0.0,"trend":"decreasing","n_measurements":30,"record_years":24.2},"geometry":{"type":"Point","coordinates":[-120.1577,37.1341]}},{"type":"Feature","properties":{"station_id":"371341N1202935W001","well_use":"Residential","slope_ft_per_yr":-4.523,"p_value":0.0,"trend":"decreasing","n_measurements":24,"record_years":19.1},"geometry":{"type":"Point","coordinates":[-120.2935,37.1341]}},{"type":"Feature","properties":{"station_id":"371382N1202521W001","well_use":"Unknown","slope_ft_per_yr":-3.704,"p_value":0.0019,"trend":"decreasing","n_measurements":21,"record_years":19.1},"geometry":{"type":"Point","coordinates":[-120.2521,37.1382]}},{"type":"Feature","properties":{"station_id":"371396N1202732W001","well_use":"Unknown","slope_ft_per_yr":-1.052,"p_value":0.0295,"trend":"decreasing","n_measurements":22,"record_years":19.1},"geometry":{"type":"Point","coordinates":[-120.2732,37.1396]}},{"type":"Feature","properties":{"station_id":"371416N1203566W001","well_use":"Unknown","slope_ft_per_yr":-2.742,"p_value":0.0012,"trend":"decreasing","n_measurements":22,"record_years":19.1},"geometry":{"type":"Point","coordinates":[-120.3566,37.1416]}},{"type":"Feature","properties":{"station_id":"371418N1202110W001","well_use":"Unknown","slope_ft_per_yr":-3.807,"p_value":0.0,"trend":"decreasing","n_measurements":25,"record_years":19.1},"geometry":{"type":"Point","coordinates":[-120.211,37.1418]}},{"type":"Feature","properties":{"station_id":"371418N1202338W001","well_use":"Irrigation","slope_ft_per_yr":-5.979,"p_value":0.0,"trend":"decreasing","n_measurements":40,"record_years":31.1},"geometry":{"type":"Point","coordinates":[-120.2338,37.1418]}},{"type":"Feature","properties":{"station_id":"371427N1204043W001","well_use":"Irrigation","slope_ft_per_yr":-1.484,"p_value":0.0003,"trend":"decreasing","n_measurements":36,"record_years":23.4},"geometry":{"type":"Point","coordinates":[-120.4043,37.1427]}},{"type":"Feature","properties":{"station_id":"371446N1203474W001","well_use":"Unknown","slope_ft_per_yr":-4.892,"p_value":0.0,"trend":"decreasing","n_measurements":31,"record_years":29.2},"geometry":{"type":"Point","coordinates":[-120.3474,37.1446]}},{"type":"Feature","properties":{"station_id":"371466N1204171W001","well_use":"Unknown","slope_ft_per_yr":4.569,"p_value":0.019,"trend":"increasing","n_measurements":29,"record_years":19.1},"geometry":{"type":"Point","coordinates":[-120.4171,37.1466]}},{"type":"Feature","properties":{"station_id":"371474N1202741W001","well_use":"Unknown","slope_ft_per_yr":1.319,"p_value":0.1713,"trend":"no trend","n_measurements":26,"record_years":16.1},"geometry":{"type":"Point","coordinates":[-120.2741,37.1474]}},{"type":"Feature","properties":{"station_id":"371485N1203916W001","well_use":"Unknown","slope_ft_per_yr":0.289,"p_value":0.7542,"trend":"no trend","n_measurements":27,"record_years":19.1},"geometry":{"type":"Point","coordinates":[-120.3916,37.1485]}},{"type":"Feature","properties":{"station_id":"371488N1203921W001","well_use":"Unknown","slope_ft_per_yr":2.793,"p_value":0.0076,"trend":"increasing","n_measurements":26,"record_years":19.1},"geometry":{"type":"Point","coordinates":[-120.3921,37.1488]}},{"type":"Feature","properties":{"station_id":"371491N1201388W001","well_use":"Unknown","slope_ft_per_yr":-4.203,"p_value":0.0002,"trend":"decreasing","n_measurements":24,"record_years":15.1},"geometry":{"type":"Point","coordinates":[-120.1388,37.1491]}},{"type":"Feature","properties":{"station_id":"371491N1202474W001","well_use":"Unknown","slope_ft_per_yr":-4.04,"p_value":0.0001,"trend":"decreasing","n_measurements":27,"record_years":19.1},"geometry":{"type":"Point","coordinates":[-120.2474,37.1491]}},{"type":"Feature","properties":{"station_id":"371493N1203468W001","well_use":"Unknown","slope_ft_per_yr":-2.565,"p_value":0.0,"trend":"decreasing","n_measurements":22,"record_years":18.0},"geometry":{"type":"Point","coordinates":[-120.3468,37.1493]}},{"type":"Feature","properties":{"station_id":"371524N1202916W001","well_use":"Unknown","slope_ft_per_yr":-2.936,"p_value":0.0028,"trend":"decreasing","n_measurements":21,"record_years":14.7},"geometry":{"type":"Point","coordinates":[-120.2916,37.1524]}},{"type":"Feature","properties":{"station_id":"371555N1202949W001","well_use":"Unknown","slope_ft_per_yr":-4.785,"p_value":0.0,"trend":"decreasing","n_measurements":20,"record_years":19.1},"geometry":{"type":"Point","coordinates":[-120.2949,37.1555]}},{"type":"Feature","properties":{"station_id":"371560N1202063W001","well_use":"Unknown","slope_ft_per_yr":-5.749,"p_value":0.0,"trend":"decreasing","n_measurements":33,"record_years":30.1},"geometry":{"type":"Point","coordinates":[-120.2063,37.156]}},{"type":"Feature","properties":{"station_id":"371596N1203382W001","well_use":"Unknown","slope_ft_per_yr":-1.905,"p_value":0.0201,"trend":"decreasing","n_measurements":21,"record_years":15.1},"geometry":{"type":"Point","coordinates":[-120.3382,37.1596]}},{"type":"Feature","properties":{"station_id":"371638N1203021W001","well_use":"Unknown","slope_ft_per_yr":-3.502,"p_value":0.0,"trend":"decreasing","n_measurements":25,"record_years":25.1},"geometry":{"type":"Point","coordinates":[-120.3021,37.1638]}},{"type":"Feature","properties":{"station_id":"371710N1203746W001","well_use":"Irrigation","slope_ft_per_yr":-4.457,"p_value":0.0,"trend":"decreasing","n_measurements":31,"record_years":26.5},"geometry":{"type":"Point","coordinates":[-120.3746,37.171]}},{"type":"Feature","properties":{"station_id":"371713N1203293W001","well_use":"Unknown","slope_ft_per_yr":-1.213,"p_value":0.1309,"trend":"no trend","n_measurements":21,"record_years":16.1},"geometry":{"type":"Point","coordinates":[-120.3293,37.1713]}},{"type":"Feature","properties":{"station_id":"371852N1203835W001","well_use":"Unknown","slope_ft_per_yr":-5.191,"p_value":0.0013,"trend":"decreasing","n_measurements":20,"record_years":14.7},"geometry":{"type":"Point","coordinates":[-120.3835,37.1852]}}]}