{"type":"FeatureCollection","features":[{"type":"Feature","properties":{"pwsid":"CA1000054","pws_name":"LAS DELTAS MUTUAL WATER COMPANY","pop_served":375,"connections":75,"geom_type":"polygon","sgti_ft_per_yr":0.348,"n_wells_used":2,"n_wells_significant":0,"vuln_rank":5,"radius_m":2000},"geometry":{"type":"MultiPolygon","coordinates":[[[[-120.44046,36.79671],[-120.44486,36.79969],[-120.44041,36.79968],[-120.44036,36.80341],[-120.44152,36.80348],[-120.4415,36.80441],[-120.4413,36.80441],[-120.44134,36.80534],[-120.44031,36.80533],[-120.44029,36.80695],[-120.44119,36.80696],[-120.44118,36.80661],[-120.44474,36.80656],[-120.44474,36.80695],[-120.4455,36.80695],[-120.44548,36.80661],[-120.44628,36.80659],[-120.44629,36.80695],[-120.44928,36.80694],[-120.44928,36.80656],[-120.4501,36.80657],[-120.45012,36.80694],[-120.45329,36.80695],[-120.45331,36.80545],[-120.45833,36.80884],[-120.4585,36.80975],[-120.45959,36.80975],[-120.46058,36.8106],[-120.45848,36.8106],[-120.45832,36.8115],[-120.4598,36.81152],[-120.45978,36.81268],[-120.45842,36.81268],[-120.4584,36.81433],[-120.46473,36.8143],[-120.46731,36.81781],[-120.45834,36.81792],[-120.45831,36.81266],[-120.45746,36.81164],[-120.45652,36.81167],[-120.45654,36.8106],[-120.44282,36.81053],[-120.43404,36.81065],[-120.43409,36.80714],[-120.4296,36.80718],[-120.43227,36.80949],[-120.42689,36.80953],[-120.42092,36.8027],[-120.42708,36.80255],[-120.4281,36.80549],[-120.42874,36.80645],[-120.42705,36.80125],[-120.42594,36.79946],[-120.42533,36.79865],[-120.42451,36.79794],[-120.42225,36.79688],[-120.42228,36.79429],[-120.43722,36.80699],[-120.4399,36.80701],[-120.44021,36.79964],[-120.43127,36.79968],[-120.43124,36.79617],[-120.44044,36.79608],[-120.44041,36.79328],[-120.439,36.79334],[-120.43894,36.79256],[-120.43403,36.79264],[-120.43383,36.79324],[-120.43331,36.79325],[-120.43277,36.79318],[-120.43241,36.79265],[-120.42353,36.79272],[-120.42357,36.79365],[-120.42263,36.79427],[-120.42083,36.79274],[-120.42084,36.79253],[-120.42651,36.7925],[-120.42715,36.79198],[-120.42806,36.79196],[-120.42871,36.79249],[-120.43202,36.79247],[-120.43201,36.78966],[-120.43455,36.79176],[-120.43455,36.79246],[-120.4403,36.7924],[-120.44081,36.77927],[-120.44172,36.78212],[-120.44495,36.78583],[-120.44999,36.79099],[-120.45379,36.79245],[-120.45841,36.79248],[-120.45809,36.80859],[-120.4436,36.79872],[-120.44046,36.79671]]],[[[-120.43997,36.81057],[-120.43999,36.82173],[-120.44002,36.82481],[-120.43511,36.81916],[-120.43973,36.8192],[-120.43987,36.81534],[-120.43699,36.81552],[-120.43693,36.81433],[-120.43992,36.81405],[-120.43997,36.81057]]]]}},{"type":"Feature","properties":{"pwsid":"CA1000585","pws_name":"MURRIETA/HERNANDEZ FARMS","pop_served":25,"connections":10,"geom_type":"polygon","sgti_ft_per_yr":-0.221,"n_wells_used":3,"n_wells_significant":0,"vuln_rank":4,"radius_m":2000},"geometry":{"type":"Polygon","coordinates":[[[-120.44529,36.65464],[-120.44524,36.65754],[-120.44256,36.65754],[-120.44262,36.65465],[-120.44529,36.65464]]]}},{"type":"Feature","properties":{"pwsid":"CA1009020","pws_name":"FIVE POINTS RANCH","pop_served":98,"connections":8,"geom_type":"polygon","sgti_ft_per_yr":-6.382,"n_wells_used":2,"n_wells_significant":2,"vuln_rank":2,"radius_m":2000},"geometry":{"type":"Polygon","coordinates":[[[-120.26583,36.43183],[-120.26264,36.43192],[-120.26259,36.42895],[-120.26541,36.42892],[-120.26539,36.42787],[-120.26745,36.42786],[-120.26744,36.42892],[-120.26582,36.42897],[-120.26583,36.43183]]]}},{"type":"Feature","properties":{"pwsid":"CA1009051","pws_name":"CANTUA CREEK VINEYARDS, IV, LLC.","pop_served":52,"connections":16,"geom_type":"polygon","sgti_ft_per_yr":-7.656,"n_wells_used":1,"n_wells_significant":1,"vuln_rank":1,"radius_m":2000},"geometry":{"type":"Polygon","coordinates":[[[-120.31317,36.50133],[-120.31611,36.50143],[-120.31624,36.50222],[-120.3162,36.5065],[-120.31577,36.50645],[-120.31559,36.50621],[-120.31565,36.5044],[-120.31539,36.50327],[-120.31348,36.50341],[-120.31299,36.50324],[-120.31288,36.50285],[-120.31317,36.50133]]]}},{"type":"Feature","properties":{"pwsid":"CA1010030","pws_name":"TRANQUILLITY IRRIGATION DISTRICT","pop_served":807,"connections":340,"geom_type":"polygon","sgti_ft_per_yr":-2.097,"n_wells_used":3,"n_wells_significant":1,"vuln_rank":3,"radius_m":2000},"geometry":{"type":"Polygon","coordinates":[[[-120.30308,36.6393],[-120.30073,36.64616],[-120.30062,36.65315],[-120.30121,36.6543],[-120.29778,36.66132],[-120.29756,36.66132],[-120.29756,36.66869],[-120.28811,36.66866],[-120.28731,36.66885],[-120.28694,36.67061],[-120.28533,36.67377],[-120.27438,36.67712],[-120.27374,36.67702],[-120.2735,36.67674],[-120.27327,36.67565],[-120.27295,36.67214],[-120.2724,36.67182],[-120.27225,36.67139],[-120.27137,36.67137],[-120.27007,36.67062],[-120.26612,36.66904],[-120.26422,36.66867],[-120.26324,36.6686],[-120.2626,36.66894],[-120.2619,36.6691],[-120.26138,36.669],[-120.26108,36.66878],[-120.25895,36.66828],[-120.25797,36.66839],[-120.25758,36.66904],[-120.25705,36.66902],[-120.25694,36.66884],[-120.25724,36.66731],[-120.25695,36.66721],[-120.2568,36.6669],[-120.25689,36.66664],[-120.25767,36.66633],[-120.25772,36.66613],[-120.25532,36.66461],[-120.25333,36.66407],[-120.25238,36.66357],[-120.24829,36.66111],[-120.24356,36.65752],[-120.24109,36.6561],[-120.23992,36.65315],[-120.23679,36.65128],[-120.235,36.64642],[-120.23469,36.64613],[-120.23377,36.64418],[-120.23131,36.63745],[-120.23021,36.63371],[-120.2276,36.62679],[-120.22757,36.62587],[-120.22709,36.62424],[-120.22454,36.61722],[-120.22525,36.61722],[-120.22534,36.60259],[-120.25473,36.60262],[-120.26196,36.58984],[-120.25975,36.5882],[-120.26133,36.5882],[-120.27955,36.60272],[-120.27958,36.61054],[-120.28427,36.61755],[-120.29769,36.61758],[-120.29769,36.62812],[-120.30141,36.62941],[-120.30256,36.63189],[-120.30384,36.63341],[-120.30414,36.63401],[-120.30308,36.6393]]]}}]}