{"type":"FeatureCollection","features":[{"type":"Feature","properties":{"station_id":"357469N1191838W001","well_use":"Observation","slope_ft_per_yr":-5.101,"p_value":0.0,"trend":"decreasing","n_measurements":58,"record_years":31.1},"geometry":{"type":"Point","coordinates":[-119.1828,35.74723]}},{"type":"Feature","properties":{"station_id":"357469N1191838W002","well_use":"Observation","slope_ft_per_yr":-6.41,"p_value":0.0,"trend":"decreasing","n_measurements":52,"record_years":31.1},"geometry":{"type":"Point","coordinates":[-119.1828,35.74723]}},{"type":"Feature","properties":{"station_id":"357608N1191965W001","well_use":"Unknown","slope_ft_per_yr":-4.942,"p_value":0.0,"trend":"decreasing","n_measurements":32,"record_years":24.8},"geometry":{"type":"Point","coordinates":[-119.1965,35.7608]}},{"type":"Feature","properties":{"station_id":"357911N1190987W001","well_use":"Irrigation","slope_ft_per_yr":-2.402,"p_value":0.0206,"trend":"decreasing","n_measurements":26,"record_years":28.0},"geometry":{"type":"Point","coordinates":[-119.09803,35.79103]}},{"type":"Feature","properties":{"station_id":"357913N1191702W001","well_use":"Unknown","slope_ft_per_yr":-4.792,"p_value":0.0,"trend":"decreasing","n_measurements":29,"record_years":24.8},"geometry":{"type":"Point","coordinates":[-119.1702,35.7913]}},{"type":"Feature","properties":{"station_id":"357944N1190845W001","well_use":"Irrigation","slope_ft_per_yr":-2.994,"p_value":0.0,"trend":"decreasing","n_measurements":299,"record_years":30.5},"geometry":{"type":"Point","coordinates":[-119.08474,35.79457]}},{"type":"Feature","properties":{"station_id":"357978N1190798W001","well_use":"Irrigation","slope_ft_per_yr":-2.08,"p_value":0.0131,"trend":"decreasing","n_measurements":27,"record_years":24.0},"geometry":{"type":"Point","coordinates":[-119.0798,35.7978]}},{"type":"Feature","properties":{"station_id":"357986N1191059W001","well_use":"Unknown","slope_ft_per_yr":-0.443,"p_value":0.6533,"trend":"no trend","n_measurements":23,"record_years":23.7},"geometry":{"type":"Point","coordinates":[-119.1059,35.7986]}},{"type":"Feature","properties":{"station_id":"358014N1191834W002","well_use":"Unknown","slope_ft_per_yr":-4.325,"p_value":0.0016,"trend":"decreasing","n_measurements":22,"record_years":31.1},"geometry":{"type":"Point","coordinates":[-119.18355,35.80137]}},{"type":"Feature","properties":{"station_id":"358103N1193251W001","well_use":"Residential","slope_ft_per_yr":-1.222,"p_value":0.0,"trend":"decreasing","n_measurements":37,"record_years":22.1},"geometry":{"type":"Point","coordinates":[-119.3259,35.81865]}},{"type":"Feature","properties":{"station_id":"358125N1191017W001","well_use":"Irrigation","slope_ft_per_yr":-1.781,"p_value":0.0,"trend":"decreasing","n_measurements":50,"record_years":31.0},"geometry":{"type":"Point","coordinates":[-119.10179,35.81254]}},{"type":"Feature","properties":{"station_id":"358192N1193178W001","well_use":"Irrigation","slope_ft_per_yr":-1.595,"p_value":0.0001,"trend":"decreasing","n_measurements":26,"record_years":16.9},"geometry":{"type":"Point","coordinates":[-119.3178,35.8192]}},{"type":"Feature","properties":{"station_id":"358194N1194649W002","well_use":"Unknown","slope_ft_per_yr":-5.535,"p_value":0.0044,"trend":"decreasing","n_measurements":28,"record_years":25.6},"geometry":{"type":"Point","coordinates":[-119.465,35.81952]}},{"type":"Feature","properties":{"station_id":"358231N1190731W001","well_use":"Irrigation","slope_ft_per_yr":4.053,"p_value":0.0177,"trend":"increasing","n_measurements":33,"record_years":28.0},"geometry":{"type":"Point","coordinates":[-119.07373,35.82247]}},{"type":"Feature","properties":{"station_id":"358231N1190820W001","well_use":"Irrigation","slope_ft_per_yr":-3.468,"p_value":0.0009,"trend":"decreasing","n_measurements":26,"record_years":24.1},"geometry":{"type":"Point","coordinates":[-119.082,35.8231]}},{"type":"Feature","properties":{"station_id":"358231N1191126W001","well_use":"Irrigation","slope_ft_per_yr":-3.637,"p_value":0.0,"trend":"decreasing","n_measurements":70,"record_years":29.1},"geometry":{"type":"Point","coordinates":[-119.11219,35.82327]}},{"type":"Feature","properties":{"station_id":"358267N1194810W001","well_use":"Unknown","slope_ft_per_yr":-4.394,"p_value":0.0,"trend":"decreasing","n_measurements":26,"record_years":31.0},"geometry":{"type":"Point","coordinates":[-119.48207,35.82666]}},{"type":"Feature","properties":{"station_id":"358300N1190906W001","well_use":"Unknown","slope_ft_per_yr":-0.487,"p_value":0.4358,"trend":"no trend","n_measurements":44,"record_years":25.1},"geometry":{"type":"Point","coordinates":[-119.0906,35.83]}},{"type":"Feature","properties":{"station_id":"358303N1190990W001","well_use":"Unknown","slope_ft_per_yr":2.775,"p_value":0.0046,"trend":"increasing","n_measurements":39,"record_years":24.0},"geometry":{"type":"Point","coordinates":[-119.099,35.8303]}},{"type":"Feature","properties":{"station_id":"358314N1190895W001","well_use":"Irrigation","slope_ft_per_yr":-2.225,"p_value":0.0001,"trend":"decreasing","n_measurements":44,"record_years":31.0},"geometry":{"type":"Point","coordinates":[-119.08965,35.82332]}},{"type":"Feature","properties":{"station_id":"358333N1192578W001","well_use":"Unknown","slope_ft_per_yr":-3.44,"p_value":0.0,"trend":"decreasing","n_measurements":29,"record_years":24.8},"geometry":{"type":"Point","coordinates":[-119.2578,35.8333]}},{"type":"Feature","properties":{"station_id":"358339N1190895W001","well_use":"Unknown","slope_ft_per_yr":-0.551,"p_value":0.5669,"trend":"no trend","n_measurements":36,"record_years":24.4},"geometry":{"type":"Point","coordinates":[-119.0895,35.8339]}},{"type":"Feature","properties":{"station_id":"358347N1194649W001","well_use":"Unknown","slope_ft_per_yr":-5.023,"p_value":0.0001,"trend":"decreasing","n_measurements":33,"record_years":31.0},"geometry":{"type":"Point","coordinates":[-119.46492,35.8349]}},{"type":"Feature","properties":{"station_id":"358378N1190715W001","well_use":"Irrigation","slope_ft_per_yr":-2.921,"p_value":0.0,"trend":"decreasing","n_measurements":52,"record_years":31.0},"geometry":{"type":"Point","coordinates":[-119.07186,35.83786]}},{"type":"Feature","properties":{"station_id":"358425N1192237W001","well_use":"Irrigation","slope_ft_per_yr":-3.739,"p_value":0.0,"trend":"decreasing","n_measurements":53,"record_years":31.0},"geometry":{"type":"Point","coordinates":[-119.22394,35.84238]}},{"type":"Feature","properties":{"station_id":"358456N1191215W001","well_use":"Irrigation","slope_ft_per_yr":-2.33,"p_value":0.0,"trend":"decreasing","n_measurements":51,"record_years":31.0},"geometry":{"type":"Point","coordinates":[-119.12116,35.845]}},{"type":"Feature","properties":{"station_id":"358478N1192723W001","well_use":"Unknown","slope_ft_per_yr":-6.204,"p_value":0.0,"trend":"decreasing","n_measurements":30,"record_years":24.8},"geometry":{"type":"Point","coordinates":[-119.2723,35.8478]}},{"type":"Feature","properties":{"station_id":"358494N1192287W001","well_use":"Irrigation","slope_ft_per_yr":-5.839,"p_value":0.0,"trend":"decreasing","n_measurements":41,"record_years":25.6},"geometry":{"type":"Point","coordinates":[-119.2287,35.8494]}},{"type":"Feature","properties":{"station_id":"358561N1190806W001","well_use":"Irrigation","slope_ft_per_yr":-3.782,"p_value":0.0,"trend":"decreasing","n_measurements":202,"record_years":29.8},"geometry":{"type":"Point","coordinates":[-119.08068,35.85577]}},{"type":"Feature","properties":{"station_id":"358561N1192948W001","well_use":"Unknown","slope_ft_per_yr":-2.012,"p_value":0.0369,"trend":"decreasing","n_measurements":22,"record_years":15.9},"geometry":{"type":"Point","coordinates":[-119.2948,35.8561]}},{"type":"Feature","properties":{"station_id":"358564N1191081W001","well_use":"Irrigation","slope_ft_per_yr":-2.807,"p_value":0.0005,"trend":"decreasing","n_measurements":36,"record_years":24.6},"geometry":{"type":"Point","coordinates":[-119.10805,35.85577]}},{"type":"Feature","properties":{"station_id":"358575N1191078W001","well_use":"Irrigation","slope_ft_per_yr":-2.91,"p_value":0.0,"trend":"decreasing","n_measurements":51,"record_years":31.0},"geometry":{"type":"Point","coordinates":[-119.08968,35.85741]}},{"type":"Feature","properties":{"station_id":"358575N1192948W001","well_use":"Unknown","slope_ft_per_yr":-2.556,"p_value":0.0,"trend":"decreasing","n_measurements":22,"record_years":17.0},"geometry":{"type":"Point","coordinates":[-119.2948,35.8575]}},{"type":"Feature","properties":{"station_id":"358625N1191442W001","well_use":"Irrigation","slope_ft_per_yr":-4.26,"p_value":0.0001,"trend":"decreasing","n_measurements":36,"record_years":27.0},"geometry":{"type":"Point","coordinates":[-119.1442,35.8625]}},{"type":"Feature","properties":{"station_id":"358625N1193756W001","well_use":"Unknown","slope_ft_per_yr":-1.372,"p_value":0.0063,"trend":"decreasing","n_measurements":41,"record_years":27.9},"geometry":{"type":"Point","coordinates":[-119.3756,35.8625]}},{"type":"Feature","properties":{"station_id":"358628N1191390W001","well_use":"Irrigation","slope_ft_per_yr":-3.687,"p_value":0.0001,"trend":"decreasing","n_measurements":29,"record_years":31.0},"geometry":{"type":"Point","coordinates":[-119.13931,35.8632]}},{"type":"Feature","properties":{"station_id":"358650N1191262W001","well_use":"Irrigation","slope_ft_per_yr":-4.115,"p_value":0.0,"trend":"decreasing","n_measurements":51,"record_years":30.6},"geometry":{"type":"Point","coordinates":[-119.12596,35.86513]}},{"type":"Feature","properties":{"station_id":"358650N1191537W001","well_use":"Irrigation","slope_ft_per_yr":-3.966,"p_value":0.0,"trend":"decreasing","n_measurements":50,"record_years":31.0},"geometry":{"type":"Point","coordinates":[-119.1528,35.86429]}},{"type":"Feature","properties":{"station_id":"358653N1191792W001","well_use":"Unknown","slope_ft_per_yr":-5.864,"p_value":0.0,"trend":"decreasing","n_measurements":23,"record_years":24.8},"geometry":{"type":"Point","coordinates":[-119.1792,35.8653]}},{"type":"Feature","properties":{"station_id":"358658N1191081W001","well_use":"Irrigation","slope_ft_per_yr":0.442,"p_value":0.2254,"trend":"no trend","n_measurements":67,"record_years":27.7},"geometry":{"type":"Point","coordinates":[-119.10812,35.86574]}},{"type":"Feature","properties":{"station_id":"358667N1191615W001","well_use":"Irrigation","slope_ft_per_yr":-4.989,"p_value":0.0,"trend":"decreasing","n_measurements":69,"record_years":31.1},"geometry":{"type":"Point","coordinates":[-119.1615,35.8667]}},{"type":"Feature","properties":{"station_id":"358667N1191703W001","well_use":"Irrigation","slope_ft_per_yr":-4.153,"p_value":0.0,"trend":"decreasing","n_measurements":50,"record_years":31.0},"geometry":{"type":"Point","coordinates":[-119.1703,35.8667]}},{"type":"Feature","properties":{"station_id":"358667N1191703W002","well_use":"Unknown","slope_ft_per_yr":-4.749,"p_value":0.0,"trend":"decreasing","n_measurements":40,"record_years":31.0},"geometry":{"type":"Point","coordinates":[-119.1703,35.8667]}},{"type":"Feature","properties":{"station_id":"358700N1195110W001","well_use":"Unknown","slope_ft_per_yr":-0.149,"p_value":0.0003,"trend":"decreasing","n_measurements":66,"record_years":16.5},"geometry":{"type":"Point","coordinates":[-119.511,35.87]}},{"type":"Feature","properties":{"station_id":"358703N1191287W001","well_use":"Irrigation","slope_ft_per_yr":-3.603,"p_value":0.0,"trend":"decreasing","n_measurements":48,"record_years":31.0},"geometry":{"type":"Point","coordinates":[-119.12816,35.87036]}},{"type":"Feature","properties":{"station_id":"358711N1193926W001","well_use":"Irrigation","slope_ft_per_yr":-0.793,"p_value":0.0261,"trend":"decreasing","n_measurements":37,"record_years":29.0},"geometry":{"type":"Point","coordinates":[-119.3926,35.8711]}},{"type":"Feature","properties":{"station_id":"358731N1191167W001","well_use":"Irrigation","slope_ft_per_yr":-3.985,"p_value":0.0,"trend":"decreasing","n_measurements":41,"record_years":31.0},"geometry":{"type":"Point","coordinates":[-119.11709,35.874]}},{"type":"Feature","properties":{"station_id":"358742N1192592W001","well_use":"Unknown","slope_ft_per_yr":-2.685,"p_value":0.0002,"trend":"decreasing","n_measurements":26,"record_years":24.8},"geometry":{"type":"Point","coordinates":[-119.2592,35.8742]}},{"type":"Feature","properties":{"station_id":"358758N1191437W001","well_use":"Irrigation","slope_ft_per_yr":-4.278,"p_value":0.0,"trend":"decreasing","n_measurements":51,"record_years":31.0},"geometry":{"type":"Point","coordinates":[-119.14388,35.87693]}},{"type":"Feature","properties":{"station_id":"358772N1193581W001","well_use":"Irrigation","slope_ft_per_yr":0.639,"p_value":0.5185,"trend":"no trend","n_measurements":45,"record_years":31.0},"geometry":{"type":"Point","coordinates":[-119.3581,35.8772]}},{"type":"Feature","properties":{"station_id":"358772N1193581W002","well_use":"Unknown","slope_ft_per_yr":3.212,"p_value":0.0591,"trend":"no trend","n_measurements":41,"record_years":29.0},"geometry":{"type":"Point","coordinates":[-119.35795,35.87713]}},{"type":"Feature","properties":{"station_id":"358789N1194832W001","well_use":"Unknown","slope_ft_per_yr":-2.334,"p_value":0.1386,"trend":"no trend","n_measurements":23,"record_years":15.9},"geometry":{"type":"Point","coordinates":[-119.4832,35.8789]}},{"type":"Feature","properties":{"station_id":"358806N1194463W001","well_use":"Other","slope_ft_per_yr":-0.842,"p_value":0.7436,"trend":"no trend","n_measurements":25,"record_years":24.6},"geometry":{"type":"Point","coordinates":[-119.447,35.88036]}},{"type":"Feature","properties":{"station_id":"358811N1191084W001","well_use":"Irrigation","slope_ft_per_yr":-3.63,"p_value":0.0,"trend":"decreasing","n_measurements":45,"record_years":30.0},"geometry":{"type":"Point","coordinates":[-119.10818,35.88215]}},{"type":"Feature","properties":{"station_id":"358828N1191792W001","well_use":"Unknown","slope_ft_per_yr":-4.623,"p_value":0.0,"trend":"decreasing","n_measurements":33,"record_years":24.8},"geometry":{"type":"Point","coordinates":[-119.1792,35.8828]}},{"type":"Feature","properties":{"station_id":"358842N1191170W001","well_use":"Irrigation","slope_ft_per_yr":-2.732,"p_value":0.0,"trend":"decreasing","n_measurements":44,"record_years":31.0},"geometry":{"type":"Point","coordinates":[-119.1169,35.8955]}},{"type":"Feature","properties":{"station_id":"358842N1191176W001","well_use":"Irrigation","slope_ft_per_yr":-2.353,"p_value":0.0195,"trend":"decreasing","n_measurements":39,"record_years":29.1},"geometry":{"type":"Point","coordinates":[-119.11715,35.88446]}},{"type":"Feature","properties":{"station_id":"358850N1191037W001","well_use":"Irrigation","slope_ft_per_yr":-2.719,"p_value":0.0,"trend":"decreasing","n_measurements":44,"record_years":30.0},"geometry":{"type":"Point","coordinates":[-119.10324,35.88464]}},{"type":"Feature","properties":{"station_id":"358856N1191265W001","well_use":"Irrigation","slope_ft_per_yr":-3.585,"p_value":0.0016,"trend":"decreasing","n_measurements":28,"record_years":19.8},"geometry":{"type":"Point","coordinates":[-119.1265,35.8856]}},{"type":"Feature","properties":{"station_id":"358881N1190581W001","well_use":"Unknown","slope_ft_per_yr":2.188,"p_value":0.0865,"trend":"no trend","n_measurements":30,"record_years":16.7},"geometry":{"type":"Point","coordinates":[-119.0581,35.8881]}},{"type":"Feature","properties":{"station_id":"358883N1190948W001","well_use":"Irrigation","slope_ft_per_yr":1.297,"p_value":0.1259,"trend":"no trend","n_measurements":34,"record_years":20.6},"geometry":{"type":"Point","coordinates":[-119.0948,35.8883]}},{"type":"Feature","properties":{"station_id":"358883N1191103W001","well_use":"Irrigation","slope_ft_per_yr":-2.497,"p_value":0.0,"trend":"decreasing","n_measurements":54,"record_years":31.0},"geometry":{"type":"Point","coordinates":[-119.11033,35.88837]}},{"type":"Feature","properties":{"station_id":"358886N1190809W001","well_use":"Irrigation","slope_ft_per_yr":-2.424,"p_value":0.0001,"trend":"decreasing","n_measurements":42,"record_years":31.0},"geometry":{"type":"Point","coordinates":[-119.08076,35.88821]}},{"type":"Feature","properties":{"station_id":"358908N1190815W001","well_use":"Irrigation","slope_ft_per_yr":-0.25,"p_value":0.8026,"trend":"no trend","n_measurements":30,"record_years":21.1},"geometry":{"type":"Point","coordinates":[-119.0815,35.8908]}},{"type":"Feature","properties":{"station_id":"358947N1194468W001","well_use":"Unknown","slope_ft_per_yr":-0.11,"p_value":0.9299,"trend":"no trend","n_measurements":38,"record_years":28.0},"geometry":{"type":"Point","coordinates":[-119.447,35.8951]}},{"type":"Feature","properties":{"station_id":"358950N1191142W001","well_use":"Irrigation","slope_ft_per_yr":-2.751,"p_value":0.0,"trend":"decreasing","n_measurements":50,"record_years":31.0},"geometry":{"type":"Point","coordinates":[-119.1142,35.89552]}},{"type":"Feature","properties":{"station_id":"358972N1194070W001","well_use":"Irrigation","slope_ft_per_yr":-5.796,"p_value":0.0,"trend":"decreasing","n_measurements":25,"record_years":26.9},"geometry":{"type":"Point","coordinates":[-119.40639,35.89139]}},{"type":"Feature","properties":{"station_id":"358983N1193759W001","well_use":"Unknown","slope_ft_per_yr":-1.402,"p_value":0.0,"trend":"decreasing","n_measurements":46,"record_years":31.1},"geometry":{"type":"Point","coordinates":[-119.37577,35.89841]}},{"type":"Feature","properties":{"station_id":"358986N1194466W001","well_use":"Other","slope_ft_per_yr":-6.521,"p_value":0.0,"trend":"decreasing","n_measurements":41,"record_years":24.6},"geometry":{"type":"Point","coordinates":[-119.4466,35.8986]}},{"type":"Feature","properties":{"station_id":"359019N1192790W001","well_use":"Unknown","slope_ft_per_yr":-2.784,"p_value":0.0,"trend":"decreasing","n_measurements":34,"record_years":24.8},"geometry":{"type":"Point","coordinates":[-119.279,35.9019]}},{"type":"Feature","properties":{"station_id":"359025N1193040W001","well_use":"Unknown","slope_ft_per_yr":1.658,"p_value":0.3551,"trend":"no trend","n_measurements":23,"record_years":16.0},"geometry":{"type":"Point","coordinates":[-119.304,35.9025]}},{"type":"Feature","properties":{"station_id":"359053N1194360W001","well_use":"Irrigation","slope_ft_per_yr":-5.519,"p_value":0.0,"trend":"decreasing","n_measurements":34,"record_years":29.9},"geometry":{"type":"Point","coordinates":[-119.436,35.9053]}},{"type":"Feature","properties":{"station_id":"359058N1194296W001","well_use":"Unknown","slope_ft_per_yr":1.614,"p_value":0.092,"trend":"no trend","n_measurements":41,"record_years":27.6},"geometry":{"type":"Point","coordinates":[-119.4296,35.9058]}},{"type":"Feature","properties":{"station_id":"359061N1194468W001","well_use":"Other","slope_ft_per_yr":-6.853,"p_value":0.0,"trend":"decreasing","n_measurements":35,"record_years":24.6},"geometry":{"type":"Point","coordinates":[-119.4468,35.9061]}},{"type":"Feature","properties":{"station_id":"359103N1191306W001","well_use":"Unknown","slope_ft_per_yr":-2.787,"p_value":0.2556,"trend":"no trend","n_measurements":20,"record_years":14.7},"geometry":{"type":"Point","coordinates":[-119.1306,35.9103]}},{"type":"Feature","properties":{"station_id":"359122N1194368W001","well_use":"Irrigation","slope_ft_per_yr":8.343,"p_value":0.0007,"trend":"increasing","n_measurements":33,"record_years":24.6},"geometry":{"type":"Point","coordinates":[-119.4368,35.9122]}},{"type":"Feature","properties":{"station_id":"359125N1194293W001","well_use":"Irrigation","slope_ft_per_yr":-3.776,"p_value":0.0129,"trend":"decreasing","n_measurements":35,"record_years":30.6},"geometry":{"type":"Point","coordinates":[-119.4293,35.9125]}},{"type":"Feature","properties":{"station_id":"359125N1194468W001","well_use":"Other","slope_ft_per_yr":-3.899,"p_value":0.0026,"trend":"decreasing","n_measurements":41,"record_years":27.6},"geometry":{"type":"Point","coordinates":[-119.4468,35.9125]}},{"type":"Feature","properties":{"station_id":"359169N1191262W001","well_use":"Irrigation","slope_ft_per_yr":-3.762,"p_value":0.0,"trend":"decreasing","n_measurements":49,"record_years":31.0},"geometry":{"type":"Point","coordinates":[-119.12616,35.91447]}},{"type":"Feature","properties":{"station_id":"359200N1193173W001","well_use":"Unknown","slope_ft_per_yr":-2.66,"p_value":0.0,"trend":"decreasing","n_measurements":39,"record_years":24.8},"geometry":{"type":"Point","coordinates":[-119.31721,35.91961]}},{"type":"Feature","properties":{"station_id":"359211N1193756W001","well_use":"Unknown","slope_ft_per_yr":-0.827,"p_value":0.0003,"trend":"decreasing","n_measurements":40,"record_years":24.8},"geometry":{"type":"Point","coordinates":[-119.37576,35.92103]}},{"type":"Feature","properties":{"station_id":"359211N1193756W002","well_use":"Unknown","slope_ft_per_yr":0.107,"p_value":0.6719,"trend":"no trend","n_measurements":22,"record_years":16.0},"geometry":{"type":"Point","coordinates":[-119.3756,35.9211]}},{"type":"Feature","properties":{"station_id":"359211N1193756W003","well_use":"Unknown","slope_ft_per_yr":0.193,"p_value":0.693,"trend":"no trend","n_measurements":22,"record_years":16.0},"geometry":{"type":"Point","coordinates":[-119.3756,35.9211]}},{"type":"Feature","properties":{"station_id":"359428N1192606W001","well_use":"Unknown","slope_ft_per_yr":-2.766,"p_value":0.0516,"trend":"no trend","n_measurements":22,"record_years":16.0},"geometry":{"type":"Point","coordinates":[-119.2606,35.9428]}},{"type":"Feature","properties":{"station_id":"359497N1191726W001","well_use":"Irrigation","slope_ft_per_yr":-1.066,"p_value":0.0665,"trend":"no trend","n_measurements":22,"record_years":14.1},"geometry":{"type":"Point","coordinates":[-119.1726,35.9497]}},{"type":"Feature","properties":{"station_id":"359606N1194474W001","well_use":"Unknown","slope_ft_per_yr":-2.76,"p_value":0.0011,"trend":"decreasing","n_measurements":25,"record_years":22.7},"geometry":{"type":"Point","coordinates":[-119.44741,35.96084]}},{"type":"Feature","properties":{"station_id":"359661N1193578W001","well_use":"Unknown","slope_ft_per_yr":-2.312,"p_value":0.0039,"trend":"decreasing","n_measurements":26,"record_years":17.7},"geometry":{"type":"Point","coordinates":[-119.35784,35.96598]}},{"type":"Feature","properties":{"station_id":"359675N1192778W001","well_use":"Unknown","slope_ft_per_yr":-3.955,"p_value":0.0023,"trend":"decreasing","n_measurements":20,"record_years":16.0},"geometry":{"type":"Point","coordinates":[-119.2778,35.9675]}},{"type":"Feature","properties":{"station_id":"359722N1191612W001","well_use":"Unknown","slope_ft_per_yr":-0.885,"p_value":0.1798,"trend":"no trend","n_measurements":24,"record_years":16.1},"geometry":{"type":"Point","coordinates":[-119.1612,35.9722]}},{"type":"Feature","properties":{"station_id":"359725N1191437W001","well_use":"Unknown","slope_ft_per_yr":-0.965,"p_value":0.2355,"trend":"no trend","n_measurements":22,"record_years":16.1},"geometry":{"type":"Point","coordinates":[-119.1437,35.9725]}},{"type":"Feature","properties":{"station_id":"359761N1191256W001","well_use":"Unknown","slope_ft_per_yr":-1.386,"p_value":0.1177,"trend":"no trend","n_measurements":24,"record_years":16.1},"geometry":{"type":"Point","coordinates":[-119.1256,35.9761]}},{"type":"Feature","properties":{"station_id":"359792N1192737W001","well_use":"Unknown","slope_ft_per_yr":-1.422,"p_value":0.0,"trend":"decreasing","n_measurements":36,"record_years":23.1},"geometry":{"type":"Point","coordinates":[-119.27398,35.97899]}},{"type":"Feature","properties":{"station_id":"359797N1192317W001","well_use":"Unknown","slope_ft_per_yr":-3.179,"p_value":0.0,"trend":"decreasing","n_measurements":48,"record_years":31.0},"geometry":{"type":"Point","coordinates":[-119.22832,35.98014]}},{"type":"Feature","properties":{"station_id":"359825N1191084W001","well_use":"Unknown","slope_ft_per_yr":-1.227,"p_value":0.2239,"trend":"no trend","n_measurements":24,"record_years":16.1},"geometry":{"type":"Point","coordinates":[-119.1084,35.9825]}},{"type":"Feature","properties":{"station_id":"359853N1195188W001","well_use":"Irrigation","slope_ft_per_yr":-0.579,"p_value":0.1084,"trend":"no trend","n_measurements":27,"record_years":17.6},"geometry":{"type":"Point","coordinates":[-119.5188,35.9853]}},{"type":"Feature","properties":{"station_id":"359853N1195188W002","well_use":"Unknown","slope_ft_per_yr":-2.356,"p_value":0.0,"trend":"decreasing","n_measurements":37,"record_years":27.9},"geometry":{"type":"Point","coordinates":[-119.51918,35.98504]}},{"type":"Feature","properties":{"station_id":"359928N1193498W001","well_use":"Unknown","slope_ft_per_yr":-2.15,"p_value":0.0198,"trend":"decreasing","n_measurements":23,"record_years":16.0},"geometry":{"type":"Point","coordinates":[-119.3498,35.9928]}},{"type":"Feature","properties":{"station_id":"359931N1193578W001","well_use":"Unknown","slope_ft_per_yr":-2.414,"p_value":0.0121,"trend":"decreasing","n_measurements":21,"record_years":15.0},"geometry":{"type":"Point","coordinates":[-119.3578,35.9931]}},{"type":"Feature","properties":{"station_id":"359933N1191256W001","well_use":"Unknown","slope_ft_per_yr":-2.612,"p_value":0.0,"trend":"decreasing","n_measurements":41,"record_years":24.7},"geometry":{"type":"Point","coordinates":[-119.12556,35.99324]}},{"type":"Feature","properties":{"station_id":"359997N1193401W001","well_use":"Unknown","slope_ft_per_yr":-2.783,"p_value":0.0,"trend":"decreasing","n_measurements":37,"record_years":31.0},"geometry":{"type":"Point","coordinates":[-119.34054,36.00017]}},{"type":"Feature","properties":{"station_id":"360036N1192684W001","well_use":"Unknown","slope_ft_per_yr":0.962,"p_value":0.0104,"trend":"increasing","n_measurements":23,"record_years":16.0},"geometry":{"type":"Point","coordinates":[-119.2684,36.0036]}},{"type":"Feature","properties":{"station_id":"360075N1193042W001","well_use":"Unknown","slope_ft_per_yr":-0.67,"p_value":0.186,"trend":"no trend","n_measurements":23,"record_years":16.0},"geometry":{"type":"Point","coordinates":[-119.3042,36.0075]}},{"type":"Feature","properties":{"station_id":"360078N1191084W001","well_use":"Unknown","slope_ft_per_yr":-0.19,"p_value":0.8039,"trend":"no trend","n_measurements":24,"record_years":16.1},"geometry":{"type":"Point","coordinates":[-119.1084,36.0078]}},{"type":"Feature","properties":{"station_id":"360083N1191090W001","well_use":"Residential","slope_ft_per_yr":-1.321,"p_value":0.0007,"trend":"decreasing","n_measurements":35,"record_years":30.7},"geometry":{"type":"Point","coordinates":[-119.10921,36.00831]}},{"type":"Feature","properties":{"station_id":"360097N1192506W001","well_use":"Unknown","slope_ft_per_yr":2.213,"p_value":0.0,"trend":"increasing","n_measurements":22,"record_years":16.0},"geometry":{"type":"Point","coordinates":[-119.2506,36.0097]}},{"type":"Feature","properties":{"station_id":"360114N1193401W001","well_use":"Unknown","slope_ft_per_yr":-1.297,"p_value":0.1646,"trend":"no trend","n_measurements":21,"record_years":16.0},"geometry":{"type":"Point","coordinates":[-119.3401,36.0114]}},{"type":"Feature","properties":{"station_id":"360117N1194718W001","well_use":"Unknown","slope_ft_per_yr":-1.171,"p_value":0.0191,"trend":"decreasing","n_measurements":34,"record_years":24.8},"geometry":{"type":"Point","coordinates":[-119.4718,36.0117]}},{"type":"Feature","properties":{"station_id":"360142N1191076W001","well_use":"Unknown","slope_ft_per_yr":-0.43,"p_value":0.6731,"trend":"no trend","n_measurements":24,"record_years":16.1},"geometry":{"type":"Point","coordinates":[-119.1076,36.0142]}},{"type":"Feature","properties":{"station_id":"360150N1190406W001","well_use":"Unknown","slope_ft_per_yr":-3.311,"p_value":0.0004,"trend":"decreasing","n_measurements":26,"record_years":17.0},"geometry":{"type":"Point","coordinates":[-119.0406,36.015]}},{"type":"Feature","properties":{"station_id":"360200N1195210W001","well_use":"Unknown","slope_ft_per_yr":-0.715,"p_value":0.0,"trend":"decreasing","n_measurements":63,"record_years":16.5},"geometry":{"type":"Point","coordinates":[-119.521,36.02]}},{"type":"Feature","properties":{"station_id":"360208N1191703W001","well_use":"Unknown","slope_ft_per_yr":-1.444,"p_value":0.016,"trend":"decreasing","n_measurements":24,"record_years":16.1},"geometry":{"type":"Point","coordinates":[-119.1703,36.0208]}},{"type":"Feature","properties":{"station_id":"360208N1191820W001","well_use":"Unknown","slope_ft_per_yr":-0.902,"p_value":0.1631,"trend":"no trend","n_measurements":33,"record_years":21.0},"geometry":{"type":"Point","coordinates":[-119.182,36.0208]}},{"type":"Feature","properties":{"station_id":"360214N1191981W001","well_use":"Unknown","slope_ft_per_yr":-1.116,"p_value":0.0223,"trend":"decreasing","n_measurements":22,"record_years":16.0},"geometry":{"type":"Point","coordinates":[-119.1981,36.0214]}},{"type":"Feature","properties":{"station_id":"360217N1194921W001","well_use":"Unknown","slope_ft_per_yr":-2.055,"p_value":0.0,"trend":"decreasing","n_measurements":39,"record_years":24.8},"geometry":{"type":"Point","coordinates":[-119.4921,36.0217]}},{"type":"Feature","properties":{"station_id":"360219N1191165W001","well_use":"Unknown","slope_ft_per_yr":-1.323,"p_value":0.0496,"trend":"decreasing","n_measurements":24,"record_years":16.1},"geometry":{"type":"Point","coordinates":[-119.1165,36.0219]}},{"type":"Feature","properties":{"station_id":"360219N1193935W001","well_use":"Unknown","slope_ft_per_yr":-2.57,"p_value":0.0094,"trend":"decreasing","n_measurements":22,"record_years":16.0},"geometry":{"type":"Point","coordinates":[-119.3935,36.0219]}},{"type":"Feature","properties":{"station_id":"360222N1191256W001","well_use":"Unknown","slope_ft_per_yr":-1.235,"p_value":0.0611,"trend":"no trend","n_measurements":21,"record_years":16.0},"geometry":{"type":"Point","coordinates":[-119.1256,36.0222]}},{"type":"Feature","properties":{"station_id":"360228N1190356W001","well_use":"Unknown","slope_ft_per_yr":-3.144,"p_value":0.0,"trend":"decreasing","n_measurements":27,"record_years":17.9},"geometry":{"type":"Point","coordinates":[-119.0356,36.0228]}},{"type":"Feature","properties":{"station_id":"360228N1193020W001","well_use":"Unknown","slope_ft_per_yr":-1.862,"p_value":0.0003,"trend":"decreasing","n_measurements":39,"record_years":24.8},"geometry":{"type":"Point","coordinates":[-119.302,36.0228]}},{"type":"Feature","properties":{"station_id":"360231N1192065W001","well_use":"Unknown","slope_ft_per_yr":-3.174,"p_value":0.0,"trend":"decreasing","n_measurements":37,"record_years":24.7},"geometry":{"type":"Point","coordinates":[-119.20639,36.02291]}},{"type":"Feature","properties":{"station_id":"360244N1189998W001","well_use":"Unknown","slope_ft_per_yr":-0.918,"p_value":0.0747,"trend":"no trend","n_measurements":33,"record_years":21.0},"geometry":{"type":"Point","coordinates":[-118.9998,36.0244]}},{"type":"Feature","properties":{"station_id":"360256N1193762W001","well_use":"Unknown","slope_ft_per_yr":-3.682,"p_value":0.0,"trend":"decreasing","n_measurements":36,"record_years":24.8},"geometry":{"type":"Point","coordinates":[-119.37585,36.02237]}},{"type":"Feature","properties":{"station_id":"360269N1191617W001","well_use":"Unknown","slope_ft_per_yr":-0.873,"p_value":0.1558,"trend":"no trend","n_measurements":21,"record_years":15.0},"geometry":{"type":"Point","coordinates":[-119.1617,36.0269]}},{"type":"Feature","properties":{"station_id":"360278N1191437W001","well_use":"Unknown","slope_ft_per_yr":-0.841,"p_value":0.1028,"trend":"no trend","n_measurements":21,"record_years":16.0},"geometry":{"type":"Point","coordinates":[-119.1437,36.0278]}},{"type":"Feature","properties":{"station_id":"360292N1191976W001","well_use":"Unknown","slope_ft_per_yr":-1.467,"p_value":0.0079,"trend":"decreasing","n_measurements":22,"record_years":16.1},"geometry":{"type":"Point","coordinates":[-119.1976,36.0292]}},{"type":"Feature","properties":{"station_id":"360297N1190578W001","well_use":"Unknown","slope_ft_per_yr":-4.053,"p_value":0.0018,"trend":"decreasing","n_measurements":24,"record_years":16.9},"geometry":{"type":"Point","coordinates":[-119.0578,36.0297]}},{"type":"Feature","properties":{"station_id":"360344N1191076W001","well_use":"Unknown","slope_ft_per_yr":-1.696,"p_value":0.0201,"trend":"decreasing","n_measurements":23,"record_years":16.0},"geometry":{"type":"Point","coordinates":[-119.1076,36.0344]}},{"type":"Feature","properties":{"station_id":"360353N1192178W001","well_use":"Unknown","slope_ft_per_yr":-3.716,"p_value":0.0,"trend":"decreasing","n_measurements":27,"record_years":23.2},"geometry":{"type":"Point","coordinates":[-119.21926,36.0345]}},{"type":"Feature","properties":{"station_id":"360361N1191690W001","well_use":"Unknown","slope_ft_per_yr":-1.562,"p_value":0.0068,"trend":"decreasing","n_measurements":24,"record_years":16.1},"geometry":{"type":"Point","coordinates":[-119.169,36.0361]}},{"type":"Feature","properties":{"station_id":"360364N1194116W001","well_use":"Unknown","slope_ft_per_yr":-1.539,"p_value":0.1742,"trend":"no trend","n_measurements":21,"record_years":16.0},"geometry":{"type":"Point","coordinates":[-119.4116,36.0364]}},{"type":"Feature","properties":{"station_id":"360367N1190892W001","well_use":"Unknown","slope_ft_per_yr":-0.623,"p_value":0.2765,"trend":"no trend","n_measurements":29,"record_years":21.0},"geometry":{"type":"Point","coordinates":[-119.0892,36.0367]}},{"type":"Feature","properties":{"station_id":"360367N1191431W001","well_use":"Unknown","slope_ft_per_yr":-1.565,"p_value":0.0447,"trend":"decreasing","n_measurements":23,"record_years":16.0},"geometry":{"type":"Point","coordinates":[-119.1431,36.0367]}},{"type":"Feature","properties":{"station_id":"360369N1193264W001","well_use":"Irrigation","slope_ft_per_yr":-3.218,"p_value":0.0011,"trend":"decreasing","n_measurements":26,"record_years":31.0},"geometry":{"type":"Point","coordinates":[-119.32638,36.03694]}},{"type":"Feature","properties":{"station_id":"360397N1189537W001","well_use":"Unknown","slope_ft_per_yr":-0.889,"p_value":0.0003,"trend":"decreasing","n_measurements":33,"record_years":21.0},"geometry":{"type":"Point","coordinates":[-118.9537,36.0397]}},{"type":"Feature","properties":{"station_id":"360417N1191617W001","well_use":"Unknown","slope_ft_per_yr":-2.226,"p_value":0.0015,"trend":"decreasing","n_measurements":21,"record_years":19.1},"geometry":{"type":"Point","coordinates":[-119.16152,36.04162]}},{"type":"Feature","properties":{"station_id":"360436N1189709W001","well_use":"Unknown","slope_ft_per_yr":-0.443,"p_value":0.0461,"trend":"decreasing","n_measurements":32,"record_years":21.0},"geometry":{"type":"Point","coordinates":[-118.9709,36.0436]}},{"type":"Feature","properties":{"station_id":"360472N1191434W001","well_use":"Unknown","slope_ft_per_yr":-1.837,"p_value":0.0345,"trend":"decreasing","n_measurements":21,"record_years":16.0},"geometry":{"type":"Point","coordinates":[-119.1434,36.0472]}},{"type":"Feature","properties":{"station_id":"360478N1189309W001","well_use":"Unknown","slope_ft_per_yr":-0.329,"p_value":0.3006,"trend":"no trend","n_measurements":30,"record_years":16.3},"geometry":{"type":"Point","coordinates":[-118.9309,36.0478]}},{"type":"Feature","properties":{"station_id":"360506N1191967W001","well_use":"Unknown","slope_ft_per_yr":-1.26,"p_value":0.1223,"trend":"no trend","n_measurements":21,"record_years":14.1},"geometry":{"type":"Point","coordinates":[-119.1967,36.0506]}},{"type":"Feature","properties":{"station_id":"360506N1193220W001","well_use":"Unknown","slope_ft_per_yr":-1.752,"p_value":0.0,"trend":"decreasing","n_measurements":38,"record_years":24.8},"geometry":{"type":"Point","coordinates":[-119.322,36.0506]}},{"type":"Feature","properties":{"station_id":"360506N1194588W001","well_use":"Unknown","slope_ft_per_yr":-2.518,"p_value":0.0378,"trend":"decreasing","n_measurements":20,"record_years":16.0},"geometry":{"type":"Point","coordinates":[-119.4588,36.0506]}},{"type":"Feature","properties":{"station_id":"360506N1195266W001","well_use":"Unknown","slope_ft_per_yr":-0.572,"p_value":0.3156,"trend":"no trend","n_measurements":23,"record_years":16.0},"geometry":{"type":"Point","coordinates":[-119.5266,36.0506]}},{"type":"Feature","properties":{"station_id":"360511N1190228W001","well_use":"Unknown","slope_ft_per_yr":-1.929,"p_value":0.012,"trend":"decreasing","n_measurements":22,"record_years":16.3},"geometry":{"type":"Point","coordinates":[-119.0228,36.0511]}},{"type":"Feature","properties":{"station_id":"360511N1190534W001","well_use":"Unknown","slope_ft_per_yr":-1.917,"p_value":0.0006,"trend":"decreasing","n_measurements":22,"record_years":10.6},"geometry":{"type":"Point","coordinates":[-119.0534,36.0511]}},{"type":"Feature","properties":{"station_id":"360517N1192148W001","well_use":"Unknown","slope_ft_per_yr":-1.995,"p_value":0.0265,"trend":"decreasing","n_measurements":23,"record_years":16.0},"geometry":{"type":"Point","coordinates":[-119.2148,36.0517]}},{"type":"Feature","properties":{"station_id":"360550N1190890W001","well_use":"Unknown","slope_ft_per_yr":-2.115,"p_value":0.0,"trend":"decreasing","n_measurements":31,"record_years":21.0},"geometry":{"type":"Point","coordinates":[-119.089,36.055]}},{"type":"Feature","properties":{"station_id":"360561N1195060W001","well_use":"Unknown","slope_ft_per_yr":-0.591,"p_value":0.0556,"trend":"no trend","n_measurements":32,"record_years":31.0},"geometry":{"type":"Point","coordinates":[-119.506,36.0561]}},{"type":"Feature","properties":{"station_id":"360569N1193756W001","well_use":"Unknown","slope_ft_per_yr":-1.492,"p_value":0.087,"trend":"no trend","n_measurements":24,"record_years":16.0},"geometry":{"type":"Point","coordinates":[-119.3756,36.0569]}},{"type":"Feature","properties":{"station_id":"360606N1190028W001","well_use":"Unknown","slope_ft_per_yr":-2.521,"p_value":0.0011,"trend":"decreasing","n_measurements":32,"record_years":21.0},"geometry":{"type":"Point","coordinates":[-119.0028,36.0606]}},{"type":"Feature","properties":{"station_id":"360632N1193406W001","well_use":"Unknown","slope_ft_per_yr":-0.6,"p_value":0.4943,"trend":"no trend","n_measurements":26,"record_years":15.0},"geometry":{"type":"Point","coordinates":[-119.34058,36.06324]}},{"type":"Feature","properties":{"station_id":"360639N1189570W001","well_use":"Unknown","slope_ft_per_yr":-0.728,"p_value":0.0009,"trend":"decreasing","n_measurements":32,"record_years":21.0},"geometry":{"type":"Point","coordinates":[-118.957,36.0639]}},{"type":"Feature","properties":{"station_id":"360642N1193409W001","well_use":"Unknown","slope_ft_per_yr":-1.659,"p_value":0.0,"trend":"decreasing","n_measurements":38,"record_years":24.8},"geometry":{"type":"Point","coordinates":[-119.3409,36.0642]}},{"type":"Feature","properties":{"station_id":"360650N1193935W001","well_use":"Unknown","slope_ft_per_yr":-1.29,"p_value":0.3468,"trend":"no trend","n_measurements":20,"record_years":13.0},"geometry":{"type":"Point","coordinates":[-119.3935,36.065]}},{"type":"Feature","properties":{"station_id":"360650N1195229W001","well_use":"Unknown","slope_ft_per_yr":-1.776,"p_value":0.0001,"trend":"decreasing","n_measurements":34,"record_years":24.8},"geometry":{"type":"Point","coordinates":[-119.5229,36.065]}},{"type":"Feature","properties":{"station_id":"360653N1191790W001","well_use":"Unknown","slope_ft_per_yr":-1.967,"p_value":0.0532,"trend":"no trend","n_measurements":21,"record_years":16.0},"geometry":{"type":"Point","coordinates":[-119.17892,36.06513]}},{"type":"Feature","properties":{"station_id":"360653N1194285W001","well_use":"Unknown","slope_ft_per_yr":1.224,"p_value":0.251,"trend":"no trend","n_measurements":21,"record_years":16.0},"geometry":{"type":"Point","coordinates":[-119.4285,36.0653]}},{"type":"Feature","properties":{"station_id":"360653N1194285W002","well_use":"Unknown","slope_ft_per_yr":-1.441,"p_value":0.1235,"trend":"no trend","n_measurements":21,"record_years":16.0},"geometry":{"type":"Point","coordinates":[-119.4285,36.0653]}},{"type":"Feature","properties":{"station_id":"360653N1194285W003","well_use":"Unknown","slope_ft_per_yr":-2.272,"p_value":0.0556,"trend":"no trend","n_measurements":20,"record_years":16.0},"geometry":{"type":"Point","coordinates":[-119.4285,36.0653]}},{"type":"Feature","properties":{"station_id":"360667N1192684W001","well_use":"Unknown","slope_ft_per_yr":-3.103,"p_value":0.0201,"trend":"decreasing","n_measurements":21,"record_years":16.0},"geometry":{"type":"Point","coordinates":[-119.2684,36.0667]}},{"type":"Feature","properties":{"station_id":"360689N1189912W001","well_use":"Unknown","slope_ft_per_yr":-1.136,"p_value":0.0291,"trend":"decreasing","n_measurements":26,"record_years":17.0},"geometry":{"type":"Point","coordinates":[-118.9912,36.0689]}},{"type":"Feature","properties":{"station_id":"360703N1190051W001","well_use":"Unknown","slope_ft_per_yr":-0.232,"p_value":0.3403,"trend":"no trend","n_measurements":31,"record_years":21.0},"geometry":{"type":"Point","coordinates":[-119.0051,36.0703]}},{"type":"Feature","properties":{"station_id":"360767N1193217W001","well_use":"Unknown","slope_ft_per_yr":-1.159,"p_value":0.0444,"trend":"decreasing","n_measurements":24,"record_years":16.0},"geometry":{"type":"Point","coordinates":[-119.3217,36.0767]}},{"type":"Feature","properties":{"station_id":"360767N1193762W001","well_use":"Unknown","slope_ft_per_yr":-1.134,"p_value":0.0907,"trend":"no trend","n_measurements":22,"record_years":16.0},"geometry":{"type":"Point","coordinates":[-119.3762,36.0767]}},{"type":"Feature","properties":{"station_id":"360772N1190801W001","well_use":"Unknown","slope_ft_per_yr":-1.707,"p_value":0.0,"trend":"decreasing","n_measurements":33,"record_years":21.0},"geometry":{"type":"Point","coordinates":[-119.0801,36.0772]}},{"type":"Feature","properties":{"station_id":"360778N1192684W001","well_use":"Unknown","slope_ft_per_yr":-2.563,"p_value":0.139,"trend":"no trend","n_measurements":21,"record_years":16.0},"geometry":{"type":"Point","coordinates":[-119.2684,36.0778]}},{"type":"Feature","properties":{"station_id":"360797N1194293W001","well_use":"Unknown","slope_ft_per_yr":-2.812,"p_value":0.0,"trend":"decreasing","n_measurements":33,"record_years":24.8},"geometry":{"type":"Point","coordinates":[-119.4293,36.0797]}},{"type":"Feature","properties":{"station_id":"360806N1190359W001","well_use":"Unknown","slope_ft_per_yr":-1.512,"p_value":0.1178,"trend":"no trend","n_measurements":31,"record_years":21.0},"geometry":{"type":"Point","coordinates":[-119.0359,36.0806]}},{"type":"Feature","properties":{"station_id":"360806N1192326W001","well_use":"Unknown","slope_ft_per_yr":-1.125,"p_value":0.1208,"trend":"no trend","n_measurements":22,"record_years":16.0},"geometry":{"type":"Point","coordinates":[-119.2326,36.0806]}},{"type":"Feature","properties":{"station_id":"360839N1191970W001","well_use":"Irrigation","slope_ft_per_yr":-3.556,"p_value":0.0,"trend":"decreasing","n_measurements":34,"record_years":24.8},"geometry":{"type":"Point","coordinates":[-119.197,36.0839]}},{"type":"Feature","properties":{"station_id":"360842N1194085W001","well_use":"Unknown","slope_ft_per_yr":-0.804,"p_value":0.319,"trend":"no trend","n_measurements":21,"record_years":16.0},"geometry":{"type":"Point","coordinates":[-119.4085,36.0842]}},{"type":"Feature","properties":{"station_id":"360847N1189881W001","well_use":"Unknown","slope_ft_per_yr":-0.725,"p_value":0.1368,"trend":"no trend","n_measurements":33,"record_years":21.0},"geometry":{"type":"Point","coordinates":[-118.9881,36.0847]}},{"type":"Feature","properties":{"station_id":"360847N1192503W001","well_use":"Unknown","slope_ft_per_yr":-3.509,"p_value":0.0431,"trend":"decreasing","n_measurements":21,"record_years":15.0},"geometry":{"type":"Point","coordinates":[-119.2503,36.0847]}},{"type":"Feature","properties":{"station_id":"360867N1190120W001","well_use":"Unknown","slope_ft_per_yr":-0.267,"p_value":0.0599,"trend":"no trend","n_measurements":32,"record_years":21.0},"geometry":{"type":"Point","coordinates":[-119.012,36.0867]}},{"type":"Feature","properties":{"station_id":"360931N1191437W001","well_use":"Unknown","slope_ft_per_yr":-2.855,"p_value":0.0004,"trend":"decreasing","n_measurements":23,"record_years":16.0},"geometry":{"type":"Point","coordinates":[-119.1437,36.0931]}},{"type":"Feature","properties":{"station_id":"360942N1193048W001","well_use":"Unknown","slope_ft_per_yr":-2.958,"p_value":0.0171,"trend":"decreasing","n_measurements":21,"record_years":16.0},"geometry":{"type":"Point","coordinates":[-119.3048,36.0942]}},{"type":"Feature","properties":{"station_id":"360944N1191562W001","well_use":"Unknown","slope_ft_per_yr":-2.172,"p_value":0.035,"trend":"decreasing","n_measurements":20,"record_years":14.1},"geometry":{"type":"Point","coordinates":[-119.1562,36.0944]}},{"type":"Feature","properties":{"station_id":"360953N1192665W001","well_use":"Unknown","slope_ft_per_yr":-4.307,"p_value":0.0,"trend":"decreasing","n_measurements":33,"record_years":21.7},"geometry":{"type":"Point","coordinates":[-119.26717,36.09523]}},{"type":"Feature","properties":{"station_id":"360958N1190159W001","well_use":"Unknown","slope_ft_per_yr":-0.905,"p_value":0.0096,"trend":"decreasing","n_measurements":39,"record_years":21.0},"geometry":{"type":"Point","coordinates":[-119.0159,36.0958]}},{"type":"Feature","properties":{"station_id":"360969N1190712W001","well_use":"Unknown","slope_ft_per_yr":-1.983,"p_value":0.0,"trend":"decreasing","n_measurements":30,"record_years":17.9},"geometry":{"type":"Point","coordinates":[-119.0712,36.0969]}},{"type":"Feature","properties":{"station_id":"360972N1193492W001","well_use":"Unknown","slope_ft_per_yr":-1.353,"p_value":0.1079,"trend":"no trend","n_measurements":22,"record_years":16.0},"geometry":{"type":"Point","coordinates":[-119.3492,36.0972]}},{"type":"Feature","properties":{"station_id":"360981N1193309W001","well_use":"Unknown","slope_ft_per_yr":-1.244,"p_value":0.0,"trend":"decreasing","n_measurements":40,"record_years":24.8},"geometry":{"type":"Point","coordinates":[-119.3309,36.0981]}},{"type":"Feature","properties":{"station_id":"361078N1191476W001","well_use":"Unknown","slope_ft_per_yr":-2.962,"p_value":0.0014,"trend":"decreasing","n_measurements":22,"record_years":16.0},"geometry":{"type":"Point","coordinates":[-119.1476,36.1078]}},{"type":"Feature","properties":{"station_id":"361081N1192862W001","well_use":"Unknown","slope_ft_per_yr":-0.966,"p_value":0.2515,"trend":"no trend","n_measurements":27,"record_years":18.1},"geometry":{"type":"Point","coordinates":[-119.2862,36.1081]}},{"type":"Feature","properties":{"station_id":"361092N1191612W001","well_use":"Unknown","slope_ft_per_yr":-3.334,"p_value":0.0004,"trend":"decreasing","n_measurements":24,"record_years":16.0},"geometry":{"type":"Point","coordinates":[-119.1612,36.1092]}},{"type":"Feature","properties":{"station_id":"361097N1191431W001","well_use":"Unknown","slope_ft_per_yr":-2.859,"p_value":0.001,"trend":"decreasing","n_measurements":24,"record_years":16.0},"geometry":{"type":"Point","coordinates":[-119.1431,36.1097]}},{"type":"Feature","properties":{"station_id":"361097N1192545W001","well_use":"Unknown","slope_ft_per_yr":-4.597,"p_value":0.0005,"trend":"decreasing","n_measurements":24,"record_years":16.0},"geometry":{"type":"Point","coordinates":[-119.2545,36.1097]}},{"type":"Feature","properties":{"station_id":"361114N1191826W001","well_use":"Unknown","slope_ft_per_yr":-4.919,"p_value":0.0,"trend":"decreasing","n_measurements":40,"record_years":24.1},"geometry":{"type":"Point","coordinates":[-119.17877,36.1127]}},{"type":"Feature","properties":{"station_id":"361164N1191390W001","well_use":"Unknown","slope_ft_per_yr":-3.906,"p_value":0.0002,"trend":"decreasing","n_measurements":27,"record_years":16.1},"geometry":{"type":"Point","coordinates":[-119.139,36.1164]}},{"type":"Feature","properties":{"station_id":"361164N1191698W001","well_use":"Unknown","slope_ft_per_yr":-3.478,"p_value":0.0025,"trend":"decreasing","n_measurements":21,"record_years":16.0},"geometry":{"type":"Point","coordinates":[-119.1698,36.1164]}},{"type":"Feature","properties":{"station_id":"361200N1192415W001","well_use":"Unknown","slope_ft_per_yr":-2.07,"p_value":0.0813,"trend":"no trend","n_measurements":23,"record_years":16.0},"geometry":{"type":"Point","coordinates":[-119.2415,36.12]}},{"type":"Feature","properties":{"station_id":"361203N1191565W001","well_use":"Unknown","slope_ft_per_yr":-3.071,"p_value":0.0085,"trend":"decreasing","n_measurements":24,"record_years":16.0},"geometry":{"type":"Point","coordinates":[-119.1565,36.1203]}},{"type":"Feature","properties":{"station_id":"361219N1191776W001","well_use":"Unknown","slope_ft_per_yr":-3.713,"p_value":0.0043,"trend":"decreasing","n_measurements":23,"record_years":16.0},"geometry":{"type":"Point","coordinates":[-119.1776,36.1219]}},{"type":"Feature","properties":{"station_id":"361231N1191826W001","well_use":"Unknown","slope_ft_per_yr":-3.19,"p_value":0.0037,"trend":"decreasing","n_measurements":23,"record_years":16.0},"geometry":{"type":"Point","coordinates":[-119.1826,36.1231]}},{"type":"Feature","properties":{"station_id":"361239N1191887W001","well_use":"Unknown","slope_ft_per_yr":-4.025,"p_value":0.0019,"trend":"decreasing","n_measurements":24,"record_years":16.0},"geometry":{"type":"Point","coordinates":[-119.1887,36.1239]}},{"type":"Feature","properties":{"station_id":"361244N1191967W001","well_use":"Unknown","slope_ft_per_yr":-1.42,"p_value":0.139,"trend":"no trend","n_measurements":21,"record_years":16.0},"geometry":{"type":"Point","coordinates":[-119.1967,36.1244]}},{"type":"Feature","properties":{"station_id":"361250N1192512W001","well_use":"Irrigation","slope_ft_per_yr":-2.211,"p_value":0.0655,"trend":"no trend","n_measurements":21,"record_years":16.0},"geometry":{"type":"Point","coordinates":[-119.25039,36.12704]}},{"type":"Feature","properties":{"station_id":"361319N1192151W001","well_use":"Unknown","slope_ft_per_yr":-3.273,"p_value":0.0235,"trend":"decreasing","n_measurements":21,"record_years":15.0},"geometry":{"type":"Point","coordinates":[-119.2151,36.1319]}},{"type":"Feature","properties":{"station_id":"361328N1192237W001","well_use":"Unknown","slope_ft_per_yr":-3.553,"p_value":0.0048,"trend":"decreasing","n_measurements":22,"record_years":16.0},"geometry":{"type":"Point","coordinates":[-119.2237,36.1328]}},{"type":"Feature","properties":{"station_id":"361333N1191703W001","well_use":"Irrigation","slope_ft_per_yr":-4.218,"p_value":0.0,"trend":"decreasing","n_measurements":35,"record_years":21.1},"geometry":{"type":"Point","coordinates":[-119.1703,36.1333]}},{"type":"Feature","properties":{"station_id":"361353N1191970W001","well_use":"Unknown","slope_ft_per_yr":-3.11,"p_value":0.0071,"trend":"decreasing","n_measurements":23,"record_years":16.0},"geometry":{"type":"Point","coordinates":[-119.197,36.1353]}},{"type":"Feature","properties":{"station_id":"361381N1192237W001","well_use":"Unknown","slope_ft_per_yr":-2.346,"p_value":0.0797,"trend":"no trend","n_measurements":21,"record_years":13.4},"geometry":{"type":"Point","coordinates":[-119.2237,36.1381]}},{"type":"Feature","properties":{"station_id":"361383N1191848W001","well_use":"Unknown","slope_ft_per_yr":-1.368,"p_value":0.3468,"trend":"no trend","n_measurements":20,"record_years":13.0},"geometry":{"type":"Point","coordinates":[-119.1848,36.1383]}},{"type":"Feature","properties":{"station_id":"361422N1192598W001","well_use":"Unknown","slope_ft_per_yr":-1.278,"p_value":0.2906,"trend":"no trend","n_measurements":21,"record_years":15.0},"geometry":{"type":"Point","coordinates":[-119.2598,36.1422]}},{"type":"Feature","properties":{"station_id":"361456N1191965W001","well_use":"Unknown","slope_ft_per_yr":-4.707,"p_value":0.0,"trend":"decreasing","n_measurements":43,"record_years":24.8},"geometry":{"type":"Point","coordinates":[-119.19733,36.14666]}},{"type":"Feature","properties":{"station_id":"361458N1192323W001","well_use":"Unknown","slope_ft_per_yr":-0.669,"p_value":0.5813,"trend":"no trend","n_measurements":20,"record_years":13.0},"geometry":{"type":"Point","coordinates":[-119.2323,36.1458]}},{"type":"Feature","properties":{"station_id":"361492N1191873W001","well_use":"Unknown","slope_ft_per_yr":-2.672,"p_value":0.0006,"trend":"decreasing","n_measurements":27,"record_years":16.1},"geometry":{"type":"Point","coordinates":[-119.1873,36.1492]}}]}