{"type":"FeatureCollection","features":[{"type":"Feature","properties":{"pwsid":"CA5400567","pws_name":"TOOLEVILLE MUTUAL NON PROFIT WATER ASSN","pop_served":340,"connections":77,"geom_type":"polygon","sgti_ft_per_yr":-2.013,"n_wells_used":8,"n_wells_significant":1,"vuln_rank":8,"radius_m":2000},"geometry":{"type":"Polygon","coordinates":[[[-119.1134,36.28778],[-119.11346,36.28605],[-119.11783,36.2862],[-119.11781,36.28788],[-119.1134,36.28778]]]}},{"type":"Feature","properties":{"pwsid":"CA5400616","pws_name":"LEMON COVE WATER COMPANY","pop_served":109,"connections":60,"geom_type":"polygon","sgti_ft_per_yr":null,"n_wells_used":null,"n_wells_significant":null,"vuln_rank":null,"radius_m":null},"geometry":{"type":"MultiPolygon","coordinates":[[[[-119.02495,36.38693],[-119.02498,36.38353],[-119.02424,36.38355],[-119.02424,36.38311],[-119.0246,36.3831],[-119.02461,36.38262],[-119.02498,36.38262],[-119.02516,36.38178],[-119.02564,36.38118],[-119.02594,36.38095],[-119.02646,36.38097],[-119.02646,36.38264],[-119.02721,36.38264],[-119.02828,36.38203],[-119.02845,36.38232],[-119.02762,36.38274],[-119.027,36.38337],[-119.02677,36.38337],[-119.02685,36.38317],[-119.02656,36.38317],[-119.0266,36.38565],[-119.02569,36.38566],[-119.02572,36.38694],[-119.02495,36.38693]]],[[[-119.02857,36.39363],[-119.02904,36.39328],[-119.02977,36.39391],[-119.02914,36.39429],[-119.02857,36.39363]]]]}},{"type":"Feature","properties":{"pwsid":"CA5400631","pws_name":"LINNELL FARM LABOR CENTER","pop_served":694,"connections":195,"geom_type":"polygon","sgti_ft_per_yr":-1.699,"n_wells_used":1,"n_wells_significant":1,"vuln_rank":11,"radius_m":2000},"geometry":{"type":"Polygon","coordinates":[[[-119.21889,36.31222],[-119.21891,36.30797],[-119.21958,36.308],[-119.21956,36.30746],[-119.22058,36.30747],[-119.22056,36.30693],[-119.22467,36.30699],[-119.22459,36.31227],[-119.21889,36.31222]]]}},{"type":"Feature","properties":{"pwsid":"CA5400647","pws_name":"YOKOHL MUTUAL WATER CO","pop_served":95,"connections":32,"geom_type":"polygon","sgti_ft_per_yr":-1.557,"n_wells_used":7,"n_wells_significant":7,"vuln_rank":12,"radius_m":2000},"geometry":{"type":"Polygon","coordinates":[[[-119.08629,36.32297],[-119.08813,36.32296],[-119.08813,36.32542],[-119.08436,36.32537],[-119.08441,36.3234],[-119.08629,36.32297]]]}},{"type":"Feature","properties":{"pwsid":"CA5400679","pws_name":"MADSON GARDENS APARTMENTS","pop_served":66,"connections":3,"geom_type":"polygon","sgti_ft_per_yr":-2.21,"n_wells_used":4,"n_wells_significant":4,"vuln_rank":6,"radius_m":2000},"geometry":{"type":"Polygon","coordinates":[[[-119.3664,36.2702],[-119.36687,36.27081],[-119.36599,36.27109],[-119.36515,36.27109],[-119.36512,36.27029],[-119.3653,36.27012],[-119.3664,36.2702]]]}},{"type":"Feature","properties":{"pwsid":"CA5400682","pws_name":"PLAINVIEW MWC - CENTRAL WATER","pop_served":138,"connections":42,"geom_type":"polygon","sgti_ft_per_yr":-1.956,"n_wells_used":15,"n_wells_significant":12,"vuln_rank":9,"radius_m":2000},"geometry":{"type":"Polygon","coordinates":[[[-119.13454,36.14542],[-119.13435,36.14188],[-119.13506,36.14187],[-119.13508,36.1436],[-119.13609,36.1436],[-119.13608,36.14436],[-119.13655,36.14435],[-119.13654,36.14522],[-119.13651,36.14541],[-119.13454,36.14542]]]}},{"type":"Feature","properties":{"pwsid":"CA5400816","pws_name":"BEDEL MUTUAL WATER COMPANY","pop_served":155,"connections":66,"geom_type":"polygon","sgti_ft_per_yr":null,"n_wells_used":null,"n_wells_significant":null,"vuln_rank":null,"radius_m":null},"geometry":{"type":"Polygon","coordinates":[[[-119.26087,36.32179],[-119.26949,36.32186],[-119.2695,36.32369],[-119.26089,36.32362],[-119.26087,36.32179]]]}},{"type":"Feature","properties":{"pwsid":"CA5400819","pws_name":"MOUNTAIN VIEW MHP","pop_served":44,"connections":24,"geom_type":"polygon","sgti_ft_per_yr":null,"n_wells_used":null,"n_wells_significant":null,"vuln_rank":null,"radius_m":null},"geometry":{"type":"Polygon","coordinates":[[[-119.22615,36.32726],[-119.22682,36.32725],[-119.22683,36.32797],[-119.22615,36.32796],[-119.22615,36.32726]]]}},{"type":"Feature","properties":{"pwsid":"CA5400880","pws_name":"THE LAKES ASSOCIATION","pop_served":495,"connections":161,"geom_type":"polygon","sgti_ft_per_yr":-2.576,"n_wells_used":1,"n_wells_significant":1,"vuln_rank":3,"radius_m":2000},"geometry":{"type":"Polygon","coordinates":[[[-119.35006,36.34558],[-119.35006,36.34219],[-119.35881,36.34224],[-119.35882,36.34558],[-119.35006,36.34558]]]}},{"type":"Feature","properties":{"pwsid":"CA5400881","pws_name":"SUNRISE MUTUAL WATER CO.","pop_served":109,"connections":38,"geom_type":"polygon","sgti_ft_per_yr":-2.324,"n_wells_used":2,"n_wells_significant":2,"vuln_rank":5,"radius_m":2000},"geometry":{"type":"Polygon","coordinates":[[[-119.29699,36.37459],[-119.29699,36.37279],[-119.30127,36.37278],[-119.30126,36.37458],[-119.29699,36.37459]]]}},{"type":"Feature","properties":{"pwsid":"CA5400903","pws_name":"TRACT 92  COMMUNITY SERVICES DISTRICT","pop_served":500,"connections":93,"geom_type":"polygon","sgti_ft_per_yr":-1.403,"n_wells_used":4,"n_wells_significant":3,"vuln_rank":13,"radius_m":2000},"geometry":{"type":"Polygon","coordinates":[[[-119.23399,36.28907],[-119.23848,36.28668],[-119.23848,36.28728],[-119.24295,36.28732],[-119.24297,36.2906],[-119.24354,36.29061],[-119.24354,36.29094],[-119.23398,36.29083],[-119.23399,36.28907]]]}},{"type":"Feature","properties":{"pwsid":"CA5402038","pws_name":"PATTERSON TRACT CSD","pop_served":550,"connections":153,"geom_type":"polygon","sgti_ft_per_yr":-2.889,"n_wells_used":1,"n_wells_significant":1,"vuln_rank":2,"radius_m":2000},"geometry":{"type":"Polygon","coordinates":[[[-119.29242,36.38113],[-119.29119,36.37832],[-119.29668,36.37833],[-119.2965,36.38561],[-119.29251,36.38558],[-119.2926,36.38199],[-119.29242,36.38113]]]}},{"type":"Feature","properties":{"pwsid":"CA5403144","pws_name":"ALI MUTUAL WATER CO","pop_served":39,"connections":13,"geom_type":"polygon","sgti_ft_per_yr":-3.555,"n_wells_used":1,"n_wells_significant":1,"vuln_rank":1,"radius_m":2000},"geometry":{"type":"Polygon","coordinates":[[[-119.26025,36.21408],[-119.25965,36.21407],[-119.25965,36.21156],[-119.25751,36.21153],[-119.25754,36.21103],[-119.26009,36.2111],[-119.26025,36.21408]]]}},{"type":"Feature","properties":{"pwsid":"CA5403217","pws_name":"OKIEVILLE HIGHLAND ACRES MWC","pop_served":300,"connections":73,"geom_type":"polygon","sgti_ft_per_yr":-2.326,"n_wells_used":7,"n_wells_significant":6,"vuln_rank":4,"radius_m":2000},"geometry":{"type":"MultiPolygon","coordinates":[[[[-119.4663,36.20691],[-119.47072,36.20687],[-119.47066,36.2106],[-119.46623,36.21057],[-119.4663,36.20691]]],[[[-119.47087,36.20353],[-119.47088,36.20295],[-119.47332,36.20294],[-119.4733,36.20334],[-119.47304,36.20334],[-119.47304,36.20351],[-119.47087,36.20353]]],[[[-119.46637,36.20484],[-119.46642,36.20306],[-119.47071,36.20304],[-119.47065,36.2048],[-119.46637,36.20484]]],[[[-119.47061,36.20673],[-119.46631,36.2067],[-119.46641,36.20498],[-119.47067,36.20497],[-119.47061,36.20673]]]]}},{"type":"Feature","properties":{"pwsid":"CA5410039","pws_name":"PLAINVIEW MUTUAL WATER COMPANY","pop_served":617,"connections":187,"geom_type":"polygon","sgti_ft_per_yr":-1.924,"n_wells_used":15,"n_wells_significant":11,"vuln_rank":10,"radius_m":2000},"geometry":{"type":"Polygon","coordinates":[[[-119.13431,36.14556],[-119.12988,36.14557],[-119.12986,36.14193],[-119.13419,36.14193],[-119.13431,36.14556]]]}},{"type":"Feature","properties":{"pwsid":"CA5410041","pws_name":"CWS - TULCO WATER COMPANY","pop_served":716,"connections":182,"geom_type":"polygon","sgti_ft_per_yr":-2.155,"n_wells_used":1,"n_wells_significant":0,"vuln_rank":7,"radius_m":2000},"geometry":{"type":"Polygon","coordinates":[[[-119.28699,36.19652],[-119.28715,36.21083],[-119.27833,36.21076],[-119.27813,36.19649],[-119.28699,36.19652]]]}}]}