{"type":"FeatureCollection","features":[{"type":"Feature","properties":{"pwsid":"CA5400504","pws_name":"PORTERVILLE MOBILE VILLAGE","pop_served":205,"connections":62,"geom_type":"polygon","sgti_ft_per_yr":-1.434,"n_wells_used":2,"n_wells_significant":1,"vuln_rank":11,"radius_m":2000},"geometry":{"type":"Polygon","coordinates":[[[-119.00869,36.03844],[-119.00957,36.03842],[-119.00957,36.04038],[-119.00872,36.0404],[-119.00869,36.03844]]]}},{"type":"Feature","properties":{"pwsid":"CA5400529","pws_name":"SHADY GROVE  MOBILE HOME PARK, LLC","pop_served":95,"connections":42,"geom_type":"polygon","sgti_ft_per_yr":-1.929,"n_wells_used":1,"n_wells_significant":1,"vuln_rank":8,"radius_m":2000},"geometry":{"type":"Polygon","coordinates":[[[-119.01555,36.04405],[-119.01555,36.04295],[-119.01675,36.04295],[-119.01675,36.04405],[-119.01555,36.04405]]]}},{"type":"Feature","properties":{"pwsid":"CA5400542","pws_name":"DUCOR CSD","pop_served":616,"connections":176,"geom_type":"polygon","sgti_ft_per_yr":2.188,"n_wells_used":1,"n_wells_significant":0,"vuln_rank":16,"radius_m":2000},"geometry":{"type":"Polygon","coordinates":[[[-119.04882,35.88856],[-119.04893,35.88946],[-119.05296,35.88943],[-119.05281,35.89015],[-119.05229,35.8912],[-119.0518,35.89153],[-119.05096,35.89159],[-119.05096,35.89181],[-119.05194,35.89187],[-119.05276,35.8929],[-119.05302,35.89368],[-119.05314,35.89576],[-119.04925,35.89576],[-119.04927,35.89709],[-119.04705,35.89711],[-119.04704,35.89538],[-119.04539,35.89539],[-119.04536,35.89712],[-119.03813,35.89712],[-119.03814,35.89888],[-119.03603,35.89887],[-119.03597,35.89283],[-119.03811,35.89283],[-119.03811,35.89351],[-119.04033,35.89351],[-119.0402,35.89044],[-119.04366,35.89047],[-119.04366,35.89107],[-119.04491,35.89111],[-119.04494,35.88856],[-119.04882,35.88856]]]}},{"type":"Feature","properties":{"pwsid":"CA5400544","pws_name":"ALLENSWORTH CSD","pop_served":531,"connections":183,"geom_type":"polygon","sgti_ft_per_yr":-1.051,"n_wells_used":2,"n_wells_significant":2,"vuln_rank":13,"radius_m":2000},"geometry":{"type":"Polygon","coordinates":[[[-119.37979,35.85592],[-119.37957,35.84073],[-119.38291,35.84069],[-119.38288,35.83446],[-119.37088,35.83454],[-119.37059,35.83364],[-119.38624,35.83352],[-119.38627,35.84066],[-119.38851,35.84063],[-119.38853,35.84428],[-119.39301,35.84422],[-119.39331,35.86592],[-119.38808,35.86596],[-119.3851,35.86208],[-119.38433,35.86131],[-119.38432,35.86054],[-119.38344,35.86054],[-119.37979,35.85592]]]}},{"type":"Feature","properties":{"pwsid":"CA5400602","pws_name":"EAGLE'S NEST RESORT","pop_served":60,"connections":78,"geom_type":"polygon","sgti_ft_per_yr":-0.686,"n_wells_used":4,"n_wells_significant":3,"vuln_rank":14,"radius_m":2000},"geometry":{"type":"Polygon","coordinates":[[[-118.95183,36.04629],[-118.95055,36.0469],[-118.95052,36.04517],[-118.95119,36.04521],[-118.95129,36.04506],[-118.95186,36.04526],[-118.95177,36.04565],[-118.95189,36.04567],[-118.95169,36.04598],[-118.95183,36.04629]]]}},{"type":"Feature","properties":{"pwsid":"CA5400604","pws_name":"MOUNTAIN VIEW DUPLEXES","pop_served":103,"connections":14,"geom_type":"polygon","sgti_ft_per_yr":-1.474,"n_wells_used":3,"n_wells_significant":3,"vuln_rank":10,"radius_m":2000},"geometry":{"type":"MultiPolygon","coordinates":[[[[-118.98766,36.05276],[-118.98773,36.05131],[-118.98893,36.05131],[-118.98889,36.05277],[-118.98766,36.05276]]],[[[-118.99079,36.0529],[-118.99079,36.05132],[-118.99138,36.05133],[-118.99138,36.0529],[-118.99079,36.0529]]]]}},{"type":"Feature","properties":{"pwsid":"CA5400641","pws_name":"TEVISTON COMMUNITY SERVICES DISTRICT","pop_served":383,"connections":116,"geom_type":"polygon","sgti_ft_per_yr":-2.766,"n_wells_used":1,"n_wells_significant":0,"vuln_rank":3,"radius_m":2000},"geometry":{"type":"Polygon","coordinates":[[[-119.26827,35.94248],[-119.26827,35.94143],[-119.26869,35.94143],[-119.26869,35.94157],[-119.27487,35.94156],[-119.27487,35.9352],[-119.27706,35.9352],[-119.27707,35.93159],[-119.28146,35.93159],[-119.28367,35.93341],[-119.28367,35.93422],[-119.28434,35.93423],[-119.28487,35.93523],[-119.28366,35.93523],[-119.28368,35.93886],[-119.27925,35.93885],[-119.27926,35.94158],[-119.27975,35.94158],[-119.27975,35.94248],[-119.26827,35.94248]]]}},{"type":"Feature","properties":{"pwsid":"CA5400718","pws_name":"WILLIAMS MUTUAL  WATER COMPANY","pop_served":165,"connections":50,"geom_type":"polygon","sgti_ft_per_yr":-1.837,"n_wells_used":1,"n_wells_significant":1,"vuln_rank":9,"radius_m":2000},"geometry":{"type":"Polygon","coordinates":[[[-119.14327,36.0654],[-119.14323,36.06122],[-119.14774,36.06124],[-119.14767,36.06562],[-119.1435,36.06565],[-119.14327,36.0654]]]}},{"type":"Feature","properties":{"pwsid":"CA5400767","pws_name":"PORTERVILLE - EAST PLANO","pop_served":46,"connections":13,"geom_type":"polygon","sgti_ft_per_yr":-2.21,"n_wells_used":2,"n_wells_significant":2,"vuln_rank":6,"radius_m":2000},"geometry":{"type":"Polygon","coordinates":[[[-119.00493,36.04271],[-119.00543,36.04248],[-119.00589,36.04267],[-119.00638,36.04267],[-119.00639,36.04395],[-119.00536,36.04395],[-119.00493,36.04271]]]}},{"type":"Feature","properties":{"pwsid":"CA5400769","pws_name":"FOOTHILL APARTMENTS","pop_served":41,"connections":14,"geom_type":"polygon","sgti_ft_per_yr":null,"n_wells_used":null,"n_wells_significant":null,"vuln_rank":null,"radius_m":null},"geometry":{"type":"Polygon","coordinates":[[[-119.04521,36.11411],[-119.0442,36.11411],[-119.04413,36.11343],[-119.04488,36.11341],[-119.04521,36.11411]]]}},{"type":"Feature","properties":{"pwsid":"CA5400792","pws_name":"WOODVILLE FARM LABOR CENTER","pop_served":650,"connections":177,"geom_type":"polygon","sgti_ft_per_yr":-2.514,"n_wells_used":2,"n_wells_significant":2,"vuln_rank":4,"radius_m":2000},"geometry":{"type":"Polygon","coordinates":[[[-119.15005,36.0876],[-119.1501,36.08545],[-119.1433,36.08546],[-119.14323,36.08051],[-119.14855,36.08056],[-119.14858,36.08224],[-119.15044,36.08226],[-119.15052,36.08485],[-119.15207,36.08487],[-119.15204,36.08761],[-119.15005,36.0876]]]}},{"type":"Feature","properties":{"pwsid":"CA5400935","pws_name":"CWS - MULLEN WATER COMPANY","pop_served":138,"connections":43,"geom_type":"polygon","sgti_ft_per_yr":-1.268,"n_wells_used":3,"n_wells_significant":2,"vuln_rank":12,"radius_m":2000},"geometry":{"type":"Polygon","coordinates":[[[-118.99518,36.04226],[-118.99719,36.04227],[-118.99716,36.04377],[-118.99517,36.04288],[-118.9951,36.04403],[-118.99383,36.04401],[-118.99353,36.04366],[-118.99396,36.04335],[-118.99333,36.04244],[-118.99247,36.0426],[-118.99153,36.03982],[-118.99128,36.03861],[-118.99517,36.03866],[-118.99516,36.04043],[-118.99732,36.04043],[-118.99731,36.04136],[-118.99518,36.04136],[-118.99518,36.04226]]]}},{"type":"Feature","properties":{"pwsid":"CA5400964","pws_name":"SIERRA VISTA ASSOCIATION","pop_served":43,"connections":13,"geom_type":"polygon","sgti_ft_per_yr":-4.449,"n_wells_used":2,"n_wells_significant":2,"vuln_rank":1,"radius_m":2000},"geometry":{"type":"Polygon","coordinates":[[[-119.18849,35.79736],[-119.18781,35.79736],[-119.1878,35.79463],[-119.18848,35.79463],[-119.18849,35.79736]]]}},{"type":"Feature","properties":{"pwsid":"CA5410025","pws_name":"WOODVILLE PUBLIC UTILITY DIST","pop_served":1740,"connections":467,"geom_type":"polygon","sgti_ft_per_yr":-3.05,"n_wells_used":2,"n_wells_significant":1,"vuln_rank":2,"radius_m":2000},"geometry":{"type":"MultiPolygon","coordinates":[[[[-119.19671,36.09837],[-119.1958,36.09837],[-119.1958,36.09666],[-119.19223,36.09665],[-119.19222,36.09478],[-119.19456,36.09477],[-119.19455,36.08957],[-119.19661,36.08955],[-119.19661,36.08884],[-119.19366,36.08886],[-119.19365,36.08776],[-119.19671,36.08774],[-119.19671,36.08795],[-119.19967,36.08797],[-119.19967,36.08935],[-119.20262,36.08936],[-119.20261,36.08772],[-119.20565,36.08774],[-119.20577,36.0948],[-119.20793,36.09482],[-119.20792,36.09644],[-119.20679,36.09644],[-119.20679,36.09572],[-119.20564,36.09571],[-119.20564,36.09616],[-119.20474,36.09616],[-119.20473,36.09842],[-119.20115,36.09841],[-119.20115,36.09664],[-119.19894,36.09663],[-119.19889,36.10203],[-119.1967,36.10202],[-119.19671,36.09837]]],[[[-119.21014,36.08042],[-119.21457,36.08037],[-119.21458,36.08397],[-119.21014,36.08395],[-119.21014,36.08042]]]]}},{"type":"Feature","properties":{"pwsid":"CA5410048","pws_name":"PORTERVILLE-JONES CORNER","pop_served":339,"connections":119,"geom_type":"polygon","sgti_ft_per_yr":-1.929,"n_wells_used":2,"n_wells_significant":2,"vuln_rank":7,"radius_m":2000},"geometry":{"type":"Polygon","coordinates":[[[-119.09983,36.0659],[-119.10219,36.06589],[-119.10218,36.07206],[-119.0998,36.07207],[-119.09983,36.0659]]]}},{"type":"Feature","properties":{"pwsid":"CA5410050","pws_name":"ALPAUGH COMMUNITY SERVICES DISTRICT","pop_served":871,"connections":397,"geom_type":"polygon","sgti_ft_per_yr":-2.334,"n_wells_used":1,"n_wells_significant":0,"vuln_rank":5,"radius_m":2000},"geometry":{"type":"Polygon","coordinates":[[[-119.48283,35.89129],[-119.48284,35.88417],[-119.49175,35.88417],[-119.49175,35.89129],[-119.48283,35.89129]]]}},{"type":"Feature","properties":{"pwsid":"CA5410801","pws_name":"PORTERVILLE DEVELOPMENTAL CENTER","pop_served":1281,"connections":99,"geom_type":"polygon","sgti_ft_per_yr":-0.634,"n_wells_used":6,"n_wells_significant":5,"vuln_rank":15,"radius_m":2000},"geometry":{"type":"Polygon","coordinates":[[[-118.99027,36.051],[-118.97227,36.05108],[-118.97058,36.05095],[-118.97077,36.04378],[-118.97747,36.04385],[-118.97756,36.0331],[-118.99084,36.03319],[-118.99071,36.04035],[-118.98647,36.04036],[-118.98637,36.04391],[-118.99016,36.04394],[-118.99008,36.0459],[-118.99048,36.04589],[-118.99027,36.051]]]}}]}