{"type":"FeatureCollection","features":[{"type":"Feature","properties":{"pwsid":"CA2000529","pws_name":"BONADELLE RANCHOS NO. 2  MUTUAL WATER CO","pop_served":92,"connections":23,"geom_type":"polygon","sgti_ft_per_yr":null,"n_wells_used":null,"n_wells_significant":null,"vuln_rank":null,"radius_m":null},"geometry":{"type":"Polygon","coordinates":[[[-119.91197,36.96664],[-119.90296,36.96661],[-119.90296,36.96414],[-119.91199,36.96414],[-119.91197,36.96664]]]}},{"type":"Feature","properties":{"pwsid":"CA2000553","pws_name":"MD 28 RIPPERDAN SELF HELP","pop_served":48,"connections":17,"geom_type":"polygon","sgti_ft_per_yr":-0.479,"n_wells_used":3,"n_wells_significant":1,"vuln_rank":8,"radius_m":2000},"geometry":{"type":"Polygon","coordinates":[[[-120.05707,36.85269],[-120.05707,36.85483],[-120.05591,36.85483],[-120.0559,36.85267],[-120.05707,36.85269]]]}},{"type":"Feature","properties":{"pwsid":"CA2000554","pws_name":"MD 33 FAIRMEAD","pop_served":568,"connections":165,"geom_type":"polygon","sgti_ft_per_yr":-3.683,"n_wells_used":1,"n_wells_significant":1,"vuln_rank":1,"radius_m":2000},"geometry":{"type":"Polygon","coordinates":[[[-120.19481,37.07428],[-120.19566,37.07509],[-120.19567,37.0764],[-120.19718,37.07642],[-120.19793,37.077],[-120.19792,37.07755],[-120.19565,37.07753],[-120.19571,37.08232],[-120.19318,37.08229],[-120.19307,37.07757],[-120.19083,37.07755],[-120.19091,37.07271],[-120.19322,37.07269],[-120.19492,37.07417],[-120.19481,37.07428]]]}},{"type":"Feature","properties":{"pwsid":"CA2000595","pws_name":"MADERA MH & RV PARK","pop_served":450,"connections":99,"geom_type":"polygon","sgti_ft_per_yr":-1.662,"n_wells_used":2,"n_wells_significant":1,"vuln_rank":5,"radius_m":2000},"geometry":{"type":"Polygon","coordinates":[[[-120.09233,36.98198],[-120.09412,36.98197],[-120.09413,36.98264],[-120.09458,36.98264],[-120.09461,36.98552],[-120.09234,36.98552],[-120.09233,36.98198]]]}},{"type":"Feature","properties":{"pwsid":"CA2000608","pws_name":"WILDWOOD MOBILE HOME PK INC","pop_served":106,"connections":68,"geom_type":"polygon","sgti_ft_per_yr":-0.136,"n_wells_used":3,"n_wells_significant":3,"vuln_rank":11,"radius_m":2000},"geometry":{"type":"Polygon","coordinates":[[[-119.78994,36.87788],[-119.79019,36.87935],[-119.78689,36.87937],[-119.78702,36.87861],[-119.78765,36.87793],[-119.78994,36.87788]]]}},{"type":"Feature","properties":{"pwsid":"CA2000692","pws_name":"MD 95 RANCHOS WEST","pop_served":150,"connections":28,"geom_type":"polygon","sgti_ft_per_yr":-0.702,"n_wells_used":2,"n_wells_significant":1,"vuln_rank":6,"radius_m":2000},"geometry":{"type":"Polygon","coordinates":[[[-119.91203,36.93381],[-119.90766,36.93381],[-119.90761,36.93035],[-119.91207,36.93035],[-119.91203,36.93381]]]}},{"type":"Feature","properties":{"pwsid":"CA2000724","pws_name":"SA 14 CHUK CHANSE SUBDIVISION","pop_served":100,"connections":31,"geom_type":"polygon","sgti_ft_per_yr":-3.038,"n_wells_used":1,"n_wells_significant":0,"vuln_rank":2,"radius_m":2000},"geometry":{"type":"Polygon","coordinates":[[[-120.02902,37.03442],[-120.02765,37.03443],[-120.02762,37.0337],[-120.02679,37.0337],[-120.02678,37.03318],[-120.02762,37.03318],[-120.0276,37.03246],[-120.02898,37.03247],[-120.02902,37.03442]]]}},{"type":"Feature","properties":{"pwsid":"CA2000727","pws_name":"MD 36 EASTIN ARCOLA","pop_served":84,"connections":16,"geom_type":"polygon","sgti_ft_per_yr":-0.395,"n_wells_used":3,"n_wells_significant":3,"vuln_rank":9,"radius_m":2000},"geometry":{"type":"Polygon","coordinates":[[[-120.0103,36.86578],[-120.01254,36.86579],[-120.01256,36.8665],[-120.01031,36.86651],[-120.01032,36.86711],[-120.00986,36.8671],[-120.00985,36.86689],[-120.0077,36.86688],[-120.00766,36.86578],[-120.00953,36.86578],[-120.00951,36.86439],[-120.01028,36.86438],[-120.0103,36.86578]]]}},{"type":"Feature","properties":{"pwsid":"CA2000728","pws_name":"MD 37 LA VINA","pop_served":350,"connections":102,"geom_type":"polygon","sgti_ft_per_yr":-2.047,"n_wells_used":2,"n_wells_significant":2,"vuln_rank":4,"radius_m":2000},"geometry":{"type":"Polygon","coordinates":[[[-120.11905,36.88035],[-120.11904,36.8812],[-120.11066,36.88122],[-120.11066,36.88086],[-120.10976,36.88087],[-120.10977,36.88037],[-120.11065,36.88037],[-120.11064,36.87849],[-120.11932,36.87851],[-120.11932,36.87955],[-120.11835,36.87956],[-120.11836,36.87981],[-120.11791,36.87981],[-120.1179,36.88036],[-120.11905,36.88035]]]}},{"type":"Feature","properties":{"pwsid":"CA2010004","pws_name":"MADERA CO CMD19-PARKWOOD","pop_served":1637,"connections":496,"geom_type":"polygon","sgti_ft_per_yr":-2.229,"n_wells_used":3,"n_wells_significant":2,"vuln_rank":3,"radius_m":2000},"geometry":{"type":"Polygon","coordinates":[[[-120.04754,36.93019],[-120.05573,36.93018],[-120.0557,36.9365],[-120.05598,36.93661],[-120.05594,36.93829],[-120.04834,36.93816],[-120.04754,36.93019]]]}},{"type":"Feature","properties":{"pwsid":"CA2010009","pws_name":"BAKMAN WATER-ROLLING HILLS","pop_served":1107,"connections":349,"geom_type":"polygon","sgti_ft_per_yr":-0.161,"n_wells_used":3,"n_wells_significant":3,"vuln_rank":10,"radius_m":2000},"geometry":{"type":"Polygon","coordinates":[[[-119.79376,36.91312],[-119.79329,36.89862],[-119.79346,36.89616],[-119.79359,36.89586],[-119.79402,36.89567],[-119.79964,36.89558],[-119.80044,36.90859],[-119.80123,36.90857],[-119.80121,36.90893],[-119.80293,36.90881],[-119.80293,36.91269],[-119.79376,36.91312]]]}},{"type":"Feature","properties":{"pwsid":"CA2010018","pws_name":"PRESERVE AT MILLERTON LAKE WATER SYSTEM","pop_served":600,"connections":243,"geom_type":"polygon","sgti_ft_per_yr":null,"n_wells_used":null,"n_wells_significant":null,"vuln_rank":null,"radius_m":null},"geometry":{"type":"MultiPolygon","coordinates":[[[[-119.72602,37.02152],[-119.7215,37.02159],[-119.7215,37.018],[-119.71011,37.01809],[-119.70556,37.02166],[-119.70121,37.02162],[-119.70169,37.02157],[-119.70142,37.02046],[-119.70176,37.02016],[-119.70384,37.02003],[-119.70439,37.02043],[-119.70444,37.02018],[-119.70484,37.01997],[-119.7044,37.01973],[-119.70346,37.01967],[-119.7021,37.01921],[-119.70172,37.01921],[-119.70148,37.01895],[-119.7011,37.01888],[-119.69983,37.01808],[-119.69971,37.01777],[-119.70015,37.01774],[-119.70068,37.01735],[-119.70146,37.01769],[-119.70185,37.01753],[-119.7014,37.0171],[-119.70155,37.01652],[-119.70137,37.01643],[-119.70089,37.01661],[-119.70055,37.01657],[-119.69881,37.01543],[-119.69884,37.01518],[-119.69902,37.01511],[-119.70051,37.01583],[-119.7011,37.01581],[-119.7014,37.01561],[-119.70102,37.01495],[-119.70033,37.01437],[-119.7006,37.01419],[-119.70191,37.01405],[-119.70101,37.01338],[-119.70108,37.0125],[-119.70034,37.01261],[-119.69993,37.01306],[-119.69884,37.01359],[-119.69845,37.01349],[-119.69814,37.01308],[-119.69823,37.01286],[-119.69887,37.01261],[-119.70002,37.0128],[-119.70084,37.01162],[-119.70078,37.01119],[-119.70054,37.01094],[-119.70072,37.01071],[-119.70227,37.0107],[-119.70243,37.01105],[-119.70284,37.0107],[-119.70424,37.0107],[-119.705,37.01137],[-119.70503,37.0118],[-119.7061,37.01194],[-119.70651,37.01237],[-119.70739,37.01245],[-119.70737,37.01201],[-119.70663,37.01165],[-119.70663,37.01134],[-119.70596,37.01121],[-119.70554,37.01082],[-119.70568,37.01044],[-119.70534,37.01024],[-119.70524,37.00993],[-119.70603,37.00924],[-119.70506,37.00911],[-119.70522,37.00806],[-119.70489,37.00769],[-119.70507,37.00695],[-119.70892,37.00701],[-119.70904,37.00182],[-119.7098,37.00223],[-119.70998,37.00294],[-119.71101,37.00286],[-119.71285,37.00133],[-119.71364,37.00104],[-119.71408,37.00031],[-119.71712,36.999],[-119.71665,36.99768],[-119.71742,36.99734],[-119.71746,36.99693],[-119.71776,36.99651],[-119.71834,36.99633],[-119.7185,36.99609],[-119.71942,36.9968],[-119.7205,36.99723],[-119.73047,36.99926],[-119.73047,37.0143],[-119.72601,37.01432],[-119.72602,37.02152]]],[[[-119.72603,37.02522],[-119.72602,37.02152],[-119.73037,37.02145],[-119.73032,37.02503],[-119.72603,37.02522]]]]}},{"type":"Feature","properties":{"pwsid":"CA2010019","pws_name":"MADERA CO CSA 22C GUNNER RANCH","pop_served":3050,"connections":23,"geom_type":"polygon","sgti_ft_per_yr":-0.662,"n_wells_used":7,"n_wells_significant":5,"vuln_rank":7,"radius_m":2000},"geometry":{"type":"MultiPolygon","coordinates":[[[[-119.81098,36.8803],[-119.81088,36.89505],[-119.80187,36.89546],[-119.79531,36.8955],[-119.79531,36.89539],[-119.79352,36.89552],[-119.79467,36.89399],[-119.79463,36.89286],[-119.79493,36.89271],[-119.79464,36.89232],[-119.79441,36.89243],[-119.79388,36.89156],[-119.7937,36.88744],[-119.80033,36.88203],[-119.79968,36.88153],[-119.80011,36.88117],[-119.80076,36.88168],[-119.8017,36.88091],[-119.80882,36.88057],[-119.80966,36.88037],[-119.81098,36.8803]]],[[[-119.82134,36.87981],[-119.81098,36.8803],[-119.81122,36.86648],[-119.8201,36.86643],[-119.82078,36.87376],[-119.83008,36.87342],[-119.83054,36.88011],[-119.82134,36.87981]]]]}},{"type":"Feature","properties":{"pwsid":"CA2010801","pws_name":"VALLEY STATE PRISON","pop_served":3173,"connections":74,"geom_type":"polygon","sgti_ft_per_yr":0.0,"n_wells_used":1,"n_wells_significant":0,"vuln_rank":12,"radius_m":2000},"geometry":{"type":"MultiPolygon","coordinates":[[[[-120.15657,37.09978],[-120.15779,37.10028],[-120.16012,37.10046],[-120.16027,37.10086],[-120.16167,37.1015],[-120.16133,37.10907],[-120.16006,37.10915],[-120.159,37.10898],[-120.15688,37.10908],[-120.15612,37.10897],[-120.15507,37.10919],[-120.1541,37.109],[-120.15251,37.10921],[-120.15136,37.109],[-120.15076,37.10907],[-120.15066,37.10875],[-120.15094,37.10811],[-120.15095,37.10715],[-120.15074,37.10654],[-120.15077,37.102],[-120.15151,37.09985],[-120.15147,37.09853],[-120.15161,37.09809],[-120.15169,37.098],[-120.1519,37.09816],[-120.1531,37.09834],[-120.15368,37.09881],[-120.15657,37.09978]]],[[[-120.15668,37.09981],[-120.15657,37.09978],[-120.15644,37.09972],[-120.15668,37.09981]]]]}}]}