{"type":"FeatureCollection","features":[{"type":"Feature","properties":{"pwsid":"CA1000004","pws_name":"BELMONT WATER CORPORATION","pop_served":264,"connections":40,"geom_type":"polygon","sgti_ft_per_yr":-1.233,"n_wells_used":3,"n_wells_significant":3,"vuln_rank":19,"radius_m":2000},"geometry":{"type":"Polygon","coordinates":[[[-119.64203,36.74527],[-119.64397,36.74506],[-119.64442,36.74663],[-119.64446,36.7478],[-119.64329,36.74853],[-119.64242,36.74869],[-119.64222,36.74868],[-119.64253,36.74644],[-119.64203,36.74527]]]}},{"type":"Feature","properties":{"pwsid":"CA1000018","pws_name":"EASTON ESTATES WATER COMPANY","pop_served":302,"connections":108,"geom_type":"polygon","sgti_ft_per_yr":-0.825,"n_wells_used":2,"n_wells_significant":1,"vuln_rank":27,"radius_m":2000},"geometry":{"type":"MultiPolygon","coordinates":[[[[-119.77736,36.65239],[-119.77727,36.64867],[-119.77731,36.64886],[-119.78176,36.64885],[-119.78179,36.65234],[-119.77736,36.65239]]],[[[-119.77727,36.64866],[-119.77297,36.64868],[-119.77285,36.64804],[-119.77726,36.64803],[-119.77727,36.64866]]],[[[-119.77727,36.64867],[-119.77727,36.64866],[-119.77727,36.64866],[-119.77727,36.64867]]]]}},{"type":"Feature","properties":{"pwsid":"CA1000021","pws_name":"FCSA 05 - WILDWOOD ISLAND","pop_served":417,"connections":149,"geom_type":"polygon","sgti_ft_per_yr":-0.075,"n_wells_used":3,"n_wells_significant":0,"vuln_rank":38,"radius_m":2000},"geometry":{"type":"Polygon","coordinates":[[[-119.45964,36.74579],[-119.45794,36.74583],[-119.45719,36.7457],[-119.45684,36.74554],[-119.45708,36.74532],[-119.45638,36.74488],[-119.45832,36.74273],[-119.4586,36.74189],[-119.46071,36.73975],[-119.46204,36.73645],[-119.46286,36.73562],[-119.46273,36.73533],[-119.46295,36.73504],[-119.4634,36.73463],[-119.46601,36.73471],[-119.46628,36.73487],[-119.46623,36.73852],[-119.46554,36.73897],[-119.46492,36.73907],[-119.46293,36.74057],[-119.46283,36.7412],[-119.46309,36.742],[-119.46243,36.74354],[-119.46089,36.74565],[-119.46023,36.74622],[-119.45964,36.74579]]]}},{"type":"Feature","properties":{"pwsid":"CA1000023","pws_name":"FCSA 14 - BELMONT MANOR","pop_served":115,"connections":41,"geom_type":"polygon","sgti_ft_per_yr":-1.236,"n_wells_used":4,"n_wells_significant":4,"vuln_rank":18,"radius_m":2000},"geometry":{"type":"Polygon","coordinates":[[[-119.63462,36.74669],[-119.6368,36.74668],[-119.63682,36.75023],[-119.63455,36.75022],[-119.63436,36.74932],[-119.6347,36.74901],[-119.63455,36.74869],[-119.63472,36.74863],[-119.63444,36.74821],[-119.63465,36.74811],[-119.6345,36.74775],[-119.63482,36.74769],[-119.63462,36.74669]]]}},{"type":"Feature","properties":{"pwsid":"CA1000039","pws_name":"FCSA 10 - CUMORAH KNOLLS","pop_served":132,"connections":47,"geom_type":"polygon","sgti_ft_per_yr":-0.814,"n_wells_used":12,"n_wells_significant":12,"vuln_rank":28,"radius_m":2000},"geometry":{"type":"MultiPolygon","coordinates":[[[[-119.56378,36.80816],[-119.56601,36.80818],[-119.56585,36.80835],[-119.5658,36.80916],[-119.56692,36.81021],[-119.5661,36.81047],[-119.56634,36.81143],[-119.56605,36.81152],[-119.56634,36.81266],[-119.56756,36.81255],[-119.56763,36.81351],[-119.56805,36.81399],[-119.56707,36.81443],[-119.5663,36.81543],[-119.56699,36.81572],[-119.56746,36.81627],[-119.56632,36.81654],[-119.56617,36.81726],[-119.56081,36.8173],[-119.55964,36.81784],[-119.55859,36.81547],[-119.55937,36.81546],[-119.55934,36.81165],[-119.56041,36.81093],[-119.56376,36.81091],[-119.56378,36.80816]]],[[[-119.63473,36.83725],[-119.63473,36.83016],[-119.64004,36.83019],[-119.64037,36.83141],[-119.63947,36.83215],[-119.63831,36.83362],[-119.63841,36.834],[-119.6392,36.83479],[-119.63918,36.83561],[-119.6381,36.83563],[-119.63811,36.83728],[-119.63473,36.83725]]]]}},{"type":"Feature","properties":{"pwsid":"CA1000053","pws_name":"LANARE COMMUNITY SERVICES DIST","pop_served":540,"connections":155,"geom_type":"polygon","sgti_ft_per_yr":-2.897,"n_wells_used":2,"n_wells_significant":2,"vuln_rank":4,"radius_m":2000},"geometry":{"type":"Polygon","coordinates":[[[-119.94082,36.43025],[-119.94088,36.43756],[-119.92955,36.43765],[-119.92953,36.43589],[-119.92729,36.43591],[-119.92725,36.43229],[-119.9311,36.43226],[-119.93106,36.43098],[-119.93,36.43086],[-119.9249,36.431],[-119.92493,36.43407],[-119.92282,36.43409],[-119.92284,36.43584],[-119.91839,36.43591],[-119.91833,36.43316],[-119.92103,36.43314],[-119.92103,36.43045],[-119.92281,36.43044],[-119.92279,36.42677],[-119.92727,36.42676],[-119.92725,36.43034],[-119.92787,36.43033],[-119.92785,36.42983],[-119.92983,36.42983],[-119.92982,36.4287],[-119.93025,36.42876],[-119.93025,36.42905],[-119.93193,36.42902],[-119.93191,36.42677],[-119.93309,36.42671],[-119.93299,36.43024],[-119.94082,36.43025]]]}},{"type":"Feature","properties":{"pwsid":"CA1000057","pws_name":"DEL ORO WATER CO - METROPOLITAN DISTRICT","pop_served":92,"connections":28,"geom_type":"polygon","sgti_ft_per_yr":null,"n_wells_used":null,"n_wells_significant":null,"vuln_rank":null,"radius_m":null},"geometry":{"type":"Polygon","coordinates":[[[-119.85994,36.75914],[-119.85772,36.75915],[-119.85769,36.75741],[-119.85991,36.75739],[-119.85994,36.75914]]]}},{"type":"Feature","properties":{"pwsid":"CA1000075","pws_name":"TRACT 1199 WATER SYSTEM","pop_served":25,"connections":10,"geom_type":"polygon","sgti_ft_per_yr":null,"n_wells_used":null,"n_wells_significant":null,"vuln_rank":null,"radius_m":null},"geometry":{"type":"Polygon","coordinates":[[[-119.61302,36.60518],[-119.61085,36.60514],[-119.61078,36.60288],[-119.61148,36.60289],[-119.6115,36.60377],[-119.61136,36.60378],[-119.61136,36.60399],[-119.61188,36.60398],[-119.61189,36.60426],[-119.61217,36.60446],[-119.61299,36.60446],[-119.61302,36.60518]]]}},{"type":"Feature","properties":{"pwsid":"CA1000078","pws_name":"FCWWD 42/ALLUVIAL & FANCHER","pop_served":291,"connections":104,"geom_type":"polygon","sgti_ft_per_yr":-0.842,"n_wells_used":10,"n_wells_significant":10,"vuln_rank":26,"radius_m":2000},"geometry":{"type":"Polygon","coordinates":[[[-119.62536,36.8447],[-119.63906,36.84469],[-119.63908,36.84643],[-119.64341,36.84646],[-119.64346,36.84468],[-119.64792,36.84471],[-119.64792,36.84649],[-119.64579,36.84648],[-119.64573,36.8483],[-119.64793,36.84828],[-119.64792,36.84962],[-119.64569,36.84964],[-119.64565,36.85198],[-119.64615,36.85259],[-119.64387,36.85383],[-119.63889,36.85369],[-119.63894,36.85282],[-119.62743,36.85281],[-119.62751,36.84916],[-119.62313,36.8491],[-119.6232,36.84554],[-119.62537,36.84557],[-119.62536,36.8447]]]}},{"type":"Feature","properties":{"pwsid":"CA1000186","pws_name":"HELM SCHOOL","pop_served":105,"connections":11,"geom_type":"polygon","sgti_ft_per_yr":null,"n_wells_used":null,"n_wells_significant":null,"vuln_rank":null,"radius_m":null},"geometry":{"type":"Polygon","coordinates":[[[-120.10027,36.53215],[-120.10012,36.53473],[-120.0992,36.53466],[-120.09881,36.53379],[-120.09871,36.53281],[-120.09883,36.53241],[-120.09942,36.53218],[-120.10027,36.53215]]]}},{"type":"Feature","properties":{"pwsid":"CA1000199","pws_name":"FOWLER CARE CENTER","pop_served":46,"connections":1,"geom_type":"polygon","sgti_ft_per_yr":-1.831,"n_wells_used":1,"n_wells_significant":1,"vuln_rank":8,"radius_m":2000},"geometry":{"type":"Polygon","coordinates":[[[-119.63736,36.63504],[-119.63735,36.6345],[-119.63814,36.6345],[-119.63817,36.63507],[-119.63736,36.63504]]]}},{"type":"Feature","properties":{"pwsid":"CA1000229","pws_name":"GREEN ACRES MOBILE HOME ESTATE","pop_served":350,"connections":113,"geom_type":"polygon","sgti_ft_per_yr":null,"n_wells_used":null,"n_wells_significant":null,"vuln_rank":null,"radius_m":null},"geometry":{"type":"Polygon","coordinates":[[[-119.85346,36.7821],[-119.85346,36.77924],[-119.85509,36.77924],[-119.85508,36.781],[-119.8556,36.781],[-119.85559,36.7821],[-119.85346,36.7821]]]}},{"type":"Feature","properties":{"pwsid":"CA1000238","pws_name":"CAMDEN TRAILER PARK","pop_served":75,"connections":26,"geom_type":"polygon","sgti_ft_per_yr":-2.242,"n_wells_used":2,"n_wells_significant":2,"vuln_rank":5,"radius_m":2000},"geometry":{"type":"Polygon","coordinates":[[[-119.8004,36.43252],[-119.79846,36.43244],[-119.79846,36.43143],[-119.80061,36.43139],[-119.8004,36.43252]]]}},{"type":"Feature","properties":{"pwsid":"CA1000244","pws_name":"COMUNIDAD NUEVO LAGO, INC","pop_served":160,"connections":65,"geom_type":"polygon","sgti_ft_per_yr":-1.33,"n_wells_used":1,"n_wells_significant":1,"vuln_rank":16,"radius_m":2000},"geometry":{"type":"Polygon","coordinates":[[[-119.7393,36.65432],[-119.73693,36.65435],[-119.73693,36.65295],[-119.73847,36.65294],[-119.73846,36.65195],[-119.73925,36.65194],[-119.7393,36.65432]]]}},{"type":"Feature","properties":{"pwsid":"CA1000247","pws_name":"SHERWOOD FOREST MHP","pop_served":60,"connections":48,"geom_type":"polygon","sgti_ft_per_yr":-0.046,"n_wells_used":1,"n_wells_significant":0,"vuln_rank":39,"radius_m":2000},"geometry":{"type":"Polygon","coordinates":[[[-119.44618,36.74303],[-119.44798,36.73946],[-119.44792,36.7386],[-119.44809,36.7386],[-119.44807,36.74099],[-119.44876,36.74135],[-119.44871,36.74245],[-119.44814,36.74272],[-119.44813,36.74305],[-119.44618,36.74303]]]}},{"type":"Feature","properties":{"pwsid":"CA1000277","pws_name":"ELM COURT","pop_served":64,"connections":18,"geom_type":"polygon","sgti_ft_per_yr":null,"n_wells_used":null,"n_wells_significant":null,"vuln_rank":null,"radius_m":null},"geometry":{"type":"Polygon","coordinates":[[[-119.79069,36.68324],[-119.78767,36.68325],[-119.78766,36.68279],[-119.79069,36.68278],[-119.79069,36.68324]]]}},{"type":"Feature","properties":{"pwsid":"CA1000295","pws_name":"KINGS PARK APARTMENTS","pop_served":160,"connections":41,"geom_type":"polygon","sgti_ft_per_yr":-0.289,"n_wells_used":1,"n_wells_significant":0,"vuln_rank":35,"radius_m":2000},"geometry":{"type":"Polygon","coordinates":[[[-119.55775,36.68914],[-119.55854,36.68916],[-119.5585,36.69029],[-119.55698,36.69023],[-119.55703,36.68986],[-119.55754,36.68986],[-119.55775,36.68914]]]}},{"type":"Feature","properties":{"pwsid":"CA1000298","pws_name":"WOODWARD BLUFFS MHP","pop_served":300,"connections":172,"geom_type":"polygon","sgti_ft_per_yr":null,"n_wells_used":null,"n_wells_significant":null,"vuln_rank":null,"radius_m":null},"geometry":{"type":"Polygon","coordinates":[[[-119.79172,36.87352],[-119.7916,36.87357],[-119.79181,36.87547],[-119.7898,36.87561],[-119.78961,36.87092],[-119.7913,36.87049],[-119.79146,36.87059],[-119.79172,36.87352]]]}},{"type":"Feature","properties":{"pwsid":"CA1000299","pws_name":"THREE PALMS MOBILEHOME PARK","pop_served":347,"connections":105,"geom_type":"polygon","sgti_ft_per_yr":null,"n_wells_used":null,"n_wells_significant":null,"vuln_rank":null,"radius_m":null},"geometry":{"type":"Polygon","coordinates":[[[-119.83631,36.76875],[-119.8361,36.76883],[-119.83474,36.76852],[-119.83383,36.76813],[-119.83332,36.76774],[-119.83332,36.7669],[-119.83519,36.7669],[-119.83631,36.76875]]]}},{"type":"Feature","properties":{"pwsid":"CA1000324","pws_name":"MANNING GARDENS CARE CENTER INC","pop_served":170,"connections":1,"geom_type":"polygon","sgti_ft_per_yr":-0.927,"n_wells_used":1,"n_wells_significant":0,"vuln_rank":24,"radius_m":2000},"geometry":{"type":"Polygon","coordinates":[[[-119.75343,36.60452],[-119.75341,36.60515],[-119.75181,36.60518],[-119.75182,36.60443],[-119.75343,36.60452]]]}},{"type":"Feature","properties":{"pwsid":"CA1000366","pws_name":"SUNNYSIDE CONVALESCENT HOSP","pop_served":275,"connections":2,"geom_type":"polygon","sgti_ft_per_yr":0.575,"n_wells_used":1,"n_wells_significant":1,"vuln_rank":41,"radius_m":2000},"geometry":{"type":"Polygon","coordinates":[[[-119.71814,36.69405],[-119.71822,36.69572],[-119.7168,36.69566],[-119.71675,36.69408],[-119.71814,36.69405]]]}},{"type":"Feature","properties":{"pwsid":"CA1000369","pws_name":"ZONNEVELD DAIRY - CEDAR","pop_served":100,"connections":15,"geom_type":"polygon","sgti_ft_per_yr":-3.901,"n_wells_used":3,"n_wells_significant":3,"vuln_rank":1,"radius_m":2000},"geometry":{"type":"Polygon","coordinates":[[[-119.76247,36.45531],[-119.76087,36.45495],[-119.76035,36.45454],[-119.76249,36.45452],[-119.76247,36.45531]]]}},{"type":"Feature","properties":{"pwsid":"CA1000378","pws_name":"SUNSET WEST COMMUNITY LLC","pop_served":350,"connections":159,"geom_type":"polygon","sgti_ft_per_yr":null,"n_wells_used":null,"n_wells_significant":null,"vuln_rank":null,"radius_m":null},"geometry":{"type":"Polygon","coordinates":[[[-119.85113,36.77925],[-119.85111,36.7828],[-119.85065,36.7828],[-119.84887,36.78119],[-119.84889,36.77925],[-119.85113,36.77925]]]}},{"type":"Feature","properties":{"pwsid":"CA1000405","pws_name":"KINGS RIVER POINT","pop_served":36,"connections":15,"geom_type":"polygon","sgti_ft_per_yr":null,"n_wells_used":null,"n_wells_significant":null,"vuln_rank":null,"radius_m":null},"geometry":{"type":"Polygon","coordinates":[[[-119.3801,36.82034],[-119.37888,36.82005],[-119.3756,36.81994],[-119.3756,36.81747],[-119.3801,36.8198],[-119.3801,36.82034]]]}},{"type":"Feature","properties":{"pwsid":"CA1000426","pws_name":"RIVERBEND MOBILE HOME & RV PARK","pop_served":137,"connections":34,"geom_type":"polygon","sgti_ft_per_yr":-0.116,"n_wells_used":1,"n_wells_significant":0,"vuln_rank":37,"radius_m":2000},"geometry":{"type":"Polygon","coordinates":[[[-119.4702,36.73101],[-119.46812,36.73467],[-119.46628,36.73471],[-119.46625,36.7325],[-119.46817,36.73102],[-119.4702,36.73101]]]}},{"type":"Feature","properties":{"pwsid":"CA1000430","pws_name":"COUNTRYSIDE CARE CENTER","pop_served":1274,"connections":1,"geom_type":"polygon","sgti_ft_per_yr":null,"n_wells_used":null,"n_wells_significant":null,"vuln_rank":null,"radius_m":null},"geometry":{"type":"Polygon","coordinates":[[[-119.88211,36.74865],[-119.88178,36.74924],[-119.88095,36.74975],[-119.88032,36.74983],[-119.88036,36.74865],[-119.88211,36.74865]]]}},{"type":"Feature","properties":{"pwsid":"CA1000454","pws_name":"VIKING RV PARK","pop_served":55,"connections":50,"geom_type":"polygon","sgti_ft_per_yr":-1.747,"n_wells_used":1,"n_wells_significant":1,"vuln_rank":9,"radius_m":2000},"geometry":{"type":"Polygon","coordinates":[[[-119.57619,36.53322],[-119.57649,36.53256],[-119.57733,36.5325],[-119.57735,36.53425],[-119.57619,36.53322]]]}},{"type":"Feature","properties":{"pwsid":"CA1000471","pws_name":"FCSA 39 - A AND B","pop_served":395,"connections":141,"geom_type":"polygon","sgti_ft_per_yr":-1.344,"n_wells_used":1,"n_wells_significant":1,"vuln_rank":14,"radius_m":2000},"geometry":{"type":"MultiPolygon","coordinates":[[[[-119.85035,36.71382],[-119.85035,36.70657],[-119.85341,36.70655],[-119.85336,36.71381],[-119.85035,36.71382]]],[[[-119.84447,36.6866],[-119.84447,36.68487],[-119.84903,36.68481],[-119.84912,36.68295],[-119.85345,36.68293],[-119.85348,36.68482],[-119.849,36.68482],[-119.84902,36.68655],[-119.84447,36.6866]]]]}},{"type":"Feature","properties":{"pwsid":"CA1000550","pws_name":"FCSA 44D - MONTE VERDI","pop_served":350,"connections":125,"geom_type":"polygon","sgti_ft_per_yr":-0.237,"n_wells_used":1,"n_wells_significant":0,"vuln_rank":36,"radius_m":2000},"geometry":{"type":"Polygon","coordinates":[[[-119.73013,36.91615],[-119.73014,36.91781],[-119.7197,36.91755],[-119.72,36.91392],[-119.72454,36.91403],[-119.7246,36.91345],[-119.72801,36.91353],[-119.72835,36.91428],[-119.73013,36.91615]]]}},{"type":"Feature","properties":{"pwsid":"CA1000551","pws_name":"FCSA 43 - RAISIN CITY","pop_served":182,"connections":68,"geom_type":"polygon","sgti_ft_per_yr":-1.647,"n_wells_used":5,"n_wells_significant":5,"vuln_rank":12,"radius_m":2000},"geometry":{"type":"Polygon","coordinates":[[[-119.90336,36.6083],[-119.89887,36.60833],[-119.89891,36.59922],[-119.91017,36.59917],[-119.91014,36.60461],[-119.90919,36.60461],[-119.90921,36.60556],[-119.9079,36.60555],[-119.9079,36.60647],[-119.90339,36.60647],[-119.90336,36.6083]]]}},{"type":"Feature","properties":{"pwsid":"CA1000554","pws_name":"FCSA 10A - MANSIONETTE ESTATES","pop_served":81,"connections":29,"geom_type":"polygon","sgti_ft_per_yr":-0.898,"n_wells_used":8,"n_wells_significant":8,"vuln_rank":25,"radius_m":2000},"geometry":{"type":"Polygon","coordinates":[[[-119.6381,36.83725],[-119.63477,36.83725],[-119.63471,36.83019],[-119.64007,36.83027],[-119.64035,36.83083],[-119.64039,36.83141],[-119.63903,36.83255],[-119.63853,36.83324],[-119.63831,36.83387],[-119.63926,36.83478],[-119.63923,36.8356],[-119.63807,36.83561],[-119.6381,36.83725]]]}},{"type":"Feature","properties":{"pwsid":"CA1000555","pws_name":"FCSA 44C - RIVERVIEW ESTATES","pop_served":34,"connections":12,"geom_type":"polygon","sgti_ft_per_yr":null,"n_wells_used":null,"n_wells_significant":null,"vuln_rank":null,"radius_m":null},"geometry":{"type":"Polygon","coordinates":[[[-119.72397,36.95601],[-119.72172,36.95602],[-119.72169,36.95244],[-119.72566,36.95235],[-119.72634,36.95246],[-119.72607,36.95422],[-119.72396,36.95423],[-119.72397,36.95601]]]}},{"type":"Feature","properties":{"pwsid":"CA1000570","pws_name":"JUVENILE JUSTICE CAMPUS","pop_served":565,"connections":15,"geom_type":"polygon","sgti_ft_per_yr":-1.33,"n_wells_used":1,"n_wells_significant":1,"vuln_rank":15,"radius_m":2000},"geometry":{"type":"Polygon","coordinates":[[[-119.72847,36.65632],[-119.73483,36.65628],[-119.73492,36.65658],[-119.73471,36.65803],[-119.73136,36.65835],[-119.73148,36.65995],[-119.73037,36.6599],[-119.72927,36.66011],[-119.72927,36.66241],[-119.72934,36.66273],[-119.72985,36.66328],[-119.72885,36.66349],[-119.72857,36.66291],[-119.72754,36.66302],[-119.72613,36.6621],[-119.72471,36.6617],[-119.72349,36.66097],[-119.7217,36.66029],[-119.72108,36.65977],[-119.72086,36.65916],[-119.72193,36.65799],[-119.72413,36.65768],[-119.72687,36.65784],[-119.72699,36.6583],[-119.72852,36.6581],[-119.72847,36.65632]]]}},{"type":"Feature","properties":{"pwsid":"CA1000627","pws_name":"ZONNEVELD DAIRY - CERINI","pop_served":62,"connections":14,"geom_type":"polygon","sgti_ft_per_yr":-3.727,"n_wells_used":9,"n_wells_significant":9,"vuln_rank":2,"radius_m":2000},"geometry":{"type":"Polygon","coordinates":[[[-119.77154,36.46783],[-119.77127,36.46831],[-119.77083,36.46864],[-119.76984,36.46845],[-119.76908,36.46858],[-119.76869,36.4682],[-119.76755,36.46814],[-119.76697,36.46783],[-119.7658,36.46765],[-119.76476,36.46659],[-119.76387,36.46636],[-119.76359,36.46604],[-119.76363,36.46528],[-119.76274,36.46466],[-119.76265,36.44918],[-119.76484,36.44917],[-119.76487,36.44557],[-119.77161,36.44556],[-119.77157,36.45627],[-119.77829,36.45625],[-119.77825,36.45979],[-119.78053,36.45982],[-119.78051,36.46128],[-119.78002,36.46156],[-119.77895,36.46159],[-119.77736,36.46233],[-119.77814,36.46218],[-119.77676,36.46374],[-119.77687,36.46424],[-119.77664,36.4645],[-119.77489,36.46444],[-119.77461,36.46472],[-119.7748,36.4653],[-119.77418,36.46575],[-119.77463,36.46618],[-119.77464,36.46668],[-119.7735,36.4667],[-119.77253,36.46704],[-119.77145,36.46764],[-119.77154,36.46783]]]}},{"type":"Feature","properties":{"pwsid":"CA1009120","pws_name":"RAU DAIRY","pop_served":105,"connections":20,"geom_type":"polygon","sgti_ft_per_yr":-1.874,"n_wells_used":9,"n_wells_significant":9,"vuln_rank":7,"radius_m":2000},"geometry":{"type":"Polygon","coordinates":[[[-119.98933,36.56366],[-119.98918,36.60391],[-119.97048,36.60406],[-119.97027,36.5902],[-119.96639,36.59013],[-119.96642,36.58778],[-119.9685,36.58771],[-119.96842,36.58589],[-119.96426,36.58594],[-119.96431,36.57548],[-119.97337,36.57544],[-119.97324,36.56128],[-119.9862,36.56128],[-119.98628,36.56369],[-119.98933,36.56366]]]}},{"type":"Feature","properties":{"pwsid":"CA1010020","pws_name":"LATON COMMUNITY SERVICES DISTRICT","pop_served":1151,"connections":473,"geom_type":"polygon","sgti_ft_per_yr":-2.974,"n_wells_used":3,"n_wells_significant":3,"vuln_rank":3,"radius_m":2000},"geometry":{"type":"Polygon","coordinates":[[[-119.67826,36.43265],[-119.67816,36.43096],[-119.67859,36.43074],[-119.68173,36.43005],[-119.6826,36.42792],[-119.68337,36.42693],[-119.68423,36.42687],[-119.68635,36.42604],[-119.69233,36.42572],[-119.69372,36.42519],[-119.69433,36.42519],[-119.69528,36.42689],[-119.69529,36.42755],[-119.69516,36.43103],[-119.69417,36.43104],[-119.6943,36.43831],[-119.6908,36.43833],[-119.69075,36.43886],[-119.68977,36.43909],[-119.6871,36.4391],[-119.68672,36.43937],[-119.68568,36.43942],[-119.68492,36.43938],[-119.68371,36.43842],[-119.68224,36.43829],[-119.68088,36.43848],[-119.67935,36.43822],[-119.67809,36.4384],[-119.67771,36.43827],[-119.67601,36.43683],[-119.67486,36.43644],[-119.67299,36.43522],[-119.67544,36.43436],[-119.67826,36.43265]]]}},{"type":"Feature","properties":{"pwsid":"CA1010030","pws_name":"TRANQUILLITY IRRIGATION DISTRICT","pop_served":807,"connections":340,"geom_type":"polygon","sgti_ft_per_yr":-0.537,"n_wells_used":4,"n_wells_significant":3,"vuln_rank":32,"radius_m":2000},"geometry":{"type":"Polygon","coordinates":[[[-120.30308,36.6393],[-120.30073,36.64616],[-120.30062,36.65315],[-120.30121,36.6543],[-120.29778,36.66132],[-120.29756,36.66132],[-120.29756,36.66869],[-120.28811,36.66866],[-120.28731,36.66885],[-120.28694,36.67061],[-120.28533,36.67377],[-120.27438,36.67712],[-120.27374,36.67702],[-120.2735,36.67674],[-120.27327,36.67565],[-120.27295,36.67214],[-120.2724,36.67182],[-120.27225,36.67139],[-120.27137,36.67137],[-120.27007,36.67062],[-120.26612,36.66904],[-120.26422,36.66867],[-120.26324,36.6686],[-120.2626,36.66894],[-120.2619,36.6691],[-120.26138,36.669],[-120.26108,36.66878],[-120.25895,36.66828],[-120.25797,36.66839],[-120.25758,36.66904],[-120.25705,36.66902],[-120.25694,36.66884],[-120.25724,36.66731],[-120.25695,36.66721],[-120.2568,36.6669],[-120.25689,36.66664],[-120.25767,36.66633],[-120.25772,36.66613],[-120.25532,36.66461],[-120.25333,36.66407],[-120.25238,36.66357],[-120.24829,36.66111],[-120.24356,36.65752],[-120.24109,36.6561],[-120.23992,36.65315],[-120.23679,36.65128],[-120.235,36.64642],[-120.23469,36.64613],[-120.23377,36.64418],[-120.23131,36.63745],[-120.23021,36.63371],[-120.2276,36.62679],[-120.22757,36.62587],[-120.22709,36.62424],[-120.22454,36.61722],[-120.22525,36.61722],[-120.22534,36.60259],[-120.25473,36.60262],[-120.26196,36.58984],[-120.25975,36.5882],[-120.26133,36.5882],[-120.27955,36.60272],[-120.27958,36.61054],[-120.28427,36.61755],[-120.29769,36.61758],[-120.29769,36.62812],[-120.30141,36.62941],[-120.30256,36.63189],[-120.30384,36.63341],[-120.30414,36.63401],[-120.30308,36.6393]]]}},{"type":"Feature","properties":{"pwsid":"CA1010035","pws_name":"DEL REY COMMUNITY SERV DIST","pop_served":1491,"connections":312,"geom_type":"polygon","sgti_ft_per_yr":-1.191,"n_wells_used":2,"n_wells_significant":1,"vuln_rank":20,"radius_m":2000},"geometry":{"type":"Polygon","coordinates":[[[-119.59927,36.66328],[-119.58562,36.66319],[-119.58353,36.6633],[-119.58349,36.65956],[-119.58805,36.65948],[-119.58802,36.65598],[-119.5903,36.65595],[-119.59026,36.65427],[-119.59252,36.65423],[-119.59252,36.65399],[-119.59299,36.65401],[-119.59298,36.65359],[-119.59704,36.65244],[-119.59922,36.65242],[-119.59927,36.65609],[-119.60113,36.6561],[-119.5995,36.65705],[-119.59951,36.65747],[-119.59872,36.65748],[-119.59751,36.65872],[-119.59816,36.65925],[-119.59924,36.65968],[-119.59927,36.66328]],[[-119.59007,36.6578],[-119.59101,36.65776],[-119.59006,36.65708],[-119.59007,36.6578]]]}},{"type":"Feature","properties":{"pwsid":"CA1010042","pws_name":"MALAGA COUNTY WATER DISTRICT","pop_served":5979,"connections":468,"geom_type":"polygon","sgti_ft_per_yr":0.575,"n_wells_used":1,"n_wells_significant":1,"vuln_rank":40,"radius_m":2000},"geometry":{"type":"Polygon","coordinates":[[[-119.70894,36.67089],[-119.71783,36.67087],[-119.71781,36.66906],[-119.72482,36.66898],[-119.72627,36.67017],[-119.7284,36.66894],[-119.73658,36.6689],[-119.73673,36.66524],[-119.74125,36.66523],[-119.74124,36.66886],[-119.73899,36.66886],[-119.73903,36.67068],[-119.73672,36.67068],[-119.73672,36.67161],[-119.73901,36.67162],[-119.739,36.67249],[-119.73672,36.67249],[-119.73671,36.67432],[-119.74121,36.67436],[-119.74121,36.67611],[-119.74561,36.67611],[-119.74562,36.67249],[-119.75009,36.67248],[-119.75003,36.69212],[-119.7448,36.68699],[-119.74558,36.68699],[-119.74558,36.68642],[-119.74419,36.68642],[-119.74283,36.68518],[-119.74156,36.68518],[-119.74171,36.68532],[-119.7387,36.68946],[-119.73655,36.68945],[-119.7365,36.69243],[-119.72301,36.69278],[-119.72247,36.69269],[-119.72244,36.69095],[-119.71801,36.69109],[-119.7179,36.68366],[-119.71907,36.68362],[-119.71907,36.68236],[-119.72012,36.68232],[-119.72012,36.68174],[-119.72243,36.68169],[-119.72238,36.67818],[-119.72561,36.67814],[-119.72561,36.67901],[-119.72678,36.67901],[-119.72686,36.67866],[-119.72776,36.67865],[-119.72776,36.67813],[-119.72699,36.67814],[-119.72695,36.67622],[-119.73057,36.6762],[-119.73069,36.67802],[-119.7314,36.67799],[-119.73133,36.67481],[-119.73121,36.67462],[-119.72741,36.67137],[-119.7275,36.6713],[-119.72727,36.67105],[-119.72685,36.67083],[-119.72564,36.67076],[-119.71894,36.67089],[-119.71894,36.6715],[-119.71774,36.67151],[-119.71774,36.67357],[-119.71317,36.6736],[-119.71318,36.67631],[-119.71611,36.6763],[-119.7161,36.67797],[-119.71336,36.67799],[-119.71336,36.68183],[-119.71107,36.68183],[-119.71112,36.68548],[-119.71344,36.68549],[-119.71344,36.68726],[-119.71568,36.68724],[-119.71573,36.68809],[-119.71669,36.68967],[-119.71661,36.69194],[-119.71789,36.69196],[-119.7179,36.69212],[-119.71792,36.69242],[-119.7166,36.69242],[-119.71659,36.69277],[-119.71468,36.69278],[-119.71469,36.69196],[-119.71346,36.69198],[-119.71345,36.6892],[-119.70903,36.68921],[-119.70894,36.67089]]]}},{"type":"Feature","properties":{"pwsid":"CA1010049","pws_name":"BIOLA COMMUNITY SERVICES DIST","pop_served":1623,"connections":300,"geom_type":"polygon","sgti_ft_per_yr":-1.166,"n_wells_used":4,"n_wells_significant":4,"vuln_rank":21,"radius_m":2000},"geometry":{"type":"Polygon","coordinates":[[[-120.02585,36.80768],[-120.01334,36.80769],[-120.01322,36.79987],[-120.02578,36.79976],[-120.02585,36.80768]]]}},{"type":"Feature","properties":{"pwsid":"CA1010339","pws_name":"CALIFORNIA STATE UNIVERSITY FRESNO","pop_served":41000,"connections":160,"geom_type":"polygon","sgti_ft_per_yr":null,"n_wells_used":null,"n_wells_significant":null,"vuln_rank":null,"radius_m":null},"geometry":{"type":"Polygon","coordinates":[[[-119.7545,36.81243],[-119.7608,36.81255],[-119.76068,36.81595],[-119.75554,36.81595],[-119.75543,36.81685],[-119.75435,36.81691],[-119.75419,36.81598],[-119.7496,36.81592],[-119.74945,36.81598],[-119.74937,36.81669],[-119.74775,36.81669],[-119.74752,36.81703],[-119.74663,36.81703],[-119.74632,36.81728],[-119.73981,36.81743],[-119.73961,36.81759],[-119.73977,36.81823],[-119.73977,36.81947],[-119.73961,36.8195],[-119.73661,36.8195],[-119.73618,36.81845],[-119.73614,36.81721],[-119.73387,36.81721],[-119.73318,36.81709],[-119.73318,36.81592],[-119.73506,36.81579],[-119.73514,36.81515],[-119.73591,36.81493],[-119.73591,36.81265],[-119.73614,36.81153],[-119.73614,36.80876],[-119.73626,36.80863],[-119.75003,36.80857],[-119.75226,36.80888],[-119.75439,36.80888],[-119.7545,36.81243]]]}},{"type":"Feature","properties":{"pwsid":"CA5400536","pws_name":"KINGS RIVER ESTATES MUTUAL WATER COMPANY","pop_served":106,"connections":38,"geom_type":"polygon","sgti_ft_per_yr":null,"n_wells_used":null,"n_wells_significant":null,"vuln_rank":null,"radius_m":null},"geometry":{"type":"Polygon","coordinates":[[[-119.50593,36.51775],[-119.50423,36.5142],[-119.50763,36.51421],[-119.50761,36.51777],[-119.50593,36.51775]]]}},{"type":"Feature","properties":{"pwsid":"CA5400537","pws_name":"LINDY'S LANDING","pop_served":125,"connections":177,"geom_type":"polygon","sgti_ft_per_yr":-1.434,"n_wells_used":2,"n_wells_significant":2,"vuln_rank":13,"radius_m":2000},"geometry":{"type":"Polygon","coordinates":[[[-119.48491,36.55095],[-119.48646,36.55092],[-119.48692,36.55242],[-119.48979,36.55244],[-119.4898,36.55389],[-119.48621,36.55385],[-119.48491,36.55095]]]}},{"type":"Feature","properties":{"pwsid":"CA5400550","pws_name":"SEVILLE WATER COMPANY","pop_served":691,"connections":91,"geom_type":"polygon","sgti_ft_per_yr":-1.724,"n_wells_used":2,"n_wells_significant":2,"vuln_rank":10,"radius_m":2000},"geometry":{"type":"Polygon","coordinates":[[[-119.21907,36.48666],[-119.21902,36.48578],[-119.2212,36.4858],[-119.22126,36.48365],[-119.22109,36.48351],[-119.22106,36.4826],[-119.22339,36.48254],[-119.22345,36.4802],[-119.22999,36.48022],[-119.22988,36.48592],[-119.22347,36.48598],[-119.22348,36.48671],[-119.21907,36.48666]]]}},{"type":"Feature","properties":{"pwsid":"CA5400553","pws_name":"DEL ORO TRAVER DISTRICT","pop_served":657,"connections":199,"geom_type":"polygon","sgti_ft_per_yr":-1.0,"n_wells_used":2,"n_wells_significant":2,"vuln_rank":23,"radius_m":2000},"geometry":{"type":"Polygon","coordinates":[[[-119.47591,36.45862],[-119.48192,36.45606],[-119.48159,36.45555],[-119.48165,36.45447],[-119.48282,36.45394],[-119.48256,36.45355],[-119.48278,36.45341],[-119.48233,36.4527],[-119.48377,36.45203],[-119.48289,36.45068],[-119.4859,36.44962],[-119.49008,36.45568],[-119.48915,36.45606],[-119.48863,36.45525],[-119.48487,36.45672],[-119.48468,36.45641],[-119.48207,36.45753],[-119.48294,36.45906],[-119.47643,36.45892],[-119.47591,36.45862]]]}},{"type":"Feature","properties":{"pwsid":"CA5400824","pws_name":"SULTANA COMMUNITY SERVICES DISTRICT","pop_served":983,"connections":281,"geom_type":"polygon","sgti_ft_per_yr":-0.4,"n_wells_used":4,"n_wells_significant":0,"vuln_rank":34,"radius_m":2000},"geometry":{"type":"Polygon","coordinates":[[[-119.32839,36.54742],[-119.32842,36.54517],[-119.32818,36.54499],[-119.32818,36.53925],[-119.32546,36.53808],[-119.32546,36.53777],[-119.33157,36.53786],[-119.33159,36.54041],[-119.33955,36.54384],[-119.33953,36.54303],[-119.3415,36.54306],[-119.3415,36.54361],[-119.3438,36.5436],[-119.3438,36.54522],[-119.34299,36.5452],[-119.34301,36.54937],[-119.34497,36.54937],[-119.34498,36.55258],[-119.34061,36.5526],[-119.3406,36.54932],[-119.33082,36.54927],[-119.33084,36.54742],[-119.32839,36.54742]]]}},{"type":"Feature","properties":{"pwsid":"CA5400929","pws_name":"RIVERLAND RESORT","pop_served":400,"connections":128,"geom_type":"polygon","sgti_ft_per_yr":-0.694,"n_wells_used":2,"n_wells_significant":2,"vuln_rank":30,"radius_m":2000},"geometry":{"type":"Polygon","coordinates":[[[-119.52844,36.49527],[-119.52719,36.49465],[-119.52806,36.49378],[-119.53052,36.49409],[-119.5308,36.49439],[-119.53039,36.49493],[-119.52956,36.49532],[-119.52844,36.49527]]]}},{"type":"Feature","properties":{"pwsid":"CA5401003","pws_name":"EAST OROSI COMMUNITY SERVICES DISTRICT","pop_served":423,"connections":103,"geom_type":"polygon","sgti_ft_per_yr":-0.782,"n_wells_used":4,"n_wells_significant":1,"vuln_rank":29,"radius_m":2000},"geometry":{"type":"Polygon","coordinates":[[[-119.2605,36.54991],[-119.26051,36.54885],[-119.25824,36.54887],[-119.25824,36.54702],[-119.26054,36.54702],[-119.26057,36.54441],[-119.26395,36.54442],[-119.26394,36.54894],[-119.26248,36.54896],[-119.2625,36.54991],[-119.2605,36.54991]]]}},{"type":"Feature","properties":{"pwsid":"CA5402047","pws_name":"GLEANINGS FOR THE HUNGRY","pop_served":31,"connections":12,"geom_type":"polygon","sgti_ft_per_yr":-0.463,"n_wells_used":2,"n_wells_significant":0,"vuln_rank":33,"radius_m":2000},"geometry":{"type":"Polygon","coordinates":[[[-119.34102,36.57422],[-119.34094,36.57089],[-119.34381,36.57086],[-119.34372,36.57425],[-119.34102,36.57422]]]}},{"type":"Feature","properties":{"pwsid":"CA5403023","pws_name":"DELFT COLONY WATER","pop_served":412,"connections":99,"geom_type":"polygon","sgti_ft_per_yr":-2.017,"n_wells_used":2,"n_wells_significant":2,"vuln_rank":6,"radius_m":2000},"geometry":{"type":"Polygon","coordinates":[[[-119.44415,36.51367],[-119.44417,36.5101],[-119.44784,36.51011],[-119.44781,36.50953],[-119.44883,36.50952],[-119.44881,36.51396],[-119.44818,36.51394],[-119.44817,36.51368],[-119.44415,36.51367]]]}},{"type":"Feature","properties":{"pwsid":"CA5403043","pws_name":"YETTEM WATER SYSTEM","pop_served":350,"connections":66,"geom_type":"polygon","sgti_ft_per_yr":-0.621,"n_wells_used":3,"n_wells_significant":1,"vuln_rank":31,"radius_m":2000},"geometry":{"type":"Polygon","coordinates":[[[-119.26173,36.48644],[-119.2617,36.48828],[-119.25956,36.48825],[-119.25955,36.487],[-119.25721,36.48699],[-119.25722,36.48642],[-119.25538,36.48641],[-119.25541,36.48742],[-119.25287,36.48741],[-119.25286,36.48776],[-119.2505,36.48776],[-119.25046,36.48695],[-119.24948,36.48692],[-119.24948,36.48633],[-119.24368,36.48621],[-119.24394,36.48276],[-119.26019,36.48288],[-119.26018,36.48408],[-119.26108,36.48416],[-119.26102,36.48643],[-119.26173,36.48644]]]}},{"type":"Feature","properties":{"pwsid":"CA5403084","pws_name":"FAIRWAY MUTUAL WATER CO","pop_served":150,"connections":47,"geom_type":"polygon","sgti_ft_per_yr":-1.3,"n_wells_used":2,"n_wells_significant":2,"vuln_rank":17,"radius_m":2000},"geometry":{"type":"Polygon","coordinates":[[[-119.50748,36.50688],[-119.50271,36.50684],[-119.50272,36.50562],[-119.50749,36.50564],[-119.50748,36.50688]]]}},{"type":"Feature","properties":{"pwsid":"CA5403213","pws_name":"TEEN CHALLENGE","pop_served":130,"connections":13,"geom_type":"polygon","sgti_ft_per_yr":-1.07,"n_wells_used":2,"n_wells_significant":2,"vuln_rank":22,"radius_m":2000},"geometry":{"type":"Polygon","coordinates":[[[-119.47829,36.56532],[-119.47829,36.5666],[-119.47709,36.56662],[-119.47708,36.5675],[-119.4758,36.5675],[-119.47583,36.56535],[-119.47829,36.56532]]]}},{"type":"Feature","properties":{"pwsid":"CA5410017","pws_name":"LONDON COMMUNITY SERV DIST","pop_served":2134,"connections":431,"geom_type":"polygon","sgti_ft_per_yr":-1.718,"n_wells_used":2,"n_wells_significant":1,"vuln_rank":11,"radius_m":2000},"geometry":{"type":"Polygon","coordinates":[[[-119.43403,36.47312],[-119.43407,36.47136],[-119.43855,36.47152],[-119.43853,36.47333],[-119.44751,36.47339],[-119.4475,36.4809],[-119.43842,36.48105],[-119.43843,36.47332],[-119.43403,36.47312]]]}}]}