{"type":"FeatureCollection","features":[{"type":"Feature","properties":{"pwsid":"CA1500096","pws_name":"OLD RIVER MUTUAL WATER COMPANY","pop_served":130,"connections":19,"geom_type":"polygon","sgti_ft_per_yr":-2.748,"n_wells_used":3,"n_wells_significant":3,"vuln_rank":18,"radius_m":2000},"geometry":{"type":"Polygon","coordinates":[[[-119.11431,35.26308],[-119.11426,35.26982],[-119.11244,35.26961],[-119.10881,35.26982],[-119.10699,35.26972],[-119.10663,35.26853],[-119.10695,35.26562],[-119.10685,35.26447],[-119.10701,35.26252],[-119.10827,35.26281],[-119.11156,35.2627],[-119.11431,35.26308]]]}},{"type":"Feature","properties":{"pwsid":"CA1500152","pws_name":"MIRASOL COMPANY WATER SYSTEM","pop_served":26,"connections":12,"geom_type":"polygon","sgti_ft_per_yr":null,"n_wells_used":null,"n_wells_significant":null,"vuln_rank":null,"radius_m":null},"geometry":{"type":"Polygon","coordinates":[[[-119.47057,35.37453],[-119.47059,35.37525],[-119.46965,35.37561],[-119.46769,35.37569],[-119.46768,35.37377],[-119.4695,35.37396],[-119.47057,35.37453]]]}},{"type":"Feature","properties":{"pwsid":"CA1500211","pws_name":"STOCKDALE ANNEX MUTUAL WATER","pop_served":433,"connections":141,"geom_type":"polygon","sgti_ft_per_yr":-2.59,"n_wells_used":2,"n_wells_significant":2,"vuln_rank":20,"radius_m":2000},"geometry":{"type":"Polygon","coordinates":[[[-119.07369,35.3545],[-119.07367,35.34852],[-119.07434,35.34378],[-119.07465,35.33483],[-119.07707,35.33491],[-119.07965,35.33572],[-119.08399,35.34197],[-119.08931,35.34318],[-119.0904,35.34642],[-119.08472,35.34575],[-119.07952,35.35445],[-119.07369,35.3545]]]}},{"type":"Feature","properties":{"pwsid":"CA1500231","pws_name":"VICTORY MUTUAL WATER COMPANY","pop_served":849,"connections":173,"geom_type":"polygon","sgti_ft_per_yr":-1.327,"n_wells_used":1,"n_wells_significant":1,"vuln_rank":29,"radius_m":2000},"geometry":{"type":"Polygon","coordinates":[[[-118.93192,35.34352],[-118.92645,35.34356],[-118.92623,35.34366],[-118.92608,35.34346],[-118.92464,35.34347],[-118.9249,35.34274],[-118.92378,35.33986],[-118.93191,35.33982],[-118.93192,35.34352]]]}},{"type":"Feature","properties":{"pwsid":"CA1500289","pws_name":"ATHAL MUTUAL WATER SYSTEM","pop_served":150,"connections":55,"geom_type":"polygon","sgti_ft_per_yr":null,"n_wells_used":null,"n_wells_significant":null,"vuln_rank":null,"radius_m":null},"geometry":{"type":"Polygon","coordinates":[[[-118.9142,35.30757],[-118.91207,35.30757],[-118.91207,35.30804],[-118.90985,35.30803],[-118.90985,35.30703],[-118.91214,35.30701],[-118.91213,35.30595],[-118.91313,35.30594],[-118.91311,35.30334],[-118.91429,35.30333],[-118.9142,35.30757]]]}},{"type":"Feature","properties":{"pwsid":"CA1500296","pws_name":"FULLER ACRES MUTUAL WATER COMPANY","pop_served":545,"connections":165,"geom_type":"polygon","sgti_ft_per_yr":-3.855,"n_wells_used":1,"n_wells_significant":1,"vuln_rank":14,"radius_m":2000},"geometry":{"type":"Polygon","coordinates":[[[-118.90536,35.30144],[-118.90527,35.29919],[-118.90813,35.29926],[-118.90986,35.29874],[-118.912,35.29623],[-118.91433,35.29616],[-118.91434,35.30141],[-118.90536,35.30144]]]}},{"type":"Feature","properties":{"pwsid":"CA1500314","pws_name":"DEL ORO WC - COUNTRY ESTATES DIST","pop_served":297,"connections":90,"geom_type":"polygon","sgti_ft_per_yr":-1.327,"n_wells_used":1,"n_wells_significant":1,"vuln_rank":28,"radius_m":2000},"geometry":{"type":"Polygon","coordinates":[[[-118.91443,35.3398],[-118.91437,35.33575],[-118.92184,35.33578],[-118.92173,35.33765],[-118.92194,35.33853],[-118.92304,35.33935],[-118.92322,35.33976],[-118.91443,35.3398]]]}},{"type":"Feature","properties":{"pwsid":"CA1500344","pws_name":"SOUTH KERN MUTUAL WATER COMPANY","pop_served":32,"connections":13,"geom_type":"polygon","sgti_ft_per_yr":-2.498,"n_wells_used":2,"n_wells_significant":2,"vuln_rank":22,"radius_m":2000},"geometry":{"type":"Polygon","coordinates":[[[-119.10981,35.26357],[-119.10977,35.26939],[-119.1092,35.26915],[-119.1079,35.26909],[-119.1071,35.26884],[-119.10673,35.26746],[-119.1068,35.26616],[-119.10723,35.26496],[-119.10717,35.2641],[-119.10738,35.26344],[-119.10912,35.26343],[-119.10981,35.26357]]]}},{"type":"Feature","properties":{"pwsid":"CA1500349","pws_name":"STOCKDALE MUTUAL WATER CO.","pop_served":200,"connections":81,"geom_type":"polygon","sgti_ft_per_yr":-2.041,"n_wells_used":1,"n_wells_significant":1,"vuln_rank":25,"radius_m":2000},"geometry":{"type":"Polygon","coordinates":[[[-119.07386,35.35416],[-119.07373,35.3479],[-119.076,35.34758],[-119.07763,35.34772],[-119.07796,35.35418],[-119.07386,35.35416]]]}},{"type":"Feature","properties":{"pwsid":"CA1500378","pws_name":"MAHER MUTUAL WATER COMPANY","pop_served":140,"connections":50,"geom_type":"polygon","sgti_ft_per_yr":-3.772,"n_wells_used":4,"n_wells_significant":4,"vuln_rank":15,"radius_m":2000},"geometry":{"type":"Polygon","coordinates":[[[-119.13899,35.38374],[-119.14544,35.38373],[-119.14545,35.39073],[-119.13889,35.39075],[-119.13899,35.38374]]]}},{"type":"Feature","properties":{"pwsid":"CA1500401","pws_name":"METTLER COUNTY WATER DISTRICT","pop_served":90,"connections":42,"geom_type":"polygon","sgti_ft_per_yr":-0.586,"n_wells_used":3,"n_wells_significant":3,"vuln_rank":36,"radius_m":2000},"geometry":{"type":"MultiPolygon","coordinates":[[[[-118.97275,35.07176],[-118.96909,35.06004],[-118.96918,35.05973],[-118.96952,35.05954],[-118.96965,35.05954],[-118.97053,35.06232],[-118.97506,35.0624],[-118.975,35.06428],[-118.9735,35.06425],[-118.9735,35.06467],[-118.97283,35.06466],[-118.97281,35.06925],[-118.97475,35.06928],[-118.9747,35.07178],[-118.97275,35.07176]]],[[[-118.9678,35.05925],[-118.96721,35.05938],[-118.96684,35.059],[-118.96643,35.05908],[-118.96626,35.05844],[-118.96756,35.05819],[-118.96776,35.05882],[-118.96762,35.05903],[-118.9678,35.05925]]]]}},{"type":"Feature","properties":{"pwsid":"CA1500409","pws_name":"BROCK MUTUAL WATER COMPANY","pop_served":462,"connections":155,"geom_type":"polygon","sgti_ft_per_yr":-4.011,"n_wells_used":4,"n_wells_significant":4,"vuln_rank":13,"radius_m":2000},"geometry":{"type":"Polygon","coordinates":[[[-119.12803,35.38371],[-119.13662,35.38368],[-119.13663,35.38219],[-119.13457,35.38218],[-119.13457,35.38051],[-119.13679,35.38052],[-119.13679,35.38368],[-119.13878,35.38374],[-119.13888,35.39232],[-119.12803,35.38371]]]}},{"type":"Feature","properties":{"pwsid":"CA1500452","pws_name":"RIVERDALE VILLAGE","pop_served":750,"connections":290,"geom_type":"polygon","sgti_ft_per_yr":null,"n_wells_used":null,"n_wells_significant":null,"vuln_rank":null,"radius_m":null},"geometry":{"type":"Polygon","coordinates":[[[-119.03854,35.40834],[-119.03789,35.40851],[-119.0351,35.40851],[-119.03494,35.40813],[-119.03438,35.40809],[-119.03438,35.40502],[-119.03886,35.40493],[-119.03891,35.40559],[-119.03855,35.40626],[-119.03854,35.40834]]]}},{"type":"Feature","properties":{"pwsid":"CA1500483","pws_name":"ALLEN ROAD MUTUAL WATER SYSTEM","pop_served":195,"connections":59,"geom_type":"polygon","sgti_ft_per_yr":-4.337,"n_wells_used":3,"n_wells_significant":3,"vuln_rank":10,"radius_m":2000},"geometry":{"type":"Polygon","coordinates":[[[-119.1542,35.36619],[-119.15443,35.36603],[-119.15434,35.36888],[-119.15305,35.36877],[-119.14705,35.36877],[-119.14543,35.3686],[-119.14552,35.36658],[-119.14579,35.36565],[-119.14615,35.36565],[-119.14655,35.36592],[-119.14704,35.366],[-119.1542,35.36619]]]}},{"type":"Feature","properties":{"pwsid":"CA1500493","pws_name":"EL ADOBE POA, INC.","pop_served":200,"connections":80,"geom_type":"polygon","sgti_ft_per_yr":-1.187,"n_wells_used":5,"n_wells_significant":4,"vuln_rank":34,"radius_m":2000},"geometry":{"type":"Polygon","coordinates":[[[-118.96466,35.25233],[-118.95979,35.2523],[-118.95975,35.24222],[-118.96221,35.24227],[-118.96219,35.23973],[-118.96771,35.23973],[-118.96766,35.2507],[-118.96466,35.25072],[-118.96466,35.25233]]]}},{"type":"Feature","properties":{"pwsid":"CA1500494","pws_name":"WILSON ROAD WATER COMMUNITY","pop_served":66,"connections":20,"geom_type":"polygon","sgti_ft_per_yr":null,"n_wells_used":null,"n_wells_significant":null,"vuln_rank":null,"radius_m":null},"geometry":{"type":"Polygon","coordinates":[[[-118.90763,35.33444],[-118.89865,35.33445],[-118.89864,35.3327],[-118.90314,35.33269],[-118.90315,35.33078],[-118.90524,35.33077],[-118.90534,35.33268],[-118.90762,35.33266],[-118.90763,35.33444]]]}},{"type":"Feature","properties":{"pwsid":"CA1500507","pws_name":"ST. CLAIR RANCHOS MUTUAL WATER CO.","pop_served":105,"connections":32,"geom_type":"polygon","sgti_ft_per_yr":-5.008,"n_wells_used":5,"n_wells_significant":5,"vuln_rank":8,"radius_m":2000},"geometry":{"type":"Polygon","coordinates":[[[-119.17215,35.36534],[-119.16333,35.36536],[-119.16328,35.36187],[-119.16992,35.36168],[-119.17202,35.36179],[-119.17215,35.36534]]]}},{"type":"Feature","properties":{"pwsid":"CA1500518","pws_name":"AGBAYANI VILLAGE WATER SYSTEM","pop_served":38,"connections":2,"geom_type":"polygon","sgti_ft_per_yr":null,"n_wells_used":null,"n_wells_significant":null,"vuln_rank":null,"radius_m":null},"geometry":{"type":"Polygon","coordinates":[[[-119.28965,35.76153],[-119.28967,35.76501],[-119.28534,35.76497],[-119.28532,35.76153],[-119.28965,35.76153]]]}},{"type":"Feature","properties":{"pwsid":"CA1500535","pws_name":"MANON MANOR MUTUAL WATER COMPANY","pop_served":200,"connections":55,"geom_type":"polygon","sgti_ft_per_yr":-5.355,"n_wells_used":4,"n_wells_significant":4,"vuln_rank":3,"radius_m":2000},"geometry":{"type":"Polygon","coordinates":[[[-119.18089,35.36534],[-119.17216,35.36533],[-119.17212,35.36182],[-119.18084,35.36179],[-119.18089,35.36534]]]}},{"type":"Feature","properties":{"pwsid":"CA1500543","pws_name":"AGAPE MUTUAL WATER SYSTEM","pop_served":50,"connections":16,"geom_type":"polygon","sgti_ft_per_yr":-6.184,"n_wells_used":3,"n_wells_significant":3,"vuln_rank":2,"radius_m":2000},"geometry":{"type":"Polygon","coordinates":[[[-119.18314,35.36532],[-119.18433,35.36533],[-119.18434,35.36713],[-119.18315,35.36715],[-119.18314,35.36879],[-119.18121,35.36879],[-119.18122,35.3661],[-119.18312,35.3661],[-119.18314,35.36532]]]}},{"type":"Feature","properties":{"pwsid":"CA1500544","pws_name":"ENOS LANE PUBLIC UTILITY DISTRICT","pop_served":365,"connections":89,"geom_type":"polygon","sgti_ft_per_yr":-4.164,"n_wells_used":5,"n_wells_significant":5,"vuln_rank":12,"radius_m":2000},"geometry":{"type":"Polygon","coordinates":[[[-119.25764,35.39079],[-119.25213,35.39072],[-119.25215,35.38343],[-119.25764,35.38353],[-119.25764,35.39079]]]}},{"type":"Feature","properties":{"pwsid":"CA1500546","pws_name":"HARVEST MOON MUTUAL WATER CO","pop_served":138,"connections":49,"geom_type":"polygon","sgti_ft_per_yr":-6.481,"n_wells_used":5,"n_wells_significant":4,"vuln_rank":1,"radius_m":2000},"geometry":{"type":"Polygon","coordinates":[[[-119.1812,35.36507],[-119.18112,35.35807],[-119.18973,35.35801],[-119.18991,35.36481],[-119.18978,35.365],[-119.1812,35.36507]]]}},{"type":"Feature","properties":{"pwsid":"CA1500553","pws_name":"RANCHOS DEL RIO","pop_served":62,"connections":24,"geom_type":"polygon","sgti_ft_per_yr":0.79,"n_wells_used":2,"n_wells_significant":2,"vuln_rank":41,"radius_m":2000},"geometry":{"type":"Polygon","coordinates":[[[-118.99875,35.4122],[-118.99863,35.4061],[-118.9991,35.40561],[-119.00035,35.40484],[-119.00304,35.40485],[-119.00305,35.40513],[-119.00448,35.40569],[-119.00446,35.40593],[-119.00587,35.40797],[-119.0031,35.40961],[-119.00314,35.41222],[-118.99875,35.4122]]]}},{"type":"Feature","properties":{"pwsid":"CA1500555","pws_name":"MUSTANG MUTUAL WATER SYSTEM","pop_served":200,"connections":51,"geom_type":"polygon","sgti_ft_per_yr":1.307,"n_wells_used":3,"n_wells_significant":3,"vuln_rank":42,"radius_m":2000},"geometry":{"type":"Polygon","coordinates":[[[-119.20545,35.38711],[-119.19897,35.38708],[-119.19899,35.38362],[-119.20328,35.38358],[-119.20326,35.38521],[-119.20545,35.38521],[-119.20545,35.38711]]]}},{"type":"Feature","properties":{"pwsid":"CA1500557","pws_name":"STOCKDALE RANCHOS MUTUAL WATER CO","pop_served":393,"connections":95,"geom_type":"polygon","sgti_ft_per_yr":-5.245,"n_wells_used":6,"n_wells_significant":6,"vuln_rank":4,"radius_m":2000},"geometry":{"type":"Polygon","coordinates":[[[-119.15434,35.35903],[-119.14572,35.35903],[-119.1457,35.35444],[-119.15437,35.35461],[-119.15434,35.35903]]]}},{"type":"Feature","properties":{"pwsid":"CA1500560","pws_name":"KRANENBURG WATER SYSTEM","pop_served":42,"connections":15,"geom_type":"polygon","sgti_ft_per_yr":-5.169,"n_wells_used":5,"n_wells_significant":5,"vuln_rank":5,"radius_m":2000},"geometry":{"type":"Polygon","coordinates":[[[-119.20325,35.36528],[-119.20326,35.368],[-119.20014,35.36801],[-119.20015,35.36884],[-119.19892,35.36884],[-119.19891,35.36529],[-119.20325,35.36528]]]}},{"type":"Feature","properties":{"pwsid":"CA1500561","pws_name":"ROUND MOUNTAIN WATER COMPANY","pop_served":50,"connections":17,"geom_type":"polygon","sgti_ft_per_yr":null,"n_wells_used":null,"n_wells_significant":null,"vuln_rank":null,"radius_m":null},"geometry":{"type":"Polygon","coordinates":[[[-118.9452,35.43788],[-118.94089,35.43786],[-118.9408,35.43482],[-118.93932,35.43482],[-118.93928,35.43417],[-118.9408,35.43413],[-118.94078,35.43436],[-118.94114,35.43427],[-118.9411,35.43384],[-118.94303,35.43385],[-118.94301,35.43433],[-118.94528,35.4344],[-118.9452,35.43788]]]}},{"type":"Feature","properties":{"pwsid":"CA1500575","pws_name":"SAN JOAQUIN ESTATES MUTUAL WATER COMPANY","pop_served":165,"connections":61,"geom_type":"polygon","sgti_ft_per_yr":-2.611,"n_wells_used":1,"n_wells_significant":1,"vuln_rank":19,"radius_m":2000},"geometry":{"type":"Polygon","coordinates":[[[-118.91426,35.33824],[-118.90718,35.33823],[-118.90711,35.33263],[-118.91415,35.33261],[-118.91426,35.33824]]]}},{"type":"Feature","properties":{"pwsid":"CA1500584","pws_name":"GOOSELAKE WATER COMPANY","pop_served":90,"connections":32,"geom_type":"polygon","sgti_ft_per_yr":-1.295,"n_wells_used":3,"n_wells_significant":3,"vuln_rank":33,"radius_m":2000},"geometry":{"type":"Polygon","coordinates":[[[-119.1811,35.37979],[-119.18107,35.37625],[-119.18991,35.37622],[-119.18993,35.37976],[-119.1811,35.37979]]]}},{"type":"Feature","properties":{"pwsid":"CA1500585","pws_name":"OASIS PROPERTY OWNERS ASSOCIATION","pop_served":100,"connections":39,"geom_type":"polygon","sgti_ft_per_yr":-1.327,"n_wells_used":1,"n_wells_significant":1,"vuln_rank":30,"radius_m":2000},"geometry":{"type":"Polygon","coordinates":[[[-118.94106,35.32604],[-118.93194,35.32609],[-118.93193,35.32516],[-118.93641,35.32513],[-118.93645,35.31682],[-118.94096,35.31523],[-118.9411,35.31797],[-118.94106,35.32604]]]}},{"type":"Feature","properties":{"pwsid":"CA1500588","pws_name":"SON SHINE PROPERTIES","pop_served":438,"connections":106,"geom_type":"polygon","sgti_ft_per_yr":-3.512,"n_wells_used":4,"n_wells_significant":2,"vuln_rank":16,"radius_m":2000},"geometry":{"type":"Polygon","coordinates":[[[-118.84562,35.25165],[-118.84563,35.25261],[-118.84278,35.25262],[-118.84272,35.24542],[-118.84434,35.24542],[-118.84439,35.25165],[-118.84562,35.25165]]]}},{"type":"Feature","properties":{"pwsid":"CA1500593","pws_name":"UPLANDS OF THE KERN MUTUAL WATER COMPANY","pop_served":80,"connections":20,"geom_type":"polygon","sgti_ft_per_yr":null,"n_wells_used":null,"n_wells_significant":null,"vuln_rank":null,"radius_m":null},"geometry":{"type":"Polygon","coordinates":[[[-118.94029,35.44367],[-118.94126,35.44302],[-118.94236,35.44445],[-118.94257,35.4452],[-118.9409,35.44744],[-118.93792,35.45026],[-118.9367,35.45088],[-118.93608,35.451],[-118.93534,35.45083],[-118.93425,35.45127],[-118.93326,35.45118],[-118.92743,35.44881],[-118.92556,35.44771],[-118.92229,35.44772],[-118.92206,35.44902],[-118.9209,35.44875],[-118.92085,35.44696],[-118.92466,35.44679],[-118.92821,35.44799],[-118.93095,35.44955],[-118.93213,35.44979],[-118.93311,35.45019],[-118.93509,35.45042],[-118.93621,35.45004],[-118.93791,35.44916],[-118.93979,35.44779],[-118.94071,35.4464],[-118.94061,35.44475],[-118.94029,35.44367]]]}},{"type":"Feature","properties":{"pwsid":"CA1500599","pws_name":"CHOCTAW VALLEY MUTUAL WATER CO.","pop_served":44,"connections":18,"geom_type":"polygon","sgti_ft_per_yr":null,"n_wells_used":null,"n_wells_significant":null,"vuln_rank":null,"radius_m":null},"geometry":{"type":"MultiPolygon","coordinates":[[[[-118.87882,35.43582],[-118.87889,35.43787],[-118.87908,35.43768],[-118.88034,35.43728],[-118.88057,35.43735],[-118.88058,35.43795],[-118.87889,35.43794],[-118.8789,35.4386],[-118.87948,35.4386],[-118.87953,35.44037],[-118.87896,35.44096],[-118.87898,35.44172],[-118.87794,35.44172],[-118.87798,35.44532],[-118.87359,35.44532],[-118.87357,35.44171],[-118.87672,35.44172],[-118.87668,35.44005],[-118.87724,35.43988],[-118.87721,35.43878],[-118.87651,35.43845],[-118.8758,35.43835],[-118.87578,35.43773],[-118.87777,35.43673],[-118.87882,35.43582]]],[[[-118.87882,35.43581],[-118.87882,35.43582],[-118.87882,35.43581],[-118.87882,35.43581]]]]}},{"type":"Feature","properties":{"pwsid":"CA1502164","pws_name":"LLANAS CAMP FOUR WATER SYSTEM","pop_served":54,"connections":55,"geom_type":"polygon","sgti_ft_per_yr":-2.511,"n_wells_used":4,"n_wells_significant":2,"vuln_rank":21,"radius_m":2000},"geometry":{"type":"Polygon","coordinates":[[[-119.29126,35.51671],[-119.28843,35.51444],[-119.29366,35.51447],[-119.29368,35.51672],[-119.29126,35.51671]]]}},{"type":"Feature","properties":{"pwsid":"CA1502320","pws_name":"LERDO SHERIFF S FACILITY","pop_served":2800,"connections":110,"geom_type":"polygon","sgti_ft_per_yr":-0.389,"n_wells_used":6,"n_wells_significant":4,"vuln_rank":37,"radius_m":2000},"geometry":{"type":"Polygon","coordinates":[[[-119.11697,35.50363],[-119.11676,35.50444],[-119.11669,35.51383],[-119.11586,35.51422],[-119.11402,35.51401],[-119.11176,35.51401],[-119.11067,35.51434],[-119.11047,35.51475],[-119.10856,35.51475],[-119.10862,35.50364],[-119.11697,35.50363]]]}},{"type":"Feature","properties":{"pwsid":"CA1502383","pws_name":"NORD ROAD WATER ASSOCIATION","pop_served":32,"connections":16,"geom_type":"polygon","sgti_ft_per_yr":-1.884,"n_wells_used":4,"n_wells_significant":4,"vuln_rank":26,"radius_m":2000},"geometry":{"type":"Polygon","coordinates":[[[-119.19878,35.39428],[-119.19428,35.39432],[-119.19428,35.3908],[-119.1988,35.39077],[-119.19878,35.39428]]]}},{"type":"Feature","properties":{"pwsid":"CA1502465","pws_name":"PANAMA ROAD PROPERTY OWNERS ASSOC","pop_served":45,"connections":16,"geom_type":"polygon","sgti_ft_per_yr":-0.15,"n_wells_used":1,"n_wells_significant":1,"vuln_rank":39,"radius_m":2000},"geometry":{"type":"MultiPolygon","coordinates":[[[[-118.97645,35.26691],[-118.97643,35.2705],[-118.97485,35.27048],[-118.97485,35.27036],[-118.97485,35.27025],[-118.97484,35.27035],[-118.97481,35.27029],[-118.97468,35.27022],[-118.97478,35.2703],[-118.97477,35.27029],[-118.97479,35.27038],[-118.97477,35.27039],[-118.9748,35.27045],[-118.97479,35.27046],[-118.97427,35.26998],[-118.97378,35.27059],[-118.97197,35.27055],[-118.97203,35.26694],[-118.97645,35.26691]]],[[[-118.97485,35.27048],[-118.97481,35.27048],[-118.97482,35.27042],[-118.97485,35.27048]]],[[[-118.97484,35.27035],[-118.97485,35.27036],[-118.97482,35.27041],[-118.97484,35.27035]]],[[[-118.97651,35.26691],[-118.97645,35.26691],[-118.97645,35.26689],[-118.97651,35.26691]]],[[[-118.97481,35.27048],[-118.97477,35.2705],[-118.97479,35.27046],[-118.97481,35.27048]]],[[[-118.9748,35.27044],[-118.97479,35.27038],[-118.97479,35.27037],[-118.9748,35.27044]]],[[[-118.97481,35.27039],[-118.97481,35.27043],[-118.97481,35.27048],[-118.97481,35.27039]]],[[[-118.97481,35.27048],[-118.9748,35.27045],[-118.9748,35.27044],[-118.97481,35.27048]]],[[[-118.97481,35.27039],[-118.9748,35.27037],[-118.97481,35.27036],[-118.97481,35.27039]]],[[[-118.9748,35.27037],[-118.97479,35.27037],[-118.97479,35.27034],[-118.9748,35.27037]]],[[[-118.97631,35.27057],[-118.97635,35.27057],[-118.97631,35.27057],[-118.97631,35.27057]]],[[[-118.97482,35.27041],[-118.97482,35.27042],[-118.97482,35.27041],[-118.97482,35.27041]]]]}},{"type":"Feature","properties":{"pwsid":"CA1502545","pws_name":"SCHWEIKART WATER SYSTEM","pop_served":27,"connections":8,"geom_type":"polygon","sgti_ft_per_yr":-0.88,"n_wells_used":3,"n_wells_significant":3,"vuln_rank":35,"radius_m":2000},"geometry":{"type":"Polygon","coordinates":[[[-119.21491,35.38415],[-119.21651,35.38427],[-119.21656,35.38562],[-119.21489,35.38558],[-119.21491,35.38415]]]}},{"type":"Feature","properties":{"pwsid":"CA1502600","pws_name":"WEGIS MUTUAL WATER COMPANY","pop_served":64,"connections":23,"geom_type":"polygon","sgti_ft_per_yr":-1.446,"n_wells_used":2,"n_wells_significant":2,"vuln_rank":27,"radius_m":2000},"geometry":{"type":"Polygon","coordinates":[[[-119.1899,35.37613],[-119.1845,35.37616],[-119.18451,35.3729],[-119.18719,35.3729],[-119.18718,35.37141],[-119.18989,35.37142],[-119.1899,35.37613]]]}},{"type":"Feature","properties":{"pwsid":"CA1502620","pws_name":"POND MUTUAL WATER COMPANY","pop_served":48,"connections":18,"geom_type":"polygon","sgti_ft_per_yr":-4.675,"n_wells_used":1,"n_wells_significant":1,"vuln_rank":9,"radius_m":2000},"geometry":{"type":"Polygon","coordinates":[[[-119.33015,35.7182],[-119.33015,35.71913],[-119.32787,35.71911],[-119.32788,35.7182],[-119.33015,35.7182]]]}},{"type":"Feature","properties":{"pwsid":"CA1502622","pws_name":"GOSFORD ROAD WATER COMPANY","pop_served":50,"connections":15,"geom_type":"polygon","sgti_ft_per_yr":-3.429,"n_wells_used":1,"n_wells_significant":1,"vuln_rank":17,"radius_m":2000},"geometry":{"type":"Polygon","coordinates":[[[-119.0921,35.22715],[-119.09213,35.23067],[-119.08606,35.23066],[-119.08615,35.22918],[-119.08643,35.22892],[-119.08716,35.22885],[-119.08752,35.22853],[-119.08772,35.22762],[-119.08747,35.22705],[-119.0921,35.22715]]]}},{"type":"Feature","properties":{"pwsid":"CA1502629","pws_name":"HEATH BRIMHALL P.O.A.","pop_served":39,"connections":14,"geom_type":"polygon","sgti_ft_per_yr":-5.018,"n_wells_used":1,"n_wells_significant":1,"vuln_rank":7,"radius_m":2000},"geometry":{"type":"Polygon","coordinates":[[[-119.18669,35.36903],[-119.18669,35.37019],[-119.18506,35.37019],[-119.18506,35.37133],[-119.18198,35.37134],[-119.18198,35.37082],[-119.18266,35.37082],[-119.18266,35.37019],[-119.18114,35.37019],[-119.18111,35.36902],[-119.18669,35.36903]]]}},{"type":"Feature","properties":{"pwsid":"CA1502645","pws_name":"MEADOWS OF THE KERN MUTUAL WATER COMPANY","pop_served":32,"connections":16,"geom_type":"polygon","sgti_ft_per_yr":null,"n_wells_used":null,"n_wells_significant":null,"vuln_rank":null,"radius_m":null},"geometry":{"type":"Polygon","coordinates":[[[-118.93574,35.44281],[-118.93459,35.4411],[-118.93748,35.44118],[-118.93822,35.44159],[-118.93962,35.44276],[-118.94037,35.44428],[-118.94029,35.44711],[-118.9388,35.44809],[-118.93811,35.44873],[-118.9365,35.44932],[-118.93571,35.44923],[-118.93499,35.44802],[-118.93614,35.44765],[-118.9368,35.44725],[-118.93739,35.44621],[-118.9375,35.44507],[-118.93737,35.44434],[-118.93701,35.44362],[-118.9363,35.4432],[-118.93597,35.4428],[-118.93574,35.44281]]]}},{"type":"Feature","properties":{"pwsid":"CA1502663","pws_name":"TOWN & COUNTRY WATER COMPANY","pop_served":73,"connections":22,"geom_type":"polygon","sgti_ft_per_yr":-2.154,"n_wells_used":4,"n_wells_significant":4,"vuln_rank":24,"radius_m":2000},"geometry":{"type":"Polygon","coordinates":[[[-119.10107,35.43434],[-119.10998,35.43443],[-119.10996,35.43806],[-119.10102,35.43799],[-119.10107,35.43434]]]}},{"type":"Feature","properties":{"pwsid":"CA1502699","pws_name":"EAST WILSON ROAD WATER COMPANY","pop_served":35,"connections":14,"geom_type":"polygon","sgti_ft_per_yr":-1.327,"n_wells_used":1,"n_wells_significant":1,"vuln_rank":31,"radius_m":2000},"geometry":{"type":"Polygon","coordinates":[[[-118.93196,35.33064],[-118.93195,35.33168],[-118.92989,35.33169],[-118.92988,35.33247],[-118.92341,35.33247],[-118.92345,35.3288],[-118.9254,35.32883],[-118.92543,35.33061],[-118.92647,35.33062],[-118.92648,35.32883],[-118.9298,35.32878],[-118.9298,35.33062],[-118.93196,35.33064]]]}},{"type":"Feature","properties":{"pwsid":"CA1502750","pws_name":"RIVERVIEW HOMEOWNERS ASSOCIATION","pop_served":40,"connections":20,"geom_type":"polygon","sgti_ft_per_yr":null,"n_wells_used":null,"n_wells_significant":null,"vuln_rank":null,"radius_m":null},"geometry":{"type":"MultiPolygon","coordinates":[[[[-118.94509,35.43796],[-118.94509,35.44155],[-118.94018,35.44154],[-118.93906,35.44041],[-118.93775,35.43994],[-118.94085,35.43801],[-118.94253,35.43796],[-118.94503,35.43793],[-118.94509,35.43796]]],[[[-118.9451,35.43796],[-118.94509,35.43796],[-118.94509,35.43795],[-118.9451,35.43796]]]]}},{"type":"Feature","properties":{"pwsid":"CA1503475","pws_name":"WESTERN ACRES MUTUAL WATER COMPANY","pop_served":380,"connections":238,"geom_type":"polygon","sgti_ft_per_yr":-4.224,"n_wells_used":3,"n_wells_significant":3,"vuln_rank":11,"radius_m":2000},"geometry":{"type":"Polygon","coordinates":[[[-119.30577,35.39826],[-119.32305,35.39871],[-119.32331,35.40234],[-119.32295,35.40429],[-119.3235,35.41311],[-119.31583,35.41263],[-119.31132,35.41312],[-119.30525,35.4127],[-119.30509,35.41258],[-119.30517,35.41101],[-119.3049,35.41034],[-119.30466,35.40835],[-119.30486,35.40638],[-119.30574,35.40198],[-119.30544,35.40076],[-119.30577,35.39826]]]}},{"type":"Feature","properties":{"pwsid":"CA1503509","pws_name":"THE ANNE SIPPI CLINIC-RIVERSIDE RANCH","pop_served":51,"connections":4,"geom_type":"polygon","sgti_ft_per_yr":0.762,"n_wells_used":1,"n_wells_significant":1,"vuln_rank":40,"radius_m":2000},"geometry":{"type":"Polygon","coordinates":[[[-118.80243,35.43617],[-118.80353,35.43567],[-118.80358,35.43824],[-118.80295,35.43891],[-118.80189,35.43833],[-118.80161,35.4376],[-118.80171,35.4371],[-118.80218,35.43671],[-118.80243,35.43617]]]}},{"type":"Feature","properties":{"pwsid":"CA1503526","pws_name":"WINI MUTUAL WATER COMPANY","pop_served":29,"connections":12,"geom_type":"polygon","sgti_ft_per_yr":-1.327,"n_wells_used":1,"n_wells_significant":1,"vuln_rank":32,"radius_m":2000},"geometry":{"type":"Polygon","coordinates":[[[-118.93214,35.32511],[-118.93215,35.31982],[-118.93434,35.3198],[-118.93433,35.32511],[-118.93214,35.32511]]]}},{"type":"Feature","properties":{"pwsid":"CA1503669","pws_name":"NORTH KRANENBURG WS","pop_served":28,"connections":9,"geom_type":"polygon","sgti_ft_per_yr":-5.126,"n_wells_used":6,"n_wells_significant":6,"vuln_rank":6,"radius_m":2000},"geometry":{"type":"Polygon","coordinates":[[[-119.19438,35.36828],[-119.19438,35.36679],[-119.19771,35.36678],[-119.19771,35.36753],[-119.19605,35.36753],[-119.19605,35.36828],[-119.19438,35.36828]]]}},{"type":"Feature","properties":{"pwsid":"CA1510011","pws_name":"BUTTONWILLOW CWD","pop_served":1508,"connections":416,"geom_type":"polygon","sgti_ft_per_yr":-2.159,"n_wells_used":2,"n_wells_significant":2,"vuln_rank":23,"radius_m":2000},"geometry":{"type":"MultiPolygon","coordinates":[[[[-119.45937,35.40397],[-119.45839,35.40159],[-119.4584,35.39918],[-119.46169,35.39958],[-119.46337,35.39959],[-119.46337,35.39917],[-119.47125,35.39919],[-119.47152,35.39921],[-119.47152,35.39935],[-119.47354,35.39931],[-119.47371,35.39915],[-119.48415,35.3992],[-119.48415,35.39983],[-119.47946,35.39977],[-119.47946,35.3999],[-119.47862,35.3999],[-119.4786,35.40116],[-119.47637,35.40114],[-119.47635,35.40344],[-119.47376,35.40369],[-119.47323,35.40339],[-119.47193,35.40304],[-119.47192,35.40402],[-119.46961,35.40398],[-119.46962,35.40281],[-119.46872,35.40279],[-119.46872,35.40215],[-119.46814,35.40177],[-119.46767,35.40169],[-119.46674,35.40199],[-119.46629,35.40192],[-119.46521,35.4006],[-119.46518,35.4039],[-119.46076,35.40388],[-119.46076,35.40515],[-119.45937,35.40397]]],[[[-119.46579,35.39683],[-119.4674,35.39681],[-119.4674,35.39796],[-119.46579,35.39683]]],[[[-119.47013,35.39688],[-119.47408,35.39681],[-119.47407,35.39888],[-119.47028,35.39886],[-119.47028,35.39859],[-119.47012,35.39859],[-119.47013,35.39688]]],[[[-119.48247,35.40117],[-119.48248,35.40032],[-119.48291,35.40033],[-119.48291,35.40118],[-119.48247,35.40117]]],[[[-119.48303,35.41255],[-119.48307,35.40681],[-119.48175,35.40627],[-119.48092,35.40546],[-119.48308,35.40542],[-119.4831,35.40397],[-119.48951,35.4037],[-119.48946,35.40831],[-119.48828,35.40896],[-119.48364,35.40705],[-119.48363,35.41255],[-119.48303,35.41255]]],[[[-119.45852,35.41327],[-119.45861,35.40776],[-119.46075,35.40772],[-119.46074,35.40954],[-119.46523,35.40952],[-119.4652,35.41325],[-119.45852,35.41327]]]]}},{"type":"Feature","properties":{"pwsid":"CA1510046","pws_name":"LOST HILLS UTILITY DISTRICT","pop_served":2370,"connections":450,"geom_type":"polygon","sgti_ft_per_yr":-0.161,"n_wells_used":1,"n_wells_significant":0,"vuln_rank":38,"radius_m":2000},"geometry":{"type":"MultiPolygon","coordinates":[[[[-119.88802,35.64389],[-119.88766,35.64392],[-119.883,35.6371],[-119.8808,35.63674],[-119.74636,35.61743],[-119.74405,35.61739],[-119.74117,35.61921],[-119.74133,35.62513],[-119.73652,35.6252],[-119.73639,35.62325],[-119.73834,35.62321],[-119.7383,35.61801],[-119.73333,35.61644],[-119.73132,35.61615],[-119.70584,35.61642],[-119.70788,35.61648],[-119.7077,35.62932],[-119.72556,35.62946],[-119.72521,35.64487],[-119.72238,35.64487],[-119.7223,35.64808],[-119.71509,35.64292],[-119.70753,35.63022],[-119.70024,35.61644],[-119.69848,35.61645],[-119.69766,35.61557],[-119.69815,35.61503],[-119.69811,35.61259],[-119.70352,35.61255],[-119.70367,35.61578],[-119.70708,35.61585],[-119.70699,35.61245],[-119.71143,35.61239],[-119.71141,35.6147],[-119.71566,35.61468],[-119.7156,35.61545],[-119.71678,35.61545],[-119.71679,35.61593],[-119.73313,35.61596],[-119.74016,35.61807],[-119.74422,35.61568],[-119.74615,35.61572],[-119.8585,35.63309],[-119.85852,35.62955],[-119.84983,35.62953],[-119.84968,35.61523],[-119.85788,35.61519],[-119.85788,35.60762],[-119.87054,35.61282],[-119.87058,35.61495],[-119.85913,35.61488],[-119.85913,35.63316],[-119.88244,35.63677],[-119.88212,35.63622],[-119.8857,35.63618],[-119.88585,35.64093],[-119.88802,35.64389]]],[[[-119.69848,35.61645],[-119.70033,35.62039],[-119.69859,35.62039],[-119.69853,35.61817],[-119.68979,35.61817],[-119.68977,35.61612],[-119.68972,35.62328],[-119.68957,35.62329],[-119.69422,35.62328],[-119.69417,35.6251],[-119.69006,35.62516],[-119.69004,35.62741],[-119.6899,35.62741],[-119.68994,35.62528],[-119.6896,35.62529],[-119.68972,35.6349],[-119.68091,35.6251],[-119.68069,35.61669],[-119.6615,35.61663],[-119.66151,35.61617],[-119.68068,35.61618],[-119.68057,35.60865],[-119.68767,35.60861],[-119.68754,35.60664],[-119.69003,35.60675],[-119.69215,35.60896],[-119.69338,35.61151],[-119.69848,35.61645]]],[[[-119.52567,35.616],[-119.52232,35.616],[-119.52217,35.623],[-119.5178,35.62317],[-119.51784,35.6159],[-119.51142,35.61579],[-119.51147,35.6171],[-119.50919,35.61714],[-119.50913,35.61933],[-119.50022,35.61942],[-119.50024,35.61567],[-119.50887,35.61565],[-119.50878,35.60454],[-119.50737,35.60447],[-119.50735,35.60107],[-119.50934,35.60103],[-119.50921,35.61553],[-119.61591,35.61607],[-119.61592,35.61588],[-119.6171,35.61587],[-119.61707,35.60147],[-119.6189,35.60147],[-119.61892,35.60264],[-119.61759,35.60262],[-119.61744,35.61621],[-119.64866,35.61658],[-119.6485,35.61505],[-119.65459,35.61519],[-119.65455,35.60888],[-119.66146,35.60888],[-119.6614,35.61895],[-119.65849,35.61897],[-119.65538,35.6202],[-119.65494,35.61957],[-119.64871,35.61704],[-119.64869,35.61686],[-119.61742,35.61644],[-119.61749,35.61839],[-119.6159,35.61839],[-119.6159,35.61639],[-119.58387,35.61614],[-119.58376,35.61651],[-119.58286,35.61654],[-119.58284,35.61612],[-119.54631,35.61604],[-119.54629,35.61673],[-119.5444,35.61677],[-119.54443,35.61598],[-119.54052,35.61607],[-119.54041,35.61677],[-119.53943,35.61679],[-119.53947,35.61598],[-119.52705,35.61598],[-119.527,35.61686],[-119.52567,35.61693],[-119.52567,35.616]]],[[[-119.92416,35.64378],[-119.88802,35.64389],[-119.8879,35.64371],[-119.92106,35.64352],[-119.92107,35.64262],[-119.9314,35.64559],[-119.93691,35.64508],[-119.94573,35.64645],[-119.9512,35.64513],[-119.95512,35.64507],[-119.95764,35.64369],[-119.9613,35.64372],[-119.96398,35.64439],[-119.96653,35.64471],[-119.97101,35.64406],[-119.97366,35.64201],[-119.97895,35.63964],[-119.98509,35.63872],[-119.99849,35.64236],[-120.00747,35.64111],[-120.00766,35.64077],[-120.00763,35.63544],[-120.01992,35.64135],[-120.0199,35.64213],[-120.01342,35.641],[-120.00183,35.64255],[-120.00183,35.64397],[-119.99207,35.6439],[-119.99214,35.64107],[-119.98505,35.63906],[-119.97909,35.63999],[-119.97381,35.64226],[-119.97119,35.64431],[-119.96641,35.64503],[-119.96392,35.64471],[-119.96087,35.64394],[-119.96029,35.64398],[-119.96038,35.65071],[-119.95682,35.65072],[-119.95684,35.65632],[-119.95418,35.65627],[-119.95414,35.64919],[-119.95163,35.64919],[-119.95163,35.64541],[-119.94568,35.64685],[-119.93691,35.64544],[-119.93135,35.64596],[-119.92416,35.64378]]],[[[-119.68994,35.62904],[-119.6899,35.62741],[-119.69126,35.62742],[-119.69123,35.62905],[-119.68994,35.62904]]]]}}]}